No errors
Max results hit (1000): not all possible results returned; 
96 ms
data source=metars
1000 results
raw_text,station_id,observation_time,latitude,longitude,temp_c,dewpoint_c,wind_dir_degrees,wind_speed_kt,wind_gust_kt,visibility_statute_mi,altim_in_hg,sea_level_pressure_mb,corrected,auto,auto_station,maintenance_indicator_on,no_signal,lightning_sensor_off,freezing_rain_sensor_off,present_weather_sensor_off,wx_string,sky_cover,cloud_base_ft_agl,sky_cover,cloud_base_ft_agl,sky_cover,cloud_base_ft_agl,sky_cover,cloud_base_ft_agl,flight_category,three_hr_pressure_tendency_mb,maxT_c,minT_c,maxT24hr_c,minT24hr_c,precip_in,pcp3hr_in,pcp6hr_in,pcp24hr_in,snow_in,vert_vis_ft,metar_type,elevation_m
EHLW 270055Z AUTO 26004KT 9999 BKN096 OVC110 05/04 Q1031 BLU,EHLW,2019-03-27T00:55:00Z,53.22,5.75,5.0,4.0,260,4,,6.21,30.442913,,,TRUE,,,,,,,,BKN,9600,OVC,11000,,,,,VFR,,,,,,,,,,,,METAR,2.0
EHGR 270055Z AUTO 28003KT 240V310 9999 OVC046 06/05 Q1032 BLU,EHGR,2019-03-27T00:55:00Z,51.57,4.92,6.0,5.0,280,3,,6.21,30.47244,,,TRUE,,,,,,,,OVC,4600,,,,,,,VFR,,,,,,,,,,,,METAR,13.0
EHDL 270055Z AUTO 00000KT 6000 R20/1800D BR BKN010 BKN013 OVC360 01/00 Q1031 GRN,EHDL,2019-03-27T00:55:00Z,52.07,5.87,1.0,0.0,0,0,,3.73,30.442913,,,TRUE,,,,,,,BR,BKN,1000,BKN,1300,OVC,36000,,,MVFR,,,,,,,,,,,,METAR,52.0
YHID 270055Z AUTO 31009KT 5000 -SHRA SCT012 BKN055 OVC066 27/25 Q1012,YHID,2019-03-27T00:55:00Z,-10.58,142.3,27.0,25.0,310,9,,3.11,29.88189,,,TRUE,,,,,,,-SHRA,SCT,1200,BKN,5500,OVC,6600,,,MVFR,,,,,,,,,,,,SPECI,13.0
KAIK 270055Z AUTO 05008KT 10SM SCT080 11/05 A3022 RMK AO2,KAIK,2019-03-27T00:55:00Z,33.65,-81.68,11.0,5.0,50,8,,10.0,30.221457,,,TRUE,TRUE,,,,,,,SCT,8000,,,,,,,VFR,,,,,,,,,,,,METAR,161.0
KALM 270055Z AUTO 17013G19KT 10SM CLR 23/07 A3006 RMK AO2,KALM,2019-03-27T00:55:00Z,32.82,-105.97,23.0,7.0,170,13,19,10.0,30.059055,,,TRUE,TRUE,,,,,,,CLR,,,,,,,,VFR,,,,,,,,,,,,METAR,1279.0
KCKM 270055Z AUTO 36007KT 10SM 10/02 A3031 RMK A01,KCKM,2019-03-27T00:55:00Z,34.3,-90.52,10.0,2.0,360,7,,10.0,30.31004,,,TRUE,TRUE,,,,,,,,,,,,,,,,,,,,,,,,,,,METAR,53.0
KLSF 270055Z AUTO 29005KT 10SM -DZ BKN043 OVC055 14/10 A3012 RMK AO2 DZB55 SLP205,KLSF,2019-03-27T00:55:00Z,32.32,-84.97,14.0,10.0,290,5,,10.0,30.121063,1020.5,,TRUE,TRUE,,,,,,-DZ,BKN,4300,OVC,5500,,,,,VFR,,,,,,,,,,,,SPECI,71.0
KSPA 270055Z AUTO 02007KT 10SM OVC060 11/05 A3022 RMK AO2,KSPA,2019-03-27T00:55:00Z,34.92,-81.93,11.0,5.0,20,7,,10.0,30.221457,,,TRUE,TRUE,,,,,,,OVC,6000,,,,,,,VFR,,,,,,,,,,,,SPECI,303.0
KSIK 270055Z AUTO 36005KT 10SM CLR 08/M01 A3035 RMK AO2,KSIK,2019-03-27T00:55:00Z,36.9,-89.57,8.0,-1.0,360,5,,10.0,30.351377,,,TRUE,TRUE,,,,,,,CLR,,,,,,,,VFR,,,,,,,,,,,,SPECI,96.0
KLQK 270055Z AUTO 08005KT 10SM OVC042 11/06 A3020 RMK AO2 T01080062,KLQK,2019-03-27T00:55:00Z,34.82,-82.7,10.8,6.2,80,5,,10.0,30.200787,,,TRUE,TRUE,,,,,,,OVC,4200,,,,,,,VFR,,,,,,,,,,,,SPECI,309.0
KINF 270055Z AUTO 00000KT 10SM CLR 17/15 A3003 RMK AO2,KINF,2019-03-27T00:55:00Z,28.8,-82.32,17.0,15.0,0,0,,10.0,30.029528,,,TRUE,TRUE,,,,,,,CLR,,,,,,,,VFR,,,,,,,,,,,,SPECI,15.0
KIFA 270055Z AUTO 14008KT 10SM OVC060 09/03 A3024 RMK AO2 T00910033,KIFA,2019-03-27T00:55:00Z,42.47,-93.27,9.1,3.3,140,8,,10.0,30.239174,,,TRUE,TRUE,,,,,,,OVC,6000,,,,,,,VFR,,,,,,,,,,,,METAR,347.0
KHXD 270055Z AUTO 04010G20KT 10SM BKN027 OVC032 13/08 A3017 RMK AO2,KHXD,2019-03-27T00:55:00Z,32.22,-80.7,13.0,8.0,40,10,20,10.0,30.171259,,,TRUE,TRUE,,,,,,,BKN,2700,OVC,3200,,,,,MVFR,,,,,,,,,,,,METAR,6.0
KICL 270055Z AUTO 16007KT 10SM CLR 12/05 A3023 RMK AO2,KICL,2019-03-27T00:55:00Z,40.72,-95.02,12.0,5.0,160,7,,10.0,30.230314,,,TRUE,TRUE,,,,,,,CLR,,,,,,,,VFR,,,,,,,,,,,,METAR,303.0
KIIB 270055Z AUTO 16008KT 10SM CLR 04/M03 A3029 RMK AO2 T00351031,KIIB,2019-03-27T00:55:00Z,42.45,-91.95,3.5,-3.1,160,8,,10.0,30.28937,,,TRUE,TRUE,,,,,,,CLR,,,,,,,,VFR,,,,,,,,,,,,METAR,298.0
KPEA 270055Z AUTO 14005KT 10SM SCT070 09/00 A3029 RMK AO2 T00871003,KPEA,2019-03-27T00:55:00Z,41.4,-92.95,8.7,-0.3,140,5,,10.0,30.28937,,,TRUE,TRUE,,,,,,,SCT,7000,,,,,,,VFR,,,,,,,,,,,,METAR,270.0
KBKN 270055Z AUTO 14007KT 10SM CLR 16/08 A3026 RMK AO2,KBKN,2019-03-27T00:55:00Z,36.75,-97.35,16.0,8.0,140,7,,10.0,30.259842,,,TRUE,TRUE,,,,,,,CLR,,,,,,,,VFR,,,,,,,,,,,,METAR,314.0
KANQ 270055Z AUTO 00000KT 10SM CLR 03/M06 A3037 RMK AO2,KANQ,2019-03-27T00:55:00Z,41.63,-85.08,3.0,-6.0,0,0,,10.0,30.369095,,,TRUE,TRUE,,,,,,,CLR,,,,,,,,VFR,,,,,,,,,,,,METAR,303.0
K2C8 270055Z AUTO 18012KT 4SM BR OVC008 01/00 A2994 RMK AO2,K2C8,2019-03-27T00:55:00Z,48.78,-97.63,1.0,0.0,180,12,,4.0,29.940945,,,TRUE,TRUE,,,,,,BR,OVC,800,,,,,,,IFR,,,,,,,,,,,,METAR,272.0
KC35 270055Z AUTO 19005KT 10SM CLR 04/M07 A3031 RMK AO2 T00441073,KC35,2019-03-27T00:55:00Z,43.53,-89.98,4.4,-7.3,190,5,,10.0,30.31004,,,TRUE,TRUE,,,,,,,CLR,,,,,,,,VFR,,,,,,,,,,,,METAR,276.0
KGLY 270055Z AUTO 15003KT 10SM CLR 11/04 A3030 RMK AO2,KGLY,2019-03-27T00:55:00Z,38.35,-93.68,11.0,4.0,150,3,,10.0,30.301182,,,TRUE,TRUE,,,,,,,CLR,,,,,,,,VFR,,,,,,,,,,,,METAR,251.0
KGGI 270055Z AUTO 14008KT 10SM CLR 07/M02 A3029 RMK AO2 T00701016,KGGI,2019-03-27T00:55:00Z,41.72,-92.73,7.0,-1.6,140,8,,10.0,30.28937,,,TRUE,TRUE,,,,,,,CLR,,,,,,,,VFR,,,,,,,,,,,,METAR,307.0
KPRO 270055Z AUTO 15008KT 10SM BKN050 09/06 A3023 RMK AO2 T00910057,KPRO,2019-03-27T00:55:00Z,41.83,-94.17,9.1,5.7,150,8,,10.0,30.230314,,,TRUE,TRUE,,,,,,,BKN,5000,,,,,,,VFR,,,,,,,,,,,,METAR,308.0
KTNU 270055Z AUTO 14009KT 10SM BKN065 07/00 A3027 RMK AO2,KTNU,2019-03-27T00:55:00Z,41.67,-93.02,7.0,0.0,140,9,,10.0,30.268702,,,TRUE,TRUE,,,,,,,BKN,6500,,,,,,,VFR,,,,,,,,,,,,METAR,290.0
KMAO 270055Z AUTO 00000KT 10SM CLR 08/05 A3023 RMK AO2,KMAO,2019-03-27T00:55:00Z,34.18,-79.33,8.0,5.0,0,0,,10.0,30.230314,,,TRUE,TRUE,,,,,,,CLR,,,,,,,,VFR,,,,,,,,,,,,METAR,28.0
KLRY 270055Z AUTO 15003KT 7SM CLR 13/03 A3031 RMK AO2,KLRY,2019-03-27T00:55:00Z,38.62,-94.35,13.0,3.0,150,3,,7.0,30.31004,,,TRUE,TRUE,,,,,,,CLR,,,,,,,,VFR,,,,,,,,,,,,METAR,279.0
KIDI 270055Z AUTO 00000KT 10SM CLR 03/M13 A3036 RMK A01,KIDI,2019-03-27T00:55:00Z,40.62,-79.08,3.0,-13.0,0,0,,10.0,30.360237,,,TRUE,TRUE,,,,,,,CLR,,,,,,,,VFR,,,,,,,,,,,,METAR,429.0
KEOK 270055Z AUTO 00000KT 10SM CLR 08/M07 A3034 RMK AO2,KEOK,2019-03-27T00:55:00Z,40.47,-91.42,8.0,-7.0,0,0,,10.0,30.339567,,,TRUE,TRUE,,,,,,,CLR,,,,,,,,VFR,,,,,,,,,,,,METAR,205.0
KZPH 270055Z AUTO 30006KT 10SM CLR 20/15 A3003 RMK AO2 T01970146 PWINO,KZPH,2019-03-27T00:55:00Z,28.23,-82.15,19.7,14.6,300,6,,10.0,30.029528,,,TRUE,TRUE,,,,,TRUE,,CLR,,,,,,,,VFR,,,,,,,,,,,,METAR,26.0
KPSO 270055Z AUTO 00000KT 10SM SCT110 12/M07 A3021 RMK AO2 T01161070,KPSO,2019-03-27T00:55:00Z,37.28,-107.05,11.6,-7.0,0,0,,10.0,30.209646,,,TRUE,TRUE,,,,,,,SCT,11000,,,,,,,VFR,,,,,,,,,,,,METAR,2334.0
KGGE 270055Z AUTO 01003KT 10SM OVC048 12/07 A3021 RMK AO2,KGGE,2019-03-27T00:55:00Z,33.32,-79.32,12.0,7.0,10,3,,10.0,30.209646,,,TRUE,TRUE,,,,,,,OVC,4800,,,,,,,VFR,,,,,,,,,,,,METAR,12.0
KSDC 270055Z AUTO 00000KT 10SM CLR M02/M12 A3043 RMK AO2,KSDC,2019-03-27T00:55:00Z,43.23,-77.12,-2.0,-12.0,0,0,,10.0,30.431103,,,TRUE,TRUE,,,,,,,CLR,,,,,,,,VFR,,,,,,,,,,,,METAR,129.0
KVDF 270055Z AUTO 00000KT 10SM CLR 20/15 A3003 RMK AO2,KVDF,2019-03-27T00:55:00Z,28.02,-82.33,20.0,15.0,0,0,,10.0,30.029528,,,TRUE,TRUE,,,,,,,CLR,,,,,,,,VFR,,,,,,,,,,,,METAR,7.0
KVNW 270055Z AUTO 11007KT 10SM CLR 03/M07 A3039 RMK AO2,KVNW,2019-03-27T00:55:00Z,40.87,-84.62,3.0,-7.0,110,7,,10.0,30.389763,,,TRUE,TRUE,,,,,,,CLR,,,,,,,,VFR,,,,,,,,,,,,METAR,239.0
YLIS 270055Z AUTO 19010KT 9999 // SCT010 SCT048 BKN055 21/19 Q1020,YLIS,2019-03-27T00:55:00Z,-28.83,153.27,21.0,19.0,190,10,,6.21,30.11811,,,TRUE,,,,,,,,SCT,1000,SCT,4800,BKN,5500,,,VFR,,,,,,,,,,,,SPECI,11.0
ORBD 270055Z 11005KT 8000 BRFU CLR 11/09 A3000 RMK WND DATA ALSTG ESTMD,ORBD,2019-03-27T00:55:00Z,33.93,44.37,11.0,9.0,110,5,,4.97,30.0,,,,,,,,,,FU BR,CLR,,,,,,,,MVFR,,,,,,,,,,,,METAR,49.0
KCBG 270055Z AUTO 17005KT 10SM BKN044 OVC060 08/00 A3018 RMK AO2,KCBG,2019-03-27T00:55:00Z,45.57,-93.27,8.0,0.0,170,5,,10.0,30.180119,,,TRUE,TRUE,,,,,,,BKN,4400,OVC,6000,,,,,VFR,,,,,,,,,,,,METAR,287.0
KCAD 270055Z AUTO 00000KT 10SM CLR 02/M11 A3033 RMK AO2 T00231113,KCAD,2019-03-27T00:55:00Z,44.27,-85.42,2.3,-11.3,0,0,,10.0,30.33071,,,TRUE,TRUE,,,,,,,CLR,,,,,,,,VFR,,,,,,,,,,,,METAR,398.0
KCDA 270055Z AUTO 00000KT 10SM CLR M05/M16 A3033 RMK AO2 T10541161,KCDA,2019-03-27T00:55:00Z,44.57,-72.02,-5.4,-16.1,0,0,,10.0,30.33071,,,TRUE,TRUE,,,,,,,CLR,,,,,,,,VFR,,,,,,,,,,,,METAR,363.0
KCFS 270055Z AUTO 00000KT 10SM CLR M01/M10 A3040 RMK AO2 T10121098,KCFS,2019-03-27T00:55:00Z,43.47,-83.45,-1.2,-9.8,0,0,,10.0,30.398623,,,TRUE,TRUE,,,,,,,CLR,,,,,,,,VFR,,,,,,,,,,,,METAR,214.0
KCVX 270055Z AUTO 16003KT 10SM CLR 00/M10 A3037 RMK AO2 T00021105,KCVX,2019-03-27T00:55:00Z,45.3,-85.27,0.2,-10.5,160,3,,10.0,30.369095,,,TRUE,TRUE,,,,,,,CLR,,,,,,,,VFR,,,,,,,,,,,,METAR,204.0
KCVH 270055Z AUTO 30004KT 10SM SCT110 18/10 A2993 RMK A01,KCVH,2019-03-27T00:55:00Z,36.9,-121.42,18.0,10.0,300,4,,10.0,29.929134,,,TRUE,TRUE,,,,,,,SCT,11000,,,,,,,VFR,,,,,,,,,,,,METAR,70.0
KD95 270055Z AUTO 00000KT 10SM CLR 01/M05 A3040 RMK AO2 T00081046,KD95,2019-03-27T00:55:00Z,43.07,-83.27,0.8,-4.6,0,0,,10.0,30.398623,,,TRUE,TRUE,,,,,,,CLR,,,,,,,,VFR,,,,,,,,,,,,METAR,255.0
KDRM 270055Z AUTO 00000KT 10SM CLR M01/M10 A3034 RMK AO2 T10141100,KDRM,2019-03-27T00:55:00Z,46.0,-83.75,-1.4,-10.0,0,0,,10.0,30.339567,,,TRUE,TRUE,,,,,,,CLR,,,,,,,,VFR,,,,,,,,,,,,METAR,204.0
KDLZ 270055Z AUTO 36008KT 10SM SCT110 02/M07 A3037 RMK AO2,KDLZ,2019-03-27T00:55:00Z,40.28,-83.12,2.0,-7.0,360,8,,10.0,30.369095,,,TRUE,TRUE,,,,,,,SCT,11000,,,,,,,VFR,,,,,,,,,,,,METAR,289.0
KDYT 270055Z AUTO 10SM OVC060 06/M02 A3019 RMK AO2,KDYT,2019-03-27T00:55:00Z,46.72,-92.03,6.0,-2.0,,,,10.0,30.188976,,,TRUE,TRUE,,,,,,,OVC,6000,,,,,,,VFR,,,,,,,,,,,,METAR,186.0
KDUH 270055Z AUTO 00000KT 10SM CLR 01/M08 A3041 RMK AO2 T00141077,KDUH,2019-03-27T00:55:00Z,41.73,-83.65,1.4,-7.7,0,0,,10.0,30.410433,,,TRUE,TRUE,,,,,,,CLR,,,,,,,,VFR,,,,,,,,,,,,METAR,204.0
KELO 270055Z AUTO 21006KT 10SM OVC038 04/M07 A3012 RMK AO2,KELO,2019-03-27T00:55:00Z,47.82,-91.82,4.0,-7.0,210,6,,10.0,30.121063,,,TRUE,TRUE,,,,,,,OVC,3800,,,,,,,VFR,,,,,,,,,,,,METAR,443.0
KEFK 270055Z AUTO 26003KT 10SM CLR M06/M16 A3034 RMK AO2 T10601159,KEFK,2019-03-27T00:55:00Z,44.88,-72.23,-6.0,-15.9,260,3,,10.0,30.339567,,,TRUE,TRUE,,,,,,,CLR,,,,,,,,VFR,,,,,,,,,,,,METAR,284.0
K22N 270055Z AUTO 34003KT 10SM CLR 03/M16 A3036 RMK AO2,K22N,2019-03-27T00:55:00Z,40.8,-75.77,3.0,-16.0,340,3,,10.0,30.360237,,,TRUE,TRUE,,,,,,,CLR,,,,,,,,VFR,,,,,,,,,,,,METAR,163.0
K1V6 270055Z AUTO 17005KT 10SM CLR 18/00 A3003 RMK AO2,K1V6,2019-03-27T00:55:00Z,38.43,-105.1,18.0,0.0,170,5,,10.0,30.029528,,,TRUE,TRUE,,,,,,,CLR,,,,,,,,VFR,,,,,,,,,,,,METAR,1658.0
K14Y 270055Z AUTO 17008KT 10SM OVC022 05/02 A3012 RMK AO2,K14Y,2019-03-27T00:55:00Z,45.9,-94.87,5.0,2.0,170,8,,10.0,30.121063,,,TRUE,TRUE,,,,,,,OVC,2200,,,,,,,MVFR,,,,,,,,,,,,METAR,406.0
KFGN 270055Z AUTO 16010KT 10SM OVC025 01/M02 A3000 RMK AO2,KFGN,2019-03-27T00:55:00Z,49.32,-94.9,1.0,-2.0,160,10,,10.0,30.0,,,TRUE,TRUE,,,,,,,OVC,2500,,,,,,,MVFR,,,,,,,,,,,,METAR,328.0
KFFX 270055Z AUTO 00000KT 10SM CLR 02/M14 A3038 RMK AO2 T00241137,KFFX,2019-03-27T00:55:00Z,43.43,-86.0,2.4,-13.7,0,0,,10.0,30.380905,,,TRUE,TRUE,,,,,,,CLR,,,,,,,,VFR,,,,,,,,,,,,METAR,236.0
KFFM 270055Z AUTO 16011KT 10SM OVC018 04/02 A3006 RMK AO2,KFFM,2019-03-27T00:55:00Z,46.28,-96.15,4.0,2.0,160,11,,10.0,30.059055,,,TRUE,TRUE,,,,,,,OVC,1800,,,,,,,MVFR,,,,,,,,,,,,METAR,361.0
K5SM 270055Z AUTO 22012G22KT 10SM CLR 01/M06 A3029 RMK AO2,K5SM,2019-03-27T00:55:00Z,39.43,-107.38,1.0,-6.0,220,12,22,10.0,30.28937,,,TRUE,TRUE,,,,,,,CLR,,,,,,,,VFR,,,,,,,,,,,,METAR,3232.0
K4I3 270055Z AUTO 36005KT 10SM CLR 03/M06 A3037 RMK AO2,K4I3,2019-03-27T00:55:00Z,40.33,-82.53,3.0,-6.0,360,5,,10.0,30.369095,,,TRUE,TRUE,,,,,,,CLR,,,,,,,,VFR,,,,,,,,,,,,METAR,363.0
K33V 270055Z AUTO 13005KT 10SM CLR 02/M05 A3014 RMK AO1,K33V,2019-03-27T00:55:00Z,40.75,-106.28,2.0,-5.0,130,5,,10.0,30.138779,,,TRUE,TRUE,,,,,,,CLR,,,,,,,,VFR,,,,,,,,,,,,METAR,2484.0
KANK 270055Z AUTO 20009G15KT 10SM CLR 15/M13 A3021 RMK AO1 T01501129,KANK,2019-03-27T00:55:00Z,38.53,-106.05,15.0,-12.9,200,9,15,10.0,30.209646,,,TRUE,TRUE,,,,,,,CLR,,,,,,,,VFR,,,,,,,,,,,,METAR,2293.0
K1S5 270055Z AUTO 14004KT 10SM CLR 14/00 A2999 RMK AO2 T01401003,K1S5,2019-03-27T00:55:00Z,46.33,-119.97,14.0,-0.3,140,4,,10.0,29.991142,,,TRUE,TRUE,,,,,,,CLR,,,,,,,,VFR,,,,,,,,,,,,METAR,234.0
K1P1 270055Z AUTO 00000KT 10SM CLR M01/M17 A3033 RMK AO2 T10091175,K1P1,2019-03-27T00:55:00Z,43.78,-71.75,-0.9,-17.5,0,0,,10.0,30.33071,,,TRUE,TRUE,,,,,,,CLR,,,,,,,,VFR,,,,,,,,,,,,METAR,154.0
KAMN 270055Z AUTO 00000KT 10SM CLR 03/M07 A3039 RMK AO2 T00321074,KAMN,2019-03-27T00:55:00Z,43.32,-84.68,3.2,-7.4,0,0,,10.0,30.389763,,,TRUE,TRUE,,,,,,,CLR,,,,,,,,VFR,,,,,,,,,,,,METAR,230.0
KBJI 270055Z AUTO 18009KT 10SM OVC019 03/M02 A3007 RMK AO2 T00281025,KBJI,2019-03-27T00:55:00Z,47.5,-94.92,2.8,-2.5,180,9,,10.0,30.070866,,,TRUE,TRUE,,,,,,,OVC,1900,,,,,,,MVFR,,,,,,,,,,,,METAR,420.0
KBFW 270055Z AUTO 22005KT 10SM OVC046 06/M05 A2992 RMK AO2,KBFW,2019-03-27T00:55:00Z,47.25,-91.4,6.0,-5.0,220,5,,10.0,29.920275,,,TRUE,TRUE,,,,,,,OVC,4600,,,,,,,VFR,,,,,,,,,,,,METAR,331.0
KBDU 270055Z AUTO 00000KT 10SM CLR 17/M05 A2999 RMK AO2,KBDU,2019-03-27T00:55:00Z,40.03,-105.23,17.0,-5.0,0,0,,10.0,29.991142,,,TRUE,TRUE,,,,,,,CLR,,,,,,,,VFR,,,,,,,,,,,,METAR,1612.0
KBDH 270055Z AUTO 14010KT 10SM OVC032 07/04 A3014 RMK AO2,KBDH,2019-03-27T00:55:00Z,45.12,-95.13,7.0,4.0,140,10,,10.0,30.138779,,,TRUE,TRUE,,,,,,,OVC,3200,,,,,,,VFR,,,,,,,,,,,,METAR,247.0
KBAX 270055Z AUTO 14004KT 10SM CLR 00/M06 A3040 RMK AO2 T10011064,KBAX,2019-03-27T00:55:00Z,43.78,-82.98,-0.1,-6.4,140,4,,10.0,30.398623,,,TRUE,TRUE,,,,,,,CLR,,,,,,,,VFR,,,,,,,,,,,,METAR,234.0
KAXV 270055Z AUTO 05004KT 10SM CLR 02/M07 A3038 RMK AO2,KAXV,2019-03-27T00:55:00Z,40.5,-84.3,2.0,-7.0,50,4,,10.0,30.380905,,,TRUE,TRUE,,,,,,,CLR,,,,,,,,VFR,,,,,,,,,,,,METAR,279.0
KFSE 270055Z AUTO 17009KT 10SM OVC016 01/M02 A3006 RMK AO2,KFSE,2019-03-27T00:55:00Z,47.58,-95.77,1.0,-2.0,170,9,,10.0,30.059055,,,TRUE,TRUE,,,,,,,OVC,1600,,,,,,,MVFR,,,,,,,,,,,,METAR,389.0
KFPK 270055Z AUTO 01003KT 10SM CLR 03/M09 A3038 RMK AO2 T00281088,KFPK,2019-03-27T00:55:00Z,42.57,-84.82,2.8,-8.8,10,3,,10.0,30.380905,,,TRUE,TRUE,,,,,,,CLR,,,,,,,,VFR,,,,,,,,,,,,METAR,272.0
KFKS 270055Z AUTO 00000KT 10SM CLR 02/M11 A3035 RMK AO2 T00211109,KFKS,2019-03-27T00:55:00Z,44.63,-86.2,2.1,-10.9,0,0,,10.0,30.351377,,,TRUE,TRUE,,,,,,,CLR,,,,,,,,VFR,,,,,,,,,,,,METAR,193.0
KFSO 270055Z AUTO 00000KT 10SM CLR M03/M15 A3039 RMK AO2 T10351147,KFSO,2019-03-27T00:55:00Z,44.93,-73.1,-3.5,-14.7,0,0,,10.0,30.389763,,,TRUE,TRUE,,,,,,,CLR,,,,,,,,VFR,,,,,,,,,,,,METAR,70.0
KACQ 270055Z AUTO 15005KT 10SM OVC034 07/02 A3021 RMK AO2,KACQ,2019-03-27T00:55:00Z,44.07,-93.55,7.0,2.0,150,5,,10.0,30.209646,,,TRUE,TRUE,,,,,,,OVC,3400,,,,,,,VFR,,,,,,,,,,,,METAR,343.0
KACB 270055Z AUTO 00000KT 10SM CLR 00/M09 A3036 RMK AO2 T10011088,KACB,2019-03-27T00:55:00Z,44.98,-85.2,-0.1,-8.8,0,0,,10.0,30.360237,,,TRUE,TRUE,,,,,,,CLR,,,,,,,,VFR,,,,,,,,,,,,METAR,190.0
K9MN 270055Z AUTO 15006KT 10SM SCT040 07/00 A3024 RMK AO1 T00721002,K9MN,2019-03-27T00:55:00Z,44.02,-92.48,7.2,-0.2,150,6,,10.0,30.239174,,,TRUE,TRUE,,,,,,,SCT,4000,,,,,,,VFR,,,,,,,,,,,,METAR,355.0
KGHW 270055Z AUTO 15005KT 10SM BKN019 05/03 A3011 RMK AO2,KGHW,2019-03-27T00:55:00Z,45.63,-95.32,5.0,3.0,150,5,,10.0,30.109253,,,TRUE,TRUE,,,,,,,BKN,1900,,,,,,,MVFR,,,,,,,,,,,,METAR,425.0
KGDB 270055Z AUTO 13010KT 7SM CLR 08/05 A3012 RMK AO2 T00750053,KGDB,2019-03-27T00:55:00Z,44.75,-95.55,7.5,5.3,130,10,,7.0,30.121063,,,TRUE,TRUE,,,,,,,CLR,,,,,,,,VFR,,,,,,,,,,,,METAR,319.0
KHEQ 270055Z AUTO 14009KT 10SM CLR 16/05 A3001 RMK AO2,KHEQ,2019-03-27T00:55:00Z,40.57,-102.28,16.0,5.0,140,9,,10.0,30.008858,,,TRUE,TRUE,,,,,,,CLR,,,,,,,,VFR,,,,,,,,,,,,METAR,1137.0
KHAI 270055Z AUTO 00000KT 10SM CLR 04/M12 A3038 RMK AO2 T00351119,KHAI,2019-03-27T00:55:00Z,41.97,-85.6,3.5,-11.9,0,0,,10.0,30.380905,,,TRUE,TRUE,,,,,,,CLR,,,,,,,,VFR,,,,,,,,,,,,METAR,251.0
KHAF 270055Z AUTO 17005KT 9SM OVC060 14/09 A2994 RMK AO2,KHAF,2019-03-27T00:55:00Z,37.52,-122.5,14.0,9.0,170,5,,9.0,29.940945,,,TRUE,TRUE,,,,,,,OVC,6000,,,,,,,VFR,,,,,,,,,,,,METAR,21.0
KGYL 270055Z AUTO 15006KT 10SM OVC030 08/05 A3017 RMK AO2 T00800045,KGYL,2019-03-27T00:55:00Z,44.77,-94.08,8.0,4.5,150,6,,10.0,30.171259,,,TRUE,TRUE,,,,,,,OVC,3000,,,,,,,MVFR,,,,,,,,,,,,METAR,302.0
KTKC 270055Z AUTO 18008KT 7SM CLR 07/05 A3011 RMK AO2 T00710054 TSNO,KTKC,2019-03-27T00:55:00Z,44.25,-95.62,7.1,5.4,180,8,,7.0,30.109253,,,TRUE,TRUE,,,TRUE,,,,CLR,,,,,,,,VFR,,,,,,,,,,,,METAR,408.0
KJYM 270055Z AUTO 16003KT 10SM CLR 03/M13 A3036 RMK AO2 T00291128,KJYM,2019-03-27T00:55:00Z,41.92,-84.58,2.9,-12.8,160,3,,10.0,30.360237,,,TRUE,TRUE,,,,,,,CLR,,,,,,,,VFR,,,,,,,,,,,,METAR,360.0
KJKJ 270055Z AUTO 15010KT 10SM OVC017 02/01 A3005 RMK AO2,KJKJ,2019-03-27T00:55:00Z,46.83,-96.67,2.0,1.0,150,10,,10.0,30.050198,,,TRUE,TRUE,,,,,,,OVC,1700,,,,,,,MVFR,,,,,,,,,,,,METAR,280.0
KIRS 270055Z AUTO 00000KT 10SM CLR 04/M13 A3037 RMK AO2 T00401129,KIRS,2019-03-27T00:55:00Z,41.8,-85.43,4.0,-12.9,0,0,,10.0,30.369095,,,TRUE,TRUE,,,,,,,CLR,,,,,,,,VFR,,,,,,,,,,,,METAR,282.0
KI69 270055Z AUTO 00000KT 10SM CLR 05/M05 A3037 RMK AO2 T00501055,KI69,2019-03-27T00:55:00Z,39.08,-84.22,5.0,-5.5,0,0,,10.0,30.369095,,,TRUE,TRUE,,,,,,,CLR,,,,,,,,VFR,,,,,,,,,,,,METAR,255.0
KHZX 270055Z AUTO 18003KT 10SM SCT042 OVC050 04/M02 A3015 RMK AO2,KHZX,2019-03-27T00:55:00Z,46.62,-93.32,4.0,-2.0,180,3,,10.0,30.15059,,,TRUE,TRUE,,,,,,,SCT,4200,OVC,5000,,,,,VFR,,,,,,,,,,,,METAR,374.0
KY70 270055Z AUTO 12005KT 10SM CLR 02/M09 A3038 RMK AO2 T00241087,KY70,2019-03-27T00:55:00Z,42.93,-85.07,2.4,-8.7,120,5,,10.0,30.380905,,,TRUE,TRUE,,,,,,,CLR,,,,,,,,VFR,,,,,,,,,,,,METAR,250.0
KY63 270055Z AUTO 11010KT 10SM OVC018 04/03 A3007 RMK AO2 T00350026,KY63,2019-03-27T00:55:00Z,45.98,-96.0,3.5,2.6,110,10,,10.0,30.070866,,,TRUE,TRUE,,,,,,,OVC,1800,,,,,,,MVFR,,,,,,,,,,,,METAR,367.0
KY31 270055Z AUTO 14004KT 10SM CLR 01/M11 A3036 RMK AO2 T00111106,KY31,2019-03-27T00:55:00Z,44.25,-84.18,1.1,-10.6,140,4,,10.0,30.360237,,,TRUE,TRUE,,,,,,,CLR,,,,,,,,VFR,,,,,,,,,,,,METAR,269.0
KWYS 270055Z AUTO 22008KT 10SM FEW070 OVC080 06/M04 A2996 RMK AO2,KWYS,2019-03-27T00:55:00Z,44.67,-111.12,6.0,-4.0,220,8,,10.0,29.958662,,,TRUE,TRUE,,,,,,,FEW,7000,OVC,8000,,,,,VFR,,,,,,,,,,,,METAR,2025.0
KWWD 270055Z AUTO 00000KT 10SM CLR 01/M04 A3035 RMK AO2 SLP279 T00111044 FZRANO,KWWD,2019-03-27T00:55:00Z,39.02,-74.92,1.1,-4.4,0,0,,10.0,30.351377,1027.9,,TRUE,TRUE,,,,TRUE,,,CLR,,,,,,,,VFR,,,,,,,,,,,,METAR,7.0
KVVV 270055Z AUTO 14009KT 7SM CLR 05/03 A3006 RMK AO2,KVVV,2019-03-27T00:55:00Z,45.3,-96.42,5.0,3.0,140,9,,7.0,30.059055,,,TRUE,TRUE,,,,,,,CLR,,,,,,,,VFR,,,,,,,,,,,,METAR,335.0
KULM 270055Z AUTO 16008KT 10SM OVC029 08/04 A3016 RMK AO2,KULM,2019-03-27T00:55:00Z,44.32,-94.5,8.0,4.0,160,8,,10.0,30.159449,,,TRUE,TRUE,,,,,,,OVC,2900,,,,,,,MVFR,,,,,,,,,,,,METAR,308.0
KUKT 270055Z AUTO 35005KT 10SM CLR 04/M17 A3034 RMK A01,KUKT,2019-03-27T00:55:00Z,40.43,-75.38,4.0,-17.0,350,5,,10.0,30.339567,,,TRUE,TRUE,,,,,,,CLR,,,,,,,,VFR,,,,,,,,,,,,METAR,160.0
KTWM 270055Z AUTO 21003KT 10SM OVC050 04/M04 A3015 RMK AO2,KTWM,2019-03-27T00:55:00Z,47.03,-91.75,4.0,-4.0,210,3,,10.0,30.15059,,,TRUE,TRUE,,,,,,,OVC,5000,,,,,,,VFR,,,,,,,,,,,,METAR,328.0
KTTF 270055Z AUTO 13004KT 10SM CLR 01/M06 A3041 RMK AO2 T00051056,KTTF,2019-03-27T00:55:00Z,41.93,-83.42,0.5,-5.6,130,4,,10.0,30.410433,,,TRUE,TRUE,,,,,,,CLR,,,,,,,,VFR,,,,,,,,,,,,METAR,188.0
KTOB 270055Z AUTO 16007KT 10SM OVC037 06/02 A3023 RMK AO2,KTOB,2019-03-27T00:55:00Z,44.02,-92.82,6.0,2.0,160,7,,10.0,30.230314,,,TRUE,TRUE,,,,,,,OVC,3700,,,,,,,VFR,,,,,,,,,,,,METAR,398.0
KPHN 270055Z AUTO 00000KT 10SM CLR M00/M09 A3042 RMK AO2,KPHN,2019-03-27T00:55:00Z,42.92,-82.52,0.0,-9.0,0,0,,10.0,30.41929,,,TRUE,TRUE,,,,,,,CLR,,,,,,,,VFR,,,,,,,,,,,,METAR,198.0
KPNM 270055Z AUTO 14004KT 10SM SCT036 OVC048 07/01 A3018 RMK AO2,KPNM,2019-03-27T00:55:00Z,45.57,-93.6,7.0,1.0,140,4,,10.0,30.180119,,,TRUE,TRUE,,,,,,,SCT,3600,OVC,4800,,,,,VFR,,,,,,,,,,,,METAR,298.0
KRNP 270055Z AUTO 00000KT 10SM CLR 01/M09 A3040 RMK AO2 T00111091,KRNP,2019-03-27T00:55:00Z,43.0,-84.13,1.1,-9.1,0,0,,10.0,30.398623,,,TRUE,TRUE,,,,,,,CLR,,,,,,,,VFR,,,,,,,,,,,,METAR,224.0
KRMY 270055Z AUTO 00000KT 10SM CLR 02/M11 A3038 RMK AO2 T00221115,KRMY,2019-03-27T00:55:00Z,42.23,-84.95,2.2,-11.5,0,0,,10.0,30.380905,,,TRUE,TRUE,,,,,,,CLR,,,,,,,,VFR,,,,,,,,,,,,METAR,287.0
KRGK 270055Z AUTO 15004KT 10SM OVC040 08/M02 A3023 RMK AO2,KRGK,2019-03-27T00:55:00Z,44.58,-92.48,8.0,-2.0,150,4,,10.0,30.230314,,,TRUE,TRUE,,,,,,,OVC,4000,,,,,,,VFR,,,,,,,,,,,,METAR,239.0
KPZQ 270055Z AUTO 13004KT 10SM CLR M01/M06 A3038 RMK AO2 T10061060,KPZQ,2019-03-27T00:55:00Z,45.4,-83.82,-0.6,-6.0,130,4,,10.0,30.380905,,,TRUE,TRUE,,,,,,,CLR,,,,,,,,VFR,,,,,,,,,,,,METAR,204.0
KPQN 270055Z AUTO 18009KT 7SM CLR 08/06 A3009 RMK AO2,KPQN,2019-03-27T00:55:00Z,43.97,-96.32,8.0,6.0,180,9,,7.0,30.088583,,,TRUE,TRUE,,,,,,,CLR,,,,,,,,VFR,,,,,,,,,,,,METAR,529.0
EHVL 270055Z AUTO 31010KT 9999 OVC100 07/06 Q1031 BLU,EHVL,2019-03-27T00:55:00Z,53.23,4.92,7.0,6.0,310,10,,6.21,30.442913,,,TRUE,,,,,,,,OVC,10000,,,,,,,VFR,,,,,,,,,,,,METAR,5.0
KRRT 270055Z AUTO 21007G14KT 10SM OVC021 03/M01 A3001 RMK AO2,KRRT,2019-03-27T00:55:00Z,48.93,-95.33,3.0,-1.0,210,7,14,10.0,30.008858,,,TRUE,TRUE,,,,,,,OVC,2100,,,,,,,MVFR,,,,,,,,,,,,METAR,327.0
KROS 270055Z AUTO 16005KT 10SM SCT047 OVC065 06/M02 A3018 RMK AO2 T00621018,KROS,2019-03-27T00:55:00Z,45.7,-92.95,6.2,-1.8,160,5,,10.0,30.180119,,,TRUE,TRUE,,,,,,,SCT,4700,OVC,6500,,,,,VFR,,,,,,,,,,,,METAR,281.0
EHWO 270055Z AUTO VRB01KT 9999 SCT390 04/04 Q1032 BLU,EHWO,2019-03-27T00:55:00Z,51.45,4.32,4.0,4.0,0,1,,6.21,30.47244,,,TRUE,,,,,,,,SCT,39000,,,,,,,VFR,,,,,,,,,,,,METAR,17.0
K96D 270055Z AUTO 20013G19KT 9SM OVC008 03/03 A2992 RMK AO2,K96D,2019-03-27T00:55:00Z,48.93,-97.9,3.0,3.0,200,13,19,9.0,29.920275,,,TRUE,TRUE,,,,,,,OVC,800,,,,,,,IFR,,,,,,,,,,,,METAR,290.0
K82C 270055Z AUTO 21003KT 10SM CLR 06/M09 A3029 RMK AO2 T00631095,K82C,2019-03-27T00:55:00Z,43.83,-90.13,6.3,-9.5,210,3,,10.0,30.28937,,,TRUE,TRUE,,,,,,,CLR,,,,,,,,VFR,,,,,,,,,,,,METAR,276.0
K7L2 270055Z AUTO 15006KT M1/4SM FG 02/02 A2995 RMK AO2,K7L2,2019-03-27T00:55:00Z,46.22,-100.25,2.0,2.0,150,6,,0.25,29.949802,,,TRUE,TRUE,,,,,,FG,,,,,,,,,,,,,,,,,,,,,METAR,543.0
K6S2 270055Z AUTO 32005KT 10SM CLR 13/02 A2994 RMK AO2,K6S2,2019-03-27T00:55:00Z,43.98,-124.12,13.0,2.0,320,5,,10.0,29.940945,,,TRUE,TRUE,,,,,,,CLR,,,,,,,,VFR,,,,,,,,,,,,METAR,16.0
K6L4 270055Z AUTO 33004KT 10SM CLR 06/M11 A3028 RMK AO2,K6L4,2019-03-27T00:55:00Z,37.85,-81.92,6.0,-11.0,330,4,,10.0,30.280512,,,TRUE,TRUE,,,,,,,CLR,,,,,,,,VFR,,,,,,,,,,,,METAR,508.0
K6B9 270055Z AUTO 00000KT 10SM CLR M03/M12 A3040 RMK AO2,K6B9,2019-03-27T00:55:00Z,42.92,-76.43,-3.0,-12.0,0,0,,10.0,30.398623,,,TRUE,TRUE,,,,,,,CLR,,,,,,,,VFR,,,,,,,,,,,,METAR,316.0
K5M9 270055Z AUTO 36003KT 10SM CLR 06/M06 A3035 RMK AO2 T00641059,K5M9,2019-03-27T00:55:00Z,37.33,-88.12,6.4,-5.9,360,3,,10.0,30.351377,,,TRUE,TRUE,,,,,,,CLR,,,,,,,,VFR,,,,,,,,,,,,METAR,199.0
K5H4 270055Z AUTO 19007KT 4SM BR OVC004 02/02 A2992 RMK AO2,K5H4,2019-03-27T00:55:00Z,47.78,-99.93,2.0,2.0,190,7,,4.0,29.920275,,,TRUE,TRUE,,,,,,BR,OVC,400,,,,,,,LIFR,,,,,,,,,,,,METAR,490.0
K57C 270055Z AUTO 14005KT 10SM CLR 03/M06 A3035 RMK AO2 T00281060,K57C,2019-03-27T00:55:00Z,42.8,-88.37,2.8,-6.0,140,5,,10.0,30.351377,,,TRUE,TRUE,,,,,,,CLR,,,,,,,,VFR,,,,,,,,,,,,METAR,262.0
K54J 270055Z AUTO 33008KT 10SM BKN037 13/07 A3015 RMK AO2 T01300070,K54J,2019-03-27T00:55:00Z,30.73,-86.15,13.0,7.0,330,8,,10.0,30.15059,,,TRUE,TRUE,,,,,,,BKN,3700,,,,,,,VFR,,,,,,,,,,,,METAR,88.0
K4S2 270055Z AUTO 10SM CLR 14/M01 A2997 RMK AO2,K4S2,2019-03-27T00:55:00Z,45.68,-121.55,14.0,-1.0,,,,10.0,29.970472,,,TRUE,TRUE,,,,,,,CLR,,,,,,,,VFR,,,,,,,,,,,,METAR,192.0
K4R5 270055Z AUTO 20005KT 10SM BKN075 05/M05 A3020 RMK AO2 T00471051,K4R5,2019-03-27T00:55:00Z,46.78,-90.77,4.7,-5.1,200,5,,10.0,30.200787,,,TRUE,TRUE,,,,,,,BKN,7500,,,,,,,VFR,,,,,,,,,,,,METAR,198.0
K4M9 270055Z AUTO 08008KT 10SM CLR 10/M00 A3033 RMK AO2 PWINO,K4M9,2019-03-27T00:55:00Z,36.4,-90.65,10.0,0.0,80,8,,10.0,30.33071,,,TRUE,TRUE,,,,,TRUE,,CLR,,,,,,,,VFR,,,,,,,,,,,,METAR,90.0
K4A6 270055Z AUTO 36006G12KT 10SM CLR 13/00 A3021 RMK AO2,K4A6,2019-03-27T00:55:00Z,34.68,-86.0,13.0,0.0,360,6,12,10.0,30.209646,,,TRUE,TRUE,,,,,,,CLR,,,,,,,,VFR,,,,,,,,,,,,METAR,198.0
K46D 270055Z AUTO 19013KT 4SM BR OVC004 02/02 A2995 RMK AO2,K46D,2019-03-27T00:55:00Z,47.45,-99.15,2.0,2.0,190,13,,4.0,29.949802,,,TRUE,TRUE,,,,,,BR,OVC,400,,,,,,,LIFR,,,,,,,,,,,,METAR,490.0
K2P2 270055Z AUTO 18007G16KT 150V210 10SM CLR 00/M03 A3030 RMK AO2 T00001030,K2P2,2019-03-27T00:55:00Z,45.38,-86.92,0.0,-3.0,180,7,16,10.0,30.301182,,,TRUE,TRUE,,,,,,,CLR,,,,,,,,VFR,,,,,,,,,,,,METAR,199.0
K2D5 270055Z AUTO 08007KT 4SM BR CLR 01/01 A2999 RMK AO2 PWINO,K2D5,2019-03-27T00:55:00Z,46.17,-98.08,1.0,1.0,80,7,,4.0,29.991142,,,TRUE,TRUE,,,,,TRUE,BR,CLR,,,,,,,,MVFR,,,,,,,,,,,,METAR,407.0
K24J 270055Z AUTO 07008G14KT 10SM BKN060 OVC075 19/13 A3003 RMK A01,K24J,2019-03-27T00:55:00Z,30.3,-83.03,19.0,13.0,70,8,14,10.0,30.029528,,,TRUE,TRUE,,,,,,,BKN,6000,OVC,7500,,,,,VFR,,,,,,,,,,,,METAR,32.0
K20U 270055Z AUTO 16006KT 10SM CLR 10/07 A2983 RMK AO2,K20U,2019-03-27T00:55:00Z,46.93,-103.98,10.0,7.0,160,6,,10.0,29.828741,,,TRUE,TRUE,,,,,,,CLR,,,,,,,,VFR,,,,,,,,,,,,METAR,840.0
K0S9 270055Z AUTO 29004KT 10SM SCT039 12/05 A3003 RMK AO2,K0S9,2019-03-27T00:55:00Z,48.05,-122.82,12.0,5.0,290,4,,10.0,30.029528,,,TRUE,TRUE,,,,,,,SCT,3900,,,,,,,VFR,,,,,,,,,,,,METAR,33.0
K08D 270055Z AUTO 19005KT 10SM CLR 07/07 A2981 RMK AO2,K08D,2019-03-27T00:55:00Z,48.3,-102.4,7.0,7.0,190,5,,10.0,29.811024,,,TRUE,TRUE,,,,,,,CLR,,,,,,,,VFR,,,,,,,,,,,,METAR,684.0
K06D 270055Z AUTO 19011KT 1/2SM FG OVC002 01/01 A2986 RMK AO2,K06D,2019-03-27T00:55:00Z,48.88,-99.62,1.0,1.0,190,11,,0.5,29.861221,,,TRUE,TRUE,,,,,,FG,OVC,200,,,,,,,LIFR,,,,,,,,,,,,METAR,556.0
KAEJ 270055Z AUTO 19004KT 10SM CLR 12/M12 A3016 RMK AO2 T01221122,KAEJ,2019-03-27T00:55:00Z,38.82,-106.12,12.2,-12.2,190,4,,10.0,30.159449,,,TRUE,TRUE,,,,,,,CLR,,,,,,,,VFR,,,,,,,,,,,,METAR,2422.0
KADU 270055Z AUTO 00000KT 10SM CLR 09/05 A3021 RMK AO2,KADU,2019-03-27T00:55:00Z,41.7,-94.92,9.0,5.0,0,0,,10.0,30.209646,,,TRUE,TRUE,,,,,,,CLR,,,,,,,,VFR,,,,,,,,,,,,METAR,392.0
K9D7 270055Z AUTO 19013KT 2SM BR OVC002 02/02 A2992 RMK AO2,K9D7,2019-03-27T00:55:00Z,48.48,-99.23,2.0,2.0,190,13,,2.0,29.920275,,,TRUE,TRUE,,,,,,BR,OVC,200,,,,,,,LIFR,,,,,,,,,,,,METAR,452.0
KDNS 270055Z AUTO 16009KT 10SM CLR 11/06 A3017 RMK AO2,KDNS,2019-03-27T00:55:00Z,41.97,-95.37,11.0,6.0,160,9,,10.0,30.171259,,,TRUE,TRUE,,,,,,,CLR,,,,,,,,VFR,,,,,,,,,,,,METAR,388.0
KDNA 270055Z AUTO 12010KT 10SM CLR 26/09 A3003 RMK AO2,KDNA,2019-03-27T00:55:00Z,31.88,-106.7,26.0,9.0,120,10,,10.0,30.029528,,,TRUE,TRUE,,,,,,,CLR,,,,,,,,VFR,,,,,,,,,,,,METAR,1253.0
KDLL 270055Z AUTO 21004KT 10SM CLR 04/M10 A3031 RMK AO2 T00431103,KDLL,2019-03-27T00:55:00Z,43.52,-89.77,4.3,-10.3,210,4,,10.0,30.31004,,,TRUE,TRUE,,,,,,,CLR,,,,,,,,VFR,,,,,,,,,,,,METAR,299.0
KDEH 270055Z AUTO 16007KT 10SM CLR 05/M03 A3026 RMK AO2,KDEH,2019-03-27T00:55:00Z,43.27,-91.72,5.0,-3.0,160,7,,10.0,30.259842,,,TRUE,TRUE,,,,,,,CLR,,,,,,,,VFR,,,,,,,,,,,,METAR,353.0
KD60 270055Z AUTO 18006KT 10SM CLR 08/08 A2980 RMK AO2,KD60,2019-03-27T00:55:00Z,48.38,-102.9,8.0,8.0,180,6,,10.0,29.799213,,,TRUE,TRUE,,,,,,,CLR,,,,,,,,VFR,,,,,,,,,,,,METAR,693.0
KD57 270055Z AUTO 19007KT 10SM BKN009 04/02 A2987 RMK AO2 PWINO,KD57,2019-03-27T00:55:00Z,46.82,-101.87,4.0,2.0,190,7,,10.0,29.870079,,,TRUE,TRUE,,,,,TRUE,,BKN,900,,,,,,,IFR,,,,,,,,,,,,METAR,637.0
KD55 270055Z AUTO 20019KT 1/2SM BR OVC001 02/02 A2990 RMK AO2,KD55,2019-03-27T00:55:00Z,48.75,-98.4,2.0,2.0,200,19,,0.5,29.899607,,,TRUE,TRUE,,,,,,BR,OVC,100,,,,,,,LIFR,,,,,,,,,,,,METAR,491.0
KD50 270055Z AUTO 00000KT 9SM CLR 11/08 A2977 RMK AO2,KD50,2019-03-27T00:55:00Z,48.93,-103.3,11.0,8.0,0,0,,9.0,29.769686,,,TRUE,TRUE,,,,,,,CLR,,,,,,,,VFR,,,,,,,,,,,,METAR,595.0
KCSQ 270055Z AUTO 14007KT 10SM CLR 08/05 A3023 RMK AO2,KCSQ,2019-03-27T00:55:00Z,41.02,-94.37,8.0,5.0,140,7,,10.0,30.230314,,,TRUE,TRUE,,,,,,,CLR,,,,,,,,VFR,,,,,,,,,,,,METAR,394.0
KCQW 270055Z AUTO 04007KT 10SM OVC060 11/03 A3023 RMK AO2,KCQW,2019-03-27T00:55:00Z,34.72,-79.95,11.0,3.0,40,7,,10.0,30.230314,,,TRUE,TRUE,,,,,,,OVC,6000,,,,,,,VFR,,,,,,,,,,,,METAR,73.0
KCPT 270055Z AUTO 10008KT 10SM CLR 18/07 A3026 RMK AO2,KCPT,2019-03-27T00:55:00Z,32.35,-97.43,18.0,7.0,100,8,,10.0,30.259842,,,TRUE,TRUE,,,,,,,CLR,,,,,,,,VFR,,,,,,,,,,,,METAR,260.0
KCNC 270055Z AUTO 17006KT 10SM FEW044 SCT070 08/03 A3027 RMK AO2,KCNC,2019-03-27T00:55:00Z,41.02,-93.37,8.0,3.0,170,6,,10.0,30.268702,,,TRUE,TRUE,,,,,,,FEW,4400,SCT,7000,,,,,VFR,,,,,,,,,,,,METAR,320.0
KCMR 270055Z AUTO 24007G14KT 10SM FEW120 15/M08 A3012 RMK AO2,KCMR,2019-03-27T00:55:00Z,35.3,-112.2,15.0,-8.0,240,7,14,10.0,30.121063,,,TRUE,TRUE,,,,,,,FEW,12000,,,,,,,VFR,,,,,,,,,,,,METAR,2036.0
KCLW 270055Z AUTO 30006KT 10SM CLR 18/15 A3003 RMK AO2,KCLW,2019-03-27T00:55:00Z,27.98,-82.75,18.0,15.0,300,6,,10.0,30.029528,,,TRUE,TRUE,,,,,,,CLR,,,,,,,,VFR,,,,,,,,,,,,METAR,22.0
KCLS 270055Z AUTO 02007KT 10SM CLR 15/02 A2999 RMK AO2,KCLS,2019-03-27T00:55:00Z,46.68,-122.98,15.0,2.0,20,7,,10.0,29.991142,,,TRUE,TRUE,,,,,,,CLR,,,,,,,,VFR,,,,,,,,,,,,METAR,54.0
KCLI 270055Z AUTO 18004KT 10SM CLR 04/M08 A3029 RMK AO2 T00361081,KCLI,2019-03-27T00:55:00Z,44.62,-88.73,3.6,-8.1,180,4,,10.0,30.28937,,,TRUE,TRUE,,,,,,,CLR,,,,,,,,VFR,,,,,,,,,,,,METAR,250.0
KCKZ 270055Z AUTO 36005KT 10SM CLR 04/M17 A3034 RMK AO2,KCKZ,2019-03-27T00:55:00Z,40.38,-75.28,4.0,-17.0,360,5,,10.0,30.339567,,,TRUE,TRUE,,,,,,,CLR,,,,,,,,VFR,,,,,,,,,,,,METAR,173.0
KCIN 270055Z AUTO 15008KT 10SM CLR 08/06 A3019 RMK AO2,KCIN,2019-03-27T00:55:00Z,42.03,-94.77,8.0,6.0,150,8,,10.0,30.188976,,,TRUE,TRUE,,,,,,,CLR,,,,,,,,VFR,,,,,,,,,,,,METAR,375.0
KCGC 270055Z AUTO 00000KT 10SM CLR 15/13 A3002 RMK AO2,KCGC,2019-03-27T00:55:00Z,28.87,-82.57,15.0,13.0,0,0,,10.0,30.02067,,,TRUE,TRUE,,,,,,,CLR,,,,,,,,VFR,,,,,,,,,,,,METAR,3.0
KCFJ 270055Z AUTO 07003KT 10SM CLR 03/M08 A3037 RMK AO2 T00311076,KCFJ,2019-03-27T00:55:00Z,39.98,-86.92,3.1,-7.6,70,3,,10.0,30.369095,,,TRUE,TRUE,,,,,,,CLR,,,,,,,,VFR,,,,,,,,,,,,METAR,244.0
KCDN 270055Z AUTO 00000KT 10SM BKN055 09/06 A3023 RMK AO2,KCDN,2019-03-27T00:55:00Z,34.28,-80.57,9.0,6.0,0,0,,10.0,30.230314,,,TRUE,TRUE,,,,,,,BKN,5500,,,,,,,VFR,,,,,,,,,,,,METAR,92.0
KCCY 270055Z AUTO 16008KT 10SM FEW046 06/M01 A3026 RMK AO2,KCCY,2019-03-27T00:55:00Z,43.07,-92.62,6.0,-1.0,160,8,,10.0,30.259842,,,TRUE,TRUE,,,,,,,FEW,4600,,,,,,,VFR,,,,,,,,,,,,METAR,343.0
KCBF 270055Z AUTO 16012KT 10SM CLR 12/07 A3016 RMK AO2,KCBF,2019-03-27T00:55:00Z,41.27,-95.77,12.0,7.0,160,12,,10.0,30.159449,,,TRUE,TRUE,,,,,,,CLR,,,,,,,,VFR,,,,,,,,,,,,METAR,382.0
KCAV 270055Z AUTO 17009KT 10SM FEW046 OVC055 09/05 A3022 RMK AO2 PWINO,KCAV,2019-03-27T00:55:00Z,42.75,-93.77,9.0,5.0,170,9,,10.0,30.221457,,,TRUE,TRUE,,,,,TRUE,,FEW,4600,OVC,5500,,,,,VFR,,,,,,,,,,,,METAR,354.0
KBYL 270055Z AUTO 02006KT 10SM CLR 08/M08 A3027 RMK AO1,KBYL,2019-03-27T00:55:00Z,36.8,-84.2,8.0,-8.0,20,6,,10.0,30.268702,,,TRUE,TRUE,,,,,,,CLR,,,,,,,,VFR,,,,,,,,,,,,METAR,359.0
KBWW 270055Z AUTO 15007KT 10SM CLR 06/05 A2973 RMK AO2,KBWW,2019-03-27T00:55:00Z,46.17,-103.3,6.0,5.0,150,7,,10.0,29.731298,,,TRUE,TRUE,,,,,,,CLR,,,,,,,,VFR,,,,,,,,,,,,METAR,910.0
KBVU 270055Z AUTO 15014G20KT 10SM CLR 25/M08 A2989 RMK AO2,KBVU,2019-03-27T00:55:00Z,35.95,-114.87,25.0,-8.0,150,14,20,10.0,29.890747,,,TRUE,TRUE,,,,,,,CLR,,,,,,,,VFR,,,,,,,,,,,,METAR,671.0
KBUU 270055Z AUTO 15006KT 10SM CLR 02/M08 A3037 RMK AO2 T00171081,KBUU,2019-03-27T00:55:00Z,42.68,-88.3,1.7,-8.1,150,6,,10.0,30.369095,,,TRUE,TRUE,,,,,,,CLR,,,,,,,,VFR,,,,,,,,,,,,METAR,237.0
KBRG 270055Z AUTO 18016G22KT 10SM CLR 22/M04 A3008 RMK AO2 T02191042,KBRG,2019-03-27T00:55:00Z,34.65,-106.83,21.9,-4.2,180,16,22,10.0,30.079725,,,TRUE,TRUE,,,,,,,CLR,,,,,,,,VFR,,,,,,,,,,,,METAR,1585.0
KBOW 270055Z AUTO 31006KT 10SM CLR 23/15 A3001 RMK AO2,KBOW,2019-03-27T00:55:00Z,27.93,-81.77,23.0,15.0,310,6,,10.0,30.008858,,,TRUE,TRUE,,,,,,,CLR,,,,,,,,VFR,,,,,,,,,,,,METAR,39.0
KBNW 270055Z AUTO 16008KT 10SM BKN050 OVC055 08/06 A3022 RMK AO2,KBNW,2019-03-27T00:55:00Z,42.03,-93.83,8.0,6.0,160,8,,10.0,30.221457,,,TRUE,TRUE,,,,,,,BKN,5000,OVC,5500,,,,,VFR,,,,,,,,,,,,METAR,354.0
KBNL 270055Z AUTO 05011KT 10SM BKN085 13/07 A3017 RMK AO2,KBNL,2019-03-27T00:55:00Z,33.25,-81.38,13.0,7.0,50,11,,10.0,30.171259,,,TRUE,TRUE,,,,,,,BKN,8500,,,,,,,VFR,,,,,,,,,,,,METAR,75.0
KBDN 270055Z AUTO 01005KT 10SM CLR 12/M06 A2989 RMK AO2,KBDN,2019-03-27T00:55:00Z,44.1,-121.2,12.0,-6.0,10,5,,10.0,29.890747,,,TRUE,TRUE,,,,,,,CLR,,,,,,,,VFR,,,,,,,,,,,,METAR,1055.0
KBCK 270055Z AUTO 19003KT 10SM CLR 03/M07 A3027 RMK AO2 T00291071,KBCK,2019-03-27T00:55:00Z,44.25,-90.85,2.9,-7.1,190,3,,10.0,30.268702,,,TRUE,TRUE,,,,,,,CLR,,,,,,,,VFR,,,,,,,,,,,,METAR,255.0
KBBP 270055Z AUTO 02004KT 10SM SCT060 09/04 A3023 RMK AO2,KBBP,2019-03-27T00:55:00Z,34.62,-79.73,9.0,4.0,20,4,,10.0,30.230314,,,TRUE,TRUE,,,,,,,SCT,6000,,,,,,,VFR,,,,,,,,,,,,METAR,45.0
KBAC 270055Z AUTO 15007KT 5SM BR OVC009 01/01 A3000 RMK AO2,KBAC,2019-03-27T00:55:00Z,46.93,-98.02,1.0,1.0,150,7,,5.0,30.0,,,TRUE,TRUE,,,,,,BR,OVC,900,,,,,,,IFR,,,,,,,,,,,,METAR,427.0
KAXA 270055Z AUTO 16011KT 10SM SCT035 SCT041 BKN049 09/07 A3018 RMK AO2 PWINO,KAXA,2019-03-27T00:55:00Z,43.07,-94.27,9.0,7.0,160,11,,10.0,30.180119,,,TRUE,TRUE,,,,,TRUE,,SCT,3500,SCT,4100,BKN,4900,,,VFR,,,,,,,,,,,,METAR,372.0
KAWG 270055Z AUTO 14006KT 10SM CLR 06/M10 A3033 RMK AO2,KAWG,2019-03-27T00:55:00Z,41.27,-91.67,6.0,-10.0,140,6,,10.0,30.33071,,,TRUE,TRUE,,,,,,,CLR,,,,,,,,VFR,,,,,,,,,,,,METAR,230.0
KATS 270055Z AUTO 14015KT 10SM CLR 22/09 A3011 RMK AO2,KATS,2019-03-27T00:55:00Z,32.85,-104.47,22.0,9.0,140,15,,10.0,30.109253,,,TRUE,TRUE,,,,,,,CLR,,,,,,,,VFR,,,,,,,,,,,,METAR,1081.0
KARV 270055Z AUTO 23005KT 10SM CLR 04/M07 A3022 RMK AO2 T00401071,KARV,2019-03-27T00:55:00Z,45.92,-89.72,4.0,-7.1,230,5,,10.0,30.221457,,,TRUE,TRUE,,,,,,,CLR,,,,,,,,VFR,,,,,,,,,,,,METAR,496.0
KAQX 270055Z AUTO 00000KT 10SM SCT100 13/07 A3016 RMK AO2,KAQX,2019-03-27T00:55:00Z,32.98,-81.27,13.0,7.0,0,0,,10.0,30.159449,,,TRUE,TRUE,,,,,,,SCT,10000,,,,,,,VFR,,,,,,,,,,,,METAR,49.0
KAPS 270055Z AUTO 02005G14KT 10SM CLR 18/04 A3022 RMK AO2 T01790041,KAPS,2019-03-27T00:55:00Z,30.08,-90.58,17.9,4.1,20,5,14,10.0,30.221457,,,TRUE,TRUE,,,,,,,CLR,,,,,,,,VFR,,,,,,,,,,,,METAR,2.0
KAJZ 270055Z AUTO 22012G16KT 10SM CLR 21/M07 A3004 RMK AO2 T02051075,KAJZ,2019-03-27T00:55:00Z,38.78,-108.07,20.5,-7.5,220,12,16,10.0,30.041338,,,TRUE,TRUE,,,,,,,CLR,,,,,,,,VFR,,,,,,,,,,,,METAR,1583.0
KAIO 270055Z AUTO 16007KT 10SM CLR 11/06 A3019 RMK AO2,KAIO,2019-03-27T00:55:00Z,41.38,-95.03,11.0,6.0,160,7,,10.0,30.188976,,,TRUE,TRUE,,,,,,,CLR,,,,,,,,VFR,,,,,,,,,,,,METAR,360.0
EHRD 270055Z AUTO 26003KT 9999 OVC043 06/05 Q1032 NOSIG,EHRD,2019-03-27T00:55:00Z,51.95,4.45,6.0,5.0,260,3,,6.21,30.47244,,,TRUE,,,TRUE,,,,,OVC,4300,,,,,,,VFR,,,,,,,,,,,,METAR,-5.0
EHGG 270055Z AUTO 26004KT 5000 BR NSC 05/04 Q1031,EHGG,2019-03-27T00:55:00Z,53.12,6.57,5.0,4.0,260,4,,3.11,30.442913,,,TRUE,,,,,,,BR,CLR,,,,,,,,MVFR,,,,,,,,,,,,METAR,4.0
EHBK 270055Z AUTO VRB02KT 9999 NSC 05/02 Q1032,EHBK,2019-03-27T00:55:00Z,50.92,5.77,5.0,2.0,0,2,,6.21,30.47244,,,TRUE,,,,,,,,CLR,,,,,,,,VFR,,,,,,,,,,,,METAR,116.0
EHAM 270055Z 29004KT 9999 BKN045 06/05 Q1032 NOSIG,EHAM,2019-03-27T00:55:00Z,52.32,4.78,6.0,5.0,290,4,,6.21,30.47244,,,,,,TRUE,,,,,BKN,4500,,,,,,,VFR,,,,,,,,,,,,METAR,9.0
KNFG 270055Z 21007KT 9SM BKN200 16/12 A2995 RMK AO2 SLP142 T01610122 $ ,KNFG,2019-03-27T00:55:00Z,33.28,-117.33,16.1,12.2,210,7,,9.0,29.949802,1014.2,,,TRUE,TRUE,,,,,,BKN,20000,,,,,,,VFR,,,,,,,,,,,,METAR,24.0
KNBG 270055Z 01005KT 10SM CLR 18/08 A3019 RMK AO2 SLP221 T01780083 $ ,KNBG,2019-03-27T00:55:00Z,29.82,-90.02,17.8,8.3,10,5,,10.0,30.188976,1022.1,,,TRUE,TRUE,,,,,,CLR,,,,,,,,VFR,,,,,,,,,,,,METAR,1.0
LKPR 270055Z 25005KT 9999 -RA FEW019 SCT022 OVC038 03/02 Q1026 RMK REG QNH 1023,LKPR,2019-03-27T00:55:00Z,50.1,14.27,3.0,2.0,250,5,,6.21,30.295275,,,,,,,,,,-RA,FEW,1900,SCT,2200,OVC,3800,,,VFR,,,,,,,,,,,,SPECI,365.0
KY19 270055Z AUTO 17008KT 8SM OVC006 02/02 A2991 RMK AO2,KY19,2019-03-27T00:55:00Z,46.77,-100.9,2.0,2.0,170,8,,8.0,29.911417,,,TRUE,TRUE,,,,,,,OVC,600,,,,,,,IFR,,,,,,,,,,,,METAR,593.0
KVNC 270055Z AUTO 31008KT 10SM SCT015 BKN021 BKN031 22/19 A3003 RMK AO2,KVNC,2019-03-27T00:55:00Z,27.07,-82.43,22.0,19.0,310,8,,10.0,30.029528,,,TRUE,TRUE,,,,,,,SCT,1500,BKN,2100,BKN,3100,,,MVFR,,,,,,,,,,,,METAR,6.0
KUNU 270055Z AUTO 17007KT 10SM CLR 04/M09 A3033 RMK AO2 T00351087 TSNO,KUNU,2019-03-27T00:55:00Z,43.42,-88.7,3.5,-8.7,170,7,,10.0,30.33071,,,TRUE,TRUE,,,TRUE,,,,CLR,,,,,,,,VFR,,,,,,,,,,,,METAR,285.0
KU42 270055Z AUTO 33007KT 10SM CLR 14/03 A2996 RMK AO1 T01380025,KU42,2019-03-27T00:55:00Z,40.62,-111.98,13.8,2.5,330,7,,10.0,29.958662,,,TRUE,TRUE,,,,,,,CLR,,,,,,,,VFR,,,,,,,,,,,,METAR,1402.0
KTVY 270055Z AUTO 36007KT 10SM CLR 14/03 A2995 RMK AO2,KTVY,2019-03-27T00:55:00Z,40.62,-112.35,14.0,3.0,360,7,,10.0,29.949802,,,TRUE,TRUE,,,,,,,CLR,,,,,,,,VFR,,,,,,,,,,,,METAR,1317.0
KTSP 270055Z AUTO 29009KT 10SM CLR 14/02 A3000 RMK AO2,KTSP,2019-03-27T00:55:00Z,35.13,-118.43,14.0,2.0,290,9,,10.0,30.0,,,TRUE,TRUE,,,,,,,CLR,,,,,,,,VFR,,,,,,,,,,,,METAR,1220.0
KTPF 270055Z AUTO 30005KT 10SM OVC100 21/16 A3003 RMK AO2,KTPF,2019-03-27T00:55:00Z,27.92,-82.45,21.0,16.0,300,5,,10.0,30.029528,,,TRUE,TRUE,,,,,,,OVC,10000,,,,,,,VFR,,,,,,,,,,,,METAR,3.0
KTME 270055Z AUTO 02005KT 5SM HZ SCT042 18/12 A3023 RMK AO2,KTME,2019-03-27T00:55:00Z,29.8,-95.9,18.0,12.0,20,5,,5.0,30.230314,,,TRUE,TRUE,,,,,,HZ,SCT,4200,,,,,,,MVFR,,,,,,,,,,,,METAR,51.0
KTKX 270055Z AUTO 04008KT 10SM CLR 10/M02 A3032 RMK AO2,KTKX,2019-03-27T00:55:00Z,36.22,-90.02,10.0,-2.0,40,8,,10.0,30.318897,,,TRUE,TRUE,,,,,,,CLR,,,,,,,,VFR,,,,,,,,,,,,METAR,80.0
KSUZ 270055Z AUTO 05003KT 10SM FEW050 13/04 A3029 RMK A01,KSUZ,2019-03-27T00:55:00Z,34.58,-92.48,13.0,4.0,50,3,,10.0,30.28937,,,TRUE,TRUE,,,,,,,FEW,5000,,,,,,,VFR,,,,,,,,,,,,METAR,119.0
KSTE 270055Z AUTO 00000KT 10SM CLR 03/M09 A3029 RMK AO2 T00281095,KSTE,2019-03-27T00:55:00Z,44.55,-89.53,2.8,-9.5,0,0,,10.0,30.28937,,,TRUE,TRUE,,,,,,,CLR,,,,,,,,VFR,,,,,,,,,,,,METAR,338.0
KSRR 270055Z AUTO 12008G19KT 10SM CLR 14/03 A3025 RMK AO2,KSRR,2019-03-27T00:55:00Z,33.47,-105.52,14.0,3.0,120,8,19,10.0,30.250984,,,TRUE,TRUE,,,,,,,CLR,,,,,,,,VFR,,,,,,,,,,,,METAR,2076.0
KSPF 270055Z AUTO 00000KT 10SM CLR 10/00 A2986 RMK AO2,KSPF,2019-03-27T00:55:00Z,44.47,-103.77,10.0,0.0,0,0,,10.0,29.861221,,,TRUE,TRUE,,,,,,,CLR,,,,,,,,VFR,,,,,,,,,,,,METAR,1188.0
KSOW 270055Z AUTO 21009KT 10SM CLR 17/M05 A3015 RMK AO2,KSOW,2019-03-27T00:55:00Z,34.27,-110.0,17.0,-5.0,210,9,,10.0,30.15059,,,TRUE,TRUE,,,,,,,CLR,,,,,,,,VFR,,,,,,,,,,,,METAR,1954.0
KSNC 270055Z AUTO 36005KT 10SM CLR 03/M18 A3031 RMK AO2,KSNC,2019-03-27T00:55:00Z,41.38,-72.5,3.0,-18.0,360,5,,10.0,30.31004,,,TRUE,TRUE,,,,,,,CLR,,,,,,,,VFR,,,,,,,,,,,,METAR,127.0
KSMS 270055Z AUTO 10SM FEW034 SCT041 BKN050 08/06 A3023 RMK AO2,KSMS,2019-03-27T00:55:00Z,34.0,-80.37,8.0,6.0,,,,10.0,30.230314,,,TRUE,TRUE,,,,,,,FEW,3400,SCT,4100,BKN,5000,,,VFR,,,,,,,,,,,,METAR,56.0
KSLB 270055Z AUTO 16011KT 10SM CLR 08/07 A3013 RMK AO2,KSLB,2019-03-27T00:55:00Z,42.6,-95.22,8.0,7.0,160,11,,10.0,30.129921,,,TRUE,TRUE,,,,,,,CLR,,,,,,,,VFR,,,,,,,,,,,,METAR,454.0
KSHL 270055Z AUTO 15011KT 10SM CLR 09/09 A3011 RMK AO2,KSHL,2019-03-27T00:55:00Z,43.22,-95.82,9.0,9.0,150,11,,10.0,30.109253,,,TRUE,TRUE,,,,,,,CLR,,,,,,,,VFR,,,,,,,,,,,,METAR,432.0
KSDA 270055Z AUTO 14009KT 10SM CLR 12/06 A3019 RMK AO2,KSDA,2019-03-27T00:55:00Z,40.75,-95.42,12.0,6.0,140,9,,10.0,30.188976,,,TRUE,TRUE,,,,,,,CLR,,,,,,,,VFR,,,,,,,,,,,,METAR,296.0
KS32 270055Z AUTO 18011KT 1/2SM BR OVC002 01/01 A2998 RMK AO2,KS32,2019-03-27T00:55:00Z,47.42,-98.1,1.0,1.0,180,11,,0.5,29.97933,,,TRUE,TRUE,,,,,,BR,OVC,200,,,,,,,LIFR,,,,,,,,,,,,METAR,684.0
KS25 270055Z AUTO 16009KT 10SM CLR 13/05 A2979 RMK AO2,KS25,2019-03-27T00:55:00Z,47.8,-103.25,13.0,5.0,160,9,,10.0,29.790354,,,TRUE,TRUE,,,,,,,CLR,,,,,,,,VFR,,,,,,,,,,,,METAR,644.0
KRYV 270055Z AUTO 16003KT 10SM CLR 03/M08 A3033 RMK AO2 T00271085,KRYV,2019-03-27T00:55:00Z,43.17,-88.72,2.7,-8.5,160,3,,10.0,30.33071,,,TRUE,TRUE,,,,,,,CLR,,,,,,,,VFR,,,,,,,,,,,,METAR,254.0
KRVL 270055Z AUTO 00000KT 10SM CLR 03/M11 A3033 RMK A01,KRVL,2019-03-27T00:55:00Z,40.68,-77.63,3.0,-11.0,0,0,,10.0,30.33071,,,TRUE,TRUE,,,,,,,CLR,,,,,,,,VFR,,,,,,,,,,,,METAR,250.0
KRUG 270055Z AUTO 16010KT 5SM BR OVC005 01/01 A2987 RMK AO2,KRUG,2019-03-27T00:55:00Z,48.38,-100.02,1.0,1.0,160,10,,5.0,29.870079,,,TRUE,TRUE,,,,,,BR,OVC,500,,,,,,,IFR,,,,,,,,,,,,METAR,472.0
KRNH 270055Z AUTO 18006KT 10SM OVC036 06/00 A3022 RMK AO2 T00630000,KRNH,2019-03-27T00:55:00Z,45.15,-92.53,6.3,0.0,180,6,,10.0,30.221457,,,TRUE,TRUE,,,,,,,OVC,3600,,,,,,,VFR,,,,,,,,,,,,METAR,304.0
KRFI 270055Z AUTO 00000KT 10SM CLR 16/08 A3028 RMK AO2 T01560082,KRFI,2019-03-27T00:55:00Z,32.15,-94.85,15.6,8.2,0,0,,10.0,30.280512,,,TRUE,TRUE,,,,,,,CLR,,,,,,,,VFR,,,,,,,,,,,,METAR,135.0
KRDK 270055Z AUTO 15008KT 10SM CLR 12/06 A3020 RMK AO2,KRDK,2019-03-27T00:55:00Z,41.02,-95.27,12.0,6.0,150,8,,10.0,30.200787,,,TRUE,TRUE,,,,,,,CLR,,,,,,,,VFR,,,,,,,,,,,,METAR,318.0
KRCE 270055Z AUTO 14007KT 3SM HZ OVC075 16/05 A3024 RMK AO2,KRCE,2019-03-27T00:55:00Z,35.48,-97.82,16.0,5.0,140,7,,3.0,30.239174,,,TRUE,TRUE,,,,,,HZ,OVC,7500,,,,,,,MVFR,,,,,,,,,,,,METAR,413.0
KRBW 270055Z AUTO 00000KT 10SM OVC039 12/07 A3019 RMK AO2,KRBW,2019-03-27T00:55:00Z,32.92,-80.63,12.0,7.0,0,0,,10.0,30.188976,,,TRUE,TRUE,,,,,,,OVC,3900,,,,,,,VFR,,,,,,,,,,,,METAR,31.0
KPVF 270055Z AUTO 16007KT 10SM FEW022 SCT037 OVC060 12/06 A2999 RMK AO1,KPVF,2019-03-27T00:55:00Z,38.72,-120.75,12.0,6.0,160,7,,10.0,29.991142,,,TRUE,TRUE,,,,,,,FEW,2200,SCT,3700,OVC,6000,,,VFR,,,,,,,,,,,,METAR,789.0
KPLR 270055Z AUTO 00000KT 10SM CLR 08/08 A3019 RMK A01,KPLR,2019-03-27T00:55:00Z,33.57,-86.25,8.0,8.0,0,0,,10.0,30.188976,,,TRUE,TRUE,,,,,,,CLR,,,,,,,,VFR,,,,,,,,,,,,METAR,148.0
KPDC 270055Z AUTO 15004KT 10SM CLR 08/M09 A3031 RMK AO2 T00751086,KPDC,2019-03-27T00:55:00Z,43.02,-91.12,7.5,-8.6,150,4,,10.0,30.31004,,,TRUE,TRUE,,,,,,,CLR,,,,,,,,VFR,,,,,,,,,,,,METAR,201.0
KPCZ 270055Z AUTO 00000KT 10SM CLR 05/M09 A3029 RMK AO2 T00501088,KPCZ,2019-03-27T00:55:00Z,44.33,-89.02,5.0,-8.8,0,0,,10.0,30.28937,,,TRUE,TRUE,,,,,,,CLR,,,,,,,,VFR,,,,,,,,,,,,METAR,252.0
KPCD 270055Z AUTO 03005KT 10SM CLR 06/M02 A3036 RMK AO2 T00581025,KPCD,2019-03-27T00:55:00Z,37.87,-89.87,5.8,-2.5,30,5,,10.0,30.360237,,,TRUE,TRUE,,,,,,,CLR,,,,,,,,VFR,,,,,,,,,,,,METAR,113.0
KPBH 270055Z AUTO 00000KT 10SM CLR 02/M06 A3023 RMK AO2 T00211057,KPBH,2019-03-27T00:55:00Z,45.7,-90.4,2.1,-5.7,0,0,,10.0,30.230314,,,TRUE,TRUE,,,,,,,CLR,,,,,,,,VFR,,,,,,,,,,,,METAR,449.0
KPAN 270055Z AUTO 16003KT 10SM CLR 19/M02 A3009 RMK AO2,KPAN,2019-03-27T00:55:00Z,34.25,-111.33,19.0,-2.0,160,3,,10.0,30.088583,,,TRUE,TRUE,,,,,,,CLR,,,,,,,,VFR,,,,,,,,,,,,METAR,1572.0
KOXV 270055Z AUTO 16005KT 10SM OVC070 10/00 A3027 RMK AO2,KOXV,2019-03-27T00:55:00Z,41.28,-93.12,10.0,0.0,160,5,,10.0,30.268702,,,TRUE,TRUE,,,,,,,OVC,7000,,,,,,,VFR,,,,,,,,,,,,METAR,283.0
KORS 270055Z AUTO 18004KT 9SM CLR 13/03 A3004 RMK AO2,KORS,2019-03-27T00:55:00Z,48.7,-122.92,13.0,3.0,180,4,,9.0,30.041338,,,TRUE,TRUE,,,,,,,CLR,,,,,,,,VFR,,,,,,,,,,,,METAR,9.0
KOQN 270055Z AUTO 33003KT 10SM CLR 05/M16 A3034 RMK AO2,KOQN,2019-03-27T00:55:00Z,39.98,-75.58,5.0,-16.0,330,3,,10.0,30.339567,,,TRUE,TRUE,,,,,,,CLR,,,,,,,,VFR,,,,,,,,,,,,METAR,142.0
KOOA 270055Z AUTO 15009KT 10SM CLR 06/M02 A3030 RMK AO2 T00561020,KOOA,2019-03-27T00:55:00Z,41.23,-92.5,5.6,-2.0,150,9,,10.0,30.301182,,,TRUE,TRUE,,,,,,,CLR,,,,,,,,VFR,,,,,,,,,,,,METAR,256.0
KOLZ 270055Z AUTO 15008KT 10SM CLR 04/M02 A3029 RMK AO2 PWINO,KOLZ,2019-03-27T00:55:00Z,42.67,-91.97,4.0,-2.0,150,8,,10.0,30.28937,,,TRUE,TRUE,,,,,TRUE,,CLR,,,,,,,,VFR,,,,,,,,,,,,METAR,328.0
KOLG 270055Z AUTO 16004KT 10SM OVC050 04/M04 A3019 RMK AO1,KOLG,2019-03-27T00:55:00Z,46.3,-91.82,4.0,-4.0,160,4,,10.0,30.188976,,,TRUE,TRUE,,,,,,,OVC,5000,,,,,,,VFR,,,,,,,,,,,,METAR,336.0
KOCQ 270055Z AUTO 17004KT 10SM CLR 02/M02 A3031 RMK AO1 T00151023,KOCQ,2019-03-27T00:55:00Z,44.87,-87.92,1.5,-2.3,170,4,,10.0,30.31004,,,TRUE,TRUE,,,,,,,CLR,,,,,,,,VFR,,,,,,,,,,,,METAR,183.0
KO22 270055Z AUTO 00000KT 10SM BKN065 OVC075 15/09 A2998 RMK A01,KO22,2019-03-27T00:55:00Z,38.03,-120.42,15.0,9.0,0,0,,10.0,29.97933,,,TRUE,TRUE,,,,,,,BKN,6500,OVC,7500,,,,,VFR,,,,,,,,,,,,METAR,646.0
KMUT 270055Z AUTO 15005KT 10SM CLR 08/M11 A3035 RMK AO2,KMUT,2019-03-27T00:55:00Z,41.37,-91.15,8.0,-11.0,150,5,,10.0,30.351377,,,TRUE,TRUE,,,,,,,CLR,,,,,,,,VFR,,,,,,,,,,,,METAR,167.0
KMPZ 270055Z AUTO 15005KT 10SM CLR 07/M06 A3034 RMK AO2,KMPZ,2019-03-27T00:55:00Z,40.95,-91.52,7.0,-6.0,150,5,,10.0,30.339567,,,TRUE,TRUE,,,,,,,CLR,,,,,,,,VFR,,,,,,,,,,,,METAR,224.0
KMKS 270055Z AUTO 03004KT 10SM OVC041 13/07 A3020 RMK AO2,KMKS,2019-03-27T00:55:00Z,33.18,-80.03,13.0,7.0,30,4,,10.0,30.200787,,,TRUE,TRUE,,,,,,,OVC,4100,,,,,,,VFR,,,,,,,,,,,,METAR,23.0
KMGC 270055Z AUTO 00000KT 10SM CLR 01/M10 A3041 RMK AO2,KMGC,2019-03-27T00:55:00Z,41.7,-86.82,1.0,-10.0,0,0,,10.0,30.410433,,,TRUE,TRUE,,,,,,,CLR,,,,,,,,VFR,,,,,,,,,,,,METAR,200.0
KMDZ 270055Z AUTO 18004KT 10SM CLR 02/M04 A3024 RMK AO2 T00231038 TSNO,KMDZ,2019-03-27T00:55:00Z,45.1,-90.3,2.3,-3.8,180,4,,10.0,30.239174,,,TRUE,TRUE,,,TRUE,,,,CLR,,,,,,,,VFR,,,,,,,,,,,,METAR,448.0
KMCJ 270055Z AUTO 04009KT 10SM CLR 22/07 A3021 RMK A01,KMCJ,2019-03-27T00:55:00Z,29.72,-95.4,22.0,7.0,40,9,,10.0,30.209646,,,TRUE,TRUE,,,,,,,CLR,,,,,,,,VFR,,,,,,,,,,,,METAR,69.0
KMBO 270055Z AUTO 34007KT 10SM CLR 12/03 A3026 RMK AO2 PWINO,KMBO,2019-03-27T00:55:00Z,32.43,-90.1,12.0,3.0,340,7,,10.0,30.259842,,,TRUE,TRUE,,,,,TRUE,,CLR,,,,,,,,VFR,,,,,,,,,,,,METAR,99.0
KMAN 270055Z AUTO 30005KT 9SM FEW033 BKN042 OVC070 12/06 A2997 RMK A01,KMAN,2019-03-27T00:55:00Z,43.58,-116.52,12.0,6.0,300,5,,9.0,29.970472,,,TRUE,TRUE,,,,,,,FEW,3300,BKN,4200,OVC,7000,,,VFR,,,,,,,,,,,,METAR,774.0
KM40 270055Z AUTO 35007KT 10SM CLR 12/04 A3026 RMK AO2,KM40,2019-03-27T00:55:00Z,33.87,-88.48,12.0,4.0,350,7,,10.0,30.259842,,,TRUE,TRUE,,,,,,,CLR,,,,,,,,VFR,,,,,,,,,,,,METAR,69.0
KM21 270055Z AUTO 00000KT 10SM CLR 07/M05 A3033 RMK AO2 T00731051,KM21,2019-03-27T00:55:00Z,37.22,-87.15,7.3,-5.1,0,0,,10.0,30.33071,,,TRUE,TRUE,,,,,,,CLR,,,,,,,,VFR,,,,,,,,,,,,METAR,129.0
KLRJ 270055Z AUTO 15008KT 10SM CLR 10/07 A3011 RMK AO2,KLRJ,2019-03-27T00:55:00Z,42.77,-96.2,10.0,7.0,150,8,,10.0,30.109253,,,TRUE,TRUE,,,,,,,CLR,,,,,,,,VFR,,,,,,,,,,,,METAR,365.0
KLMO 270055Z AUTO 11003KT 10SM CLR 18/M06 A3000 RMK AO2 T01841061,KLMO,2019-03-27T00:55:00Z,40.17,-105.17,18.4,-6.1,110,3,,10.0,30.0,,,TRUE,TRUE,,,,,,,CLR,,,,,,,,VFR,,,,,,,,,,,,METAR,1541.0
KL52 270055Z AUTO 26005KT 8SM CLR 16/13 A2998 RMK A01,KL52,2019-03-27T00:55:00Z,35.1,-120.62,16.0,13.0,260,5,,8.0,29.97933,,,TRUE,TRUE,,,,,,,CLR,,,,,,,,VFR,,,,,,,,,,,,METAR,4.0
KL08 270055Z AUTO 22011KT 10SM CLR 28/M03 A2986 RMK AO2,KL08,2019-03-27T00:55:00Z,33.27,-116.32,28.0,-3.0,220,11,,10.0,29.861221,,,TRUE,TRUE,,,,,,,CLR,,,,,,,,VFR,,,,,,,,,,,,METAR,159.0
KKY8 270055Z AUTO 01006KT 10SM CLR 05/M03 A3035 RMK A01,KKY8,2019-03-27T00:55:00Z,37.95,-86.87,5.0,-3.0,10,6,,10.0,30.351377,,,TRUE,TRUE,,,,,,,CLR,,,,,,,,VFR,,,,,,,,,,,,METAR,126.0
KJZI 270055Z AUTO 06004KT 10SM CLR 10/08 A3019 RMK AO2,KJZI,2019-03-27T00:55:00Z,32.7,-80.0,10.0,8.0,60,4,,10.0,30.188976,,,TRUE,TRUE,,,,,,,CLR,,,,,,,,VFR,,,,,,,,,,,,METAR,6.0
KJXI 270055Z AUTO 02003KT 10SM CLR 17/07 A3028 RMK AO2 T01690067,KJXI,2019-03-27T00:55:00Z,32.7,-94.95,16.9,6.7,20,3,,10.0,30.280512,,,TRUE,TRUE,,,,,,,CLR,,,,,,,,VFR,,,,,,,,,,,,METAR,127.0
KJVY 270055Z AUTO 00000KT 10SM CLR 07/M09 A3035 RMK AO2 T00651089,KJVY,2019-03-27T00:55:00Z,,,6.5,-8.9,0,0,,10.0,30.351377,,,TRUE,TRUE,,,,,,,CLR,,,,,,,,VFR,,,,,,,,,,,,METAR,
KJVW 270055Z AUTO 34004KT 10SM CLR 13/05 A3027 RMK AO2,KJVW,2019-03-27T00:55:00Z,32.3,-90.42,13.0,5.0,340,4,,10.0,30.268702,,,TRUE,TRUE,,,,,,,CLR,,,,,,,,VFR,,,,,,,,,,,,METAR,76.0
KJHN 270055Z AUTO 15014KT 10SM CLR 16/08 A3007 RMK AO2 T01620081,KJHN,2019-03-27T00:55:00Z,37.58,-101.73,16.2,8.1,150,14,,10.0,30.070866,,,TRUE,TRUE,,,,,,,CLR,,,,,,,,VFR,,,,,,,,,,,,METAR,1013.0
KJFX 270055Z AUTO 12/01 A3023 RMK AO2 PWINO,KJFX,2019-03-27T00:55:00Z,33.9,-87.32,12.0,1.0,,,,,30.230314,,,TRUE,TRUE,,,,,TRUE,,,,,,,,,,,,,,,,,,,,,,METAR,148.0
KIKV 270055Z AUTO 19006KT 10SM SCT060 OVC070 11/03 A3027 RMK AO2,KIKV,2019-03-27T00:55:00Z,41.68,-93.57,11.0,3.0,190,6,,10.0,30.268702,,,TRUE,TRUE,,,,,,,SCT,6000,OVC,7000,,,,,VFR,,,,,,,,,,,,METAR,275.0
KI75 270055Z AUTO 14005KT 7SM BKN060 OVC070 10/04 A3026 RMK AO2 T01000042,KI75,2019-03-27T00:55:00Z,41.05,-93.68,10.0,4.2,140,5,,7.0,30.259842,,,TRUE,TRUE,,,,,,,BKN,6000,OVC,7000,,,,,VFR,,,,,,,,,,,,METAR,339.0
KI67 270055Z AUTO 00000KT 10SM CLR 05/M06 A3037 RMK AO1,KI67,2019-03-27T00:55:00Z,39.25,-84.78,5.0,-6.0,0,0,,10.0,30.369095,,,TRUE,TRUE,,,,,,,CLR,,,,,,,,VFR,,,,,,,,,,,,METAR,178.0
KHZE 270055Z AUTO 19009KT 10SM BKN008 04/04 A2989 RMK AO2 TSNO,KHZE,2019-03-27T00:55:00Z,47.28,-101.58,4.0,4.0,190,9,,10.0,29.890747,,,TRUE,TRUE,,,TRUE,,,,BKN,800,,,,,,,IFR,,,,,,,,,,,,METAR,553.0
KHPT 270055Z AUTO 16006KT 10SM OVC055 08/M01 A3023 RMK AO2,KHPT,2019-03-27T00:55:00Z,42.58,-93.23,8.0,-1.0,160,6,,10.0,30.230314,,,TRUE,TRUE,,,,,,,OVC,5500,,,,,,,VFR,,,,,,,,,,,,METAR,358.0
KHOB 270055Z AUTO 13013KT 10SM CLR 20/09 A3017 RMK AO2,KHOB,2019-03-27T00:55:00Z,32.67,-103.22,20.0,9.0,130,13,,10.0,30.171259,,,TRUE,TRUE,,,,,,,CLR,,,,,,,,VFR,,,,,,,,,,,,METAR,1115.0
KHNR 270055Z AUTO 16009KT 10SM CLR 11/06 A3018 RMK AO2,KHNR,2019-03-27T00:55:00Z,41.58,-95.33,11.0,6.0,160,9,,10.0,30.180119,,,TRUE,TRUE,,,,,,,CLR,,,,,,,,VFR,,,,,,,,,,,,METAR,375.0
KHEG 270055Z AUTO 03015KT 10SM BKN019 BKN025 OVC100 17/14 A3007 RMK AO2,KHEG,2019-03-27T00:55:00Z,30.28,-81.8,17.0,14.0,30,15,,10.0,30.070866,,,TRUE,TRUE,,,,,,,BKN,1900,BKN,2500,OVC,10000,,,MVFR,,,,,,,,,,,,METAR,27.0
KGWR 270055Z AUTO 10005KT 3SM BR 01/01 A3000 RMK A01,KGWR,2019-03-27T00:55:00Z,46.22,-97.65,1.0,1.0,100,5,,3.0,30.0,,,TRUE,TRUE,,,,,,BR,,,,,,,,,,,,,,,,,,,,,METAR,386.0
KGNT 270055Z AUTO 16004KT 10SM BKN120 18/M07 A3014 RMK AO2 T01811071,KGNT,2019-03-27T00:55:00Z,35.17,-107.9,18.1,-7.1,160,4,,10.0,30.138779,,,TRUE,TRUE,,,,,,,BKN,12000,,,,,,,VFR,,,,,,,,,,,,METAR,1987.0
KGCD 270055Z AUTO 20004KT 10SM SCT120 12/M05 A2993 RMK AO2 T01181053,KGCD,2019-03-27T00:55:00Z,44.38,-118.97,11.8,-5.3,200,4,,10.0,29.929134,,,TRUE,TRUE,,,,,,,SCT,12000,,,,,,,VFR,,,,,,,,,,,,METAR,1127.0
KFXY 270055Z AUTO 16007KT 10SM SCT035 OVC055 08/03 A3021 RMK AO2,KFXY,2019-03-27T00:55:00Z,43.23,-93.62,8.0,3.0,160,7,,10.0,30.209646,,,TRUE,TRUE,,,,,,,SCT,3500,OVC,5500,,,,,VFR,,,,,,,,,,,,METAR,375.0
KFSW 270055Z AUTO 00000KT 10SM CLR 08/M06 A3035 RMK AO2,KFSW,2019-03-27T00:55:00Z,40.67,-91.32,8.0,-6.0,0,0,,10.0,30.351377,,,TRUE,TRUE,,,,,,,CLR,,,,,,,,VFR,,,,,,,,,,,,METAR,221.0
KFRH 270055Z AUTO 05005KT 10SM CLR 05/M11 A3035 RMK AO1,KFRH,2019-03-27T00:55:00Z,38.5,-86.63,5.0,-11.0,50,5,,10.0,30.351377,,,TRUE,TRUE,,,,,,,CLR,,,,,,,,VFR,,,,,,,,,,,,METAR,241.0
KFMM 270055Z AUTO 14007KT 10SM 17/M03 A3000 RMK AO2 T01661030,KFMM,2019-03-27T00:55:00Z,40.33,-103.8,16.6,-3.0,140,7,,10.0,30.0,,,TRUE,TRUE,,,,,,,,,,,,,,,,,,,,,,,,,,,METAR,1393.0
KFMH 270055Z AUTO 02005KT 10SM CLR M01/M09 A3030 RMK AO2 FZRANO,KFMH,2019-03-27T00:55:00Z,41.63,-70.52,-1.0,-9.0,20,5,,10.0,30.301182,,,TRUE,TRUE,,,,TRUE,,,CLR,,,,,,,,VFR,,,,,,,,,,,,METAR,40.0
KFIN 270055Z AUTO 06006KT 10SM BKN060 OVC085 18/14 A3003 RMK AO2 T01780141,KFIN,2019-03-27T00:55:00Z,29.47,-81.2,17.8,14.1,60,6,,10.0,30.029528,,,TRUE,TRUE,,,,,,,BKN,6000,OVC,8500,,,,,VFR,,,,,,,,,,,,METAR,10.0
KFFL 270055Z AUTO 13006KT 10SM CLR 05/M09 A3031 RMK AO2 PWINO,KFFL,2019-03-27T00:55:00Z,41.03,-91.97,5.0,-9.0,130,6,,10.0,30.31004,,,TRUE,TRUE,,,,,TRUE,,CLR,,,,,,,,VFR,,,,,,,,,,,,METAR,244.0
KEZS 270055Z AUTO 15003KT 10SM CLR 04/M11 A3029 RMK AO2 T00431111,KEZS,2019-03-27T00:55:00Z,44.78,-88.57,4.3,-11.1,150,3,,10.0,30.28937,,,TRUE,TRUE,,,,,,,CLR,,,,,,,,VFR,,,,,,,,,,,,METAR,248.0
KEVU 270055Z AUTO 15009KT 10SM CLR 12/M02 A3022 RMK AO2,KEVU,2019-03-27T00:55:00Z,40.35,-94.92,12.0,-2.0,150,9,,10.0,30.221457,,,TRUE,TRUE,,,,,,,CLR,,,,,,,,VFR,,,,,,,,,,,,METAR,349.0
KEFT 270055Z AUTO 10SM CLR 05/M09 A3033 RMK AO2 T00481095,KEFT,2019-03-27T00:55:00Z,42.62,-89.6,4.8,-9.5,,,,10.0,30.33071,,,TRUE,TRUE,,,,,,,CLR,,,,,,,,VFR,,,,,,,,,,,,METAR,331.0
KEDC 270055Z AUTO 00000KT 10SM CLR 19/09 A3025 RMK AO2,KEDC,2019-03-27T00:55:00Z,30.4,-97.57,19.0,9.0,0,0,,10.0,30.250984,,,TRUE,TRUE,,,,,,,CLR,,,,,,,,VFR,,,,,,,,,,,,METAR,189.0
KDYB 270055Z AUTO 02007KT 10SM OVC042 12/06 A3020 RMK AO1,KDYB,2019-03-27T00:55:00Z,33.07,-80.28,12.0,6.0,20,7,,10.0,30.200787,,,TRUE,TRUE,,,,,,,OVC,4200,,,,,,,VFR,,,,,,,,,,,,METAR,18.0
KW96 270055Z AUTO 06003KT 10SM CLR 05/M08 A3033 RMK AO1 T00531085,KW96,2019-03-27T00:55:00Z,37.5,-77.12,5.3,-8.5,60,3,,10.0,30.33071,,,TRUE,TRUE,,,,,,,CLR,,,,,,,,VFR,,,,,,,,,,,,METAR,37.0
KW75 270055Z AUTO 02008KT 10SM CLR 06/M06 A3033 RMK AO1 T00551056,KW75,2019-03-27T00:55:00Z,37.6,-76.45,5.5,-5.6,20,8,,10.0,30.33071,,,TRUE,TRUE,,,,,,,CLR,,,,,,,,VFR,,,,,,,,,,,,METAR,9.0
KW31 270055Z AUTO 00000KT 10SM CLR 06/M11 A3029 RMK AO1 T00591111,KW31,2019-03-27T00:55:00Z,36.95,-78.18,5.9,-11.1,0,0,,10.0,30.28937,,,TRUE,TRUE,,,,,,,CLR,,,,,,,,VFR,,,,,,,,,,,,METAR,162.0
KVWU 270055Z AUTO 17006KT 10SM BKN023 OVC031 04/M02 A3006 RMK AO2,KVWU,2019-03-27T00:55:00Z,48.15,-94.52,4.0,-2.0,170,6,,10.0,30.059055,,,TRUE,TRUE,,,,,,,BKN,2300,OVC,3100,,,,,MVFR,,,,,,,,,,,,METAR,360.0
KVLL 270055Z AUTO 17004KT 10SM CLR 03/M09 A3042 RMK AO2 T00331087,KVLL,2019-03-27T00:55:00Z,42.55,-83.18,3.3,-8.7,170,4,,10.0,30.41929,,,TRUE,TRUE,,,,,,,CLR,,,,,,,,VFR,,,,,,,,,,,,METAR,222.0
KULS 270055Z AUTO 16013KT 10SM CLR 16/09 A3008 RMK AO2 PWINO,KULS,2019-03-27T00:55:00Z,37.6,-101.37,16.0,9.0,160,13,,10.0,30.079725,,,TRUE,TRUE,,,,,TRUE,,CLR,,,,,,,,VFR,,,,,,,,,,,,METAR,936.0
KUGN 270055Z 14004KT 10SM CLR 01/M10 A3038 RMK AO2 SLP301 LAST T00111100,KUGN,2019-03-27T00:55:00Z,42.42,-87.87,1.1,-10.0,140,4,,10.0,30.380905,1030.1,,,TRUE,,,,,,,CLR,,,,,,,,VFR,,,,,,,,,,,,METAR,222.0
KSLO 270055Z AUTO 03003KT 10SM CLR 08/M05 A3037 RMK AO2 T00801046,KSLO,2019-03-27T00:55:00Z,38.65,-88.97,8.0,-4.6,30,3,,10.0,30.369095,,,TRUE,TRUE,,,,,,,CLR,,,,,,,,VFR,,,,,,,,,,,,METAR,175.0
KSLH 270055Z AUTO 00000KT 10SM CLR M02/M08 A3033 RMK AO2 T10201083,KSLH,2019-03-27T00:55:00Z,45.65,-84.52,-2.0,-8.3,0,0,,10.0,30.33071,,,TRUE,TRUE,,,,,,,CLR,,,,,,,,VFR,,,,,,,,,,,,METAR,195.0
KSEZ 270055Z AUTO 20007KT 10SM CLR 20/M02 A3005 RMK AO2,KSEZ,2019-03-27T00:55:00Z,34.85,-111.78,20.0,-2.0,200,7,,10.0,30.050198,,,TRUE,TRUE,,,,,,,CLR,,,,,,,,VFR,,,,,,,,,,,,METAR,1473.0
KSCK 270055Z 09004KT 10SM CLR 20/12 A2993 RMK AO2 SLP133 T02000117,KSCK,2019-03-27T00:55:00Z,37.88,-121.22,20.0,11.7,90,4,,10.0,29.929134,1013.3,,,TRUE,,,,,,,CLR,,,,,,,,VFR,,,,,,,,,,,,METAR,10.0
KSCD 270055Z AUTO 00000KT 10SM BKN065 BKN090 OVC120 10/07 A3018 RMK AO2 T01000066,KSCD,2019-03-27T00:55:00Z,33.17,-86.3,10.0,6.6,0,0,,10.0,30.180119,,,TRUE,TRUE,,,,,,,BKN,6500,BKN,9000,OVC,12000,,,VFR,,,,,,,,,,,,METAR,173.0
KRZT 270055Z AUTO 00000KT 10SM CLR 01/M02 A3036 RMK AO2,KRZT,2019-03-27T00:55:00Z,39.43,-83.02,1.0,-2.0,0,0,,10.0,30.360237,,,TRUE,TRUE,,,,,,,CLR,,,,,,,,VFR,,,,,,,,,,,,METAR,221.0
KRSV 270055Z AUTO 06003KT 10SM CLR 05/M04 A3038 RMK AO2 T00541043,KRSV,2019-03-27T00:55:00Z,39.02,-87.65,5.4,-4.3,60,3,,10.0,30.380905,,,TRUE,TRUE,,,,,,,CLR,,,,,,,,VFR,,,,,,,,,,,,METAR,141.0
KDLH 270055Z 20007KT 10SM OVC048 06/M04 A3015 RMK AO2 SLP230 T00561039,KDLH,2019-03-27T00:55:00Z,46.85,-92.2,5.6,-3.9,200,7,,10.0,30.15059,1023.0,,,TRUE,,,,,,,OVC,4800,,,,,,,VFR,,,,,,,,,,,,METAR,435.0
KFRR 270055Z AUTO 00000KT 10SM CLR 04/M09 A3033 RMK AO1,KFRR,2019-03-27T00:55:00Z,38.92,-78.25,4.0,-9.0,0,0,,10.0,30.33071,,,TRUE,TRUE,,,,,,,CLR,,,,,,,,VFR,,,,,,,,,,,,METAR,216.0
KHCR 270055Z AUTO 19004KT 10SM CLR 14/M06 A2998 RMK AO2,KHCR,2019-03-27T00:55:00Z,40.48,-111.43,14.0,-6.0,190,4,,10.0,29.97933,,,TRUE,TRUE,,,,,,,CLR,,,,,,,,VFR,,,,,,,,,,,,METAR,1706.0
KHCO 270055Z AUTO 17016KT 10SM OVC010 01/00 A2998 RMK AO2,KHCO,2019-03-27T00:55:00Z,48.75,-96.93,1.0,0.0,170,16,,10.0,29.97933,,,TRUE,TRUE,,,,,,,OVC,1000,,,,,,,MVFR,,,,,,,,,,,,METAR,250.0
KGPI 270055Z 17008KT 10SM BKN080 07/00 A2995 RMK AO2 SLP160 T00720000,KGPI,2019-03-27T00:55:00Z,48.32,-114.25,7.2,0.0,170,8,,10.0,29.949802,1016.0,,,TRUE,,,,,,,BKN,8000,,,,,,,VFR,,,,,,,,,,,,METAR,908.0
KGLW 270055Z AUTO 02003KT 10SM CLR 07/M08 A3031 RMK AO2 T00701076,KGLW,2019-03-27T00:55:00Z,37.03,-85.95,7.0,-7.6,20,3,,10.0,30.31004,,,TRUE,TRUE,,,,,,,CLR,,,,,,,,VFR,,,,,,,,,,,,METAR,218.0
KGAO 270055Z AUTO 36007KT 10SM CLR 17/08 A3018 RMK AO2 T01670080,KGAO,2019-03-27T00:55:00Z,29.45,-90.27,16.7,8.0,360,7,,10.0,30.180119,,,TRUE,TRUE,,,,,,,CLR,,,,,,,,VFR,,,,,,,,,,,,METAR,1.0
KFWZ 270055Z AUTO 25023G31KT 10SM CLR 05/M10 A2994 RMK AO2,KFWZ,2019-03-27T00:55:00Z,42.52,-108.78,5.0,-10.0,250,23,31,10.0,29.940945,,,TRUE,TRUE,,,,,,,CLR,,,,,,,,VFR,,,,,,,,,,,,METAR,2588.0
KHFJ 270055Z AUTO 07003KT 10SM CLR 13/03 A3030 RMK AO2,KHFJ,2019-03-27T00:55:00Z,36.9,-94.02,13.0,3.0,70,3,,10.0,30.301182,,,TRUE,TRUE,,,,,,,CLR,,,,,,,,VFR,,,,,,,,,,,,METAR,401.0
KHMP 270055Z AUTO 00000KT 10SM SCT047 OVC090 13/12 A3015 RMK AO2 T01260115,KHMP,2019-03-27T00:55:00Z,33.38,-84.33,12.6,11.5,0,0,,10.0,30.15059,,,TRUE,TRUE,,,,,,,SCT,4700,OVC,9000,,,,,VFR,,,,,,,,,,,,METAR,269.0
KHON 270055Z AUTO 15012G21KT 10SM CLR 11/06 A2997 RMK AO2 SLP157 T01110061,KHON,2019-03-27T00:55:00Z,44.38,-98.23,11.1,6.1,150,12,21,10.0,29.970472,1015.7,,TRUE,TRUE,,,,,,,CLR,,,,,,,,VFR,,,,,,,,,,,,METAR,390.0
K18A 270055Z AUTO 09004KT 10SM OVC050 13/07 A3019 RMK AO2 T01280065,K18A,2019-03-27T00:55:00Z,34.35,-83.13,12.8,6.5,90,4,,10.0,30.188976,,,TRUE,TRUE,,,,,,,OVC,5000,,,,,,,VFR,,,,,,,,,,,,METAR,271.0
K0V4 270055Z AUTO 06003KT 10SM CLR 06/M07 A3029 RMK AO1 T00561072,K0V4,2019-03-27T00:55:00Z,37.15,-79.02,5.6,-7.2,60,3,,10.0,30.28937,,,TRUE,TRUE,,,,,,,CLR,,,,,,,,VFR,,,,,,,,,,,,METAR,182.0
K0F2 270055Z AUTO 11003KT 10SM CLR 17/06 A3025 RMK AO2 T01660063,K0F2,2019-03-27T00:55:00Z,33.6,-97.78,16.6,6.3,110,3,,10.0,30.250984,,,TRUE,TRUE,,,,,,,CLR,,,,,,,,VFR,,,,,,,,,,,,METAR,336.0
KFKR 270055Z AUTO 11004KT 10SM CLR 04/M06 A3039 RMK AO2 T00351060 TSNO,KFKR,2019-03-27T00:55:00Z,40.27,-86.57,3.5,-6.0,110,4,,10.0,30.389763,,,TRUE,TRUE,,,TRUE,,,,CLR,,,,,,,,VFR,,,,,,,,,,,,METAR,262.0
KFEP 270055Z AUTO 17004KT 10SM CLR 01/M05 A3037 RMK AO2 T00141047,KFEP,2019-03-27T00:55:00Z,42.25,-89.58,1.4,-4.7,170,4,,10.0,30.369095,,,TRUE,TRUE,,,,,,,CLR,,,,,,,,VFR,,,,,,,,,,,,METAR,262.0
KF46 270055Z AUTO 00000KT 10SM CLR 17/08 A3028 RMK AO2 T01670082,KF46,2019-03-27T00:55:00Z,32.93,-96.43,16.7,8.2,0,0,,10.0,30.280512,,,TRUE,TRUE,,,,,,,CLR,,,,,,,,VFR,,,,,,,,,,,,METAR,176.0
KERY 270055Z AUTO 18007KT 10SM CLR M01/M07 A3031 RMK AO2 T10071069,KERY,2019-03-27T00:55:00Z,46.3,-85.45,-0.7,-6.9,180,7,,10.0,30.31004,,,TRUE,TRUE,,,,,,,CLR,,,,,,,,VFR,,,,,,,,,,,,METAR,265.0
KEDN 270055Z AUTO 34008KT 300V360 10SM OVC037 13/08 A3013 RMK AO2 T01310079,KEDN,2019-03-27T00:55:00Z,31.3,-85.9,13.1,7.9,340,8,,10.0,30.129921,,,TRUE,TRUE,,,,,,,OVC,3700,,,,,,,VFR,,,,,,,,,,,,METAR,110.0
KEDJ 270055Z AUTO 05007KT 10SM CLR 01/M09 A3038 RMK AO1,KEDJ,2019-03-27T00:55:00Z,40.37,-83.82,1.0,-9.0,50,7,,10.0,30.380905,,,TRUE,TRUE,,,,,,,CLR,,,,,,,,VFR,,,,,,,,,,,,METAR,342.0
KECU 270055Z AUTO 15010KT 10SM CLR 21/10 A3026 RMK AO2,KECU,2019-03-27T00:55:00Z,29.95,-100.17,21.0,10.0,150,10,,10.0,30.259842,,,TRUE,TRUE,,,,,,,CLR,,,,,,,,VFR,,,,,,,,,,,,METAR,725.0
KEAT 270055Z AUTO 00000KT 10SM CLR 13/M04 A2997 RMK AO2 SLP151 T01331044,KEAT,2019-03-27T00:55:00Z,47.4,-120.2,13.3,-4.4,0,0,,10.0,29.970472,1015.1,,TRUE,TRUE,,,,,,,CLR,,,,,,,,VFR,,,,,,,,,,,,METAR,377.0
KDZB 270055Z AUTO 11003KT 10SM CLR 21/07 A3024 RMK AO2 T02100068,KDZB,2019-03-27T00:55:00Z,30.53,-98.37,21.0,6.8,110,3,,10.0,30.239174,,,TRUE,TRUE,,,,,,,CLR,,,,,,,,VFR,,,,,,,,,,,,METAR,334.0
KDXX 270055Z AUTO 14008KT 7SM CLR 06/05 A3007 RMK AO2,KDXX,2019-03-27T00:55:00Z,44.98,-96.18,6.0,5.0,140,8,,7.0,30.070866,,,TRUE,TRUE,,,,,,,CLR,,,,,,,,VFR,,,,,,,,,,,,METAR,330.0
KDTL 270055Z AUTO 16009KT 10SM OVC013 03/01 A3007 RMK AO2,KDTL,2019-03-27T00:55:00Z,46.82,-95.87,3.0,1.0,160,9,,10.0,30.070866,,,TRUE,TRUE,,,,,,,OVC,1300,,,,,,,MVFR,,,,,,,,,,,,METAR,426.0
KDNN 270055Z AUTO 35003KT 10SM CLR 10/05 A3020 RMK AO2,KDNN,2019-03-27T00:55:00Z,34.72,-84.87,10.0,5.0,350,3,,10.0,30.200787,,,TRUE,TRUE,,,,,,,CLR,,,,,,,,VFR,,,,,,,,,,,,METAR,216.0
PAUT 270055Z AUTO 16020G23KT 10SM BKN021 OVC029 05/01 A3019 RMK AO2 T00540010,PAUT,2019-03-27T00:55:00Z,54.15,-165.6,5.4,1.0,160,20,23,10.0,30.188976,,,TRUE,TRUE,,,,,,,BKN,2100,OVC,2900,,,,,MVFR,,,,,,,,,,,,METAR,25.0
KRSN 270055Z AUTO 00000KT 10SM CLR 15/03 A3032 RMK AO2 T01520029,KRSN,2019-03-27T00:55:00Z,32.52,-92.58,15.2,2.9,0,0,,10.0,30.318897,,,TRUE,TRUE,,,,,,,CLR,,,,,,,,VFR,,,,,,,,,,,,METAR,95.0
KRQB 270055Z AUTO 00000KT 10SM CLR 03/M11 A3036 RMK AO2 T00331114,KRQB,2019-03-27T00:55:00Z,43.72,-85.5,3.3,-11.4,0,0,,10.0,30.360237,,,TRUE,TRUE,,,,,,,CLR,,,,,,,,VFR,,,,,,,,,,,,METAR,302.0
KRNO 270055Z 28019G25KT 10SM FEW045 BKN060 BKN170 12/00 A2993 RMK AO2 SLP110 CLDS TPG MTNS SW THRU NW T01170000,KRNO,2019-03-27T00:55:00Z,39.5,-119.77,11.7,0.0,280,19,25,10.0,29.929134,1011.0,,,TRUE,,,,,,,FEW,4500,BKN,6000,BKN,17000,,,VFR,,,,,,,,,,,,METAR,1342.0
KRGA 270055Z AUTO 00000KT 10SM CLR 06/M07 A3031 RMK AO2,KRGA,2019-03-27T00:55:00Z,37.63,-84.33,6.0,-7.0,0,0,,10.0,30.31004,,,TRUE,TRUE,,,,,,,CLR,,,,,,,,VFR,,,,,,,,,,,,METAR,305.0
KPWC 270055Z AUTO 15004KT 10SM OVC028 03/M02 A3014 RMK AO2,KPWC,2019-03-27T00:55:00Z,46.72,-94.37,3.0,-2.0,150,4,,10.0,30.138779,,,TRUE,TRUE,,,,,,,OVC,2800,,,,,,,MVFR,,,,,,,,,,,,METAR,395.0
KPUJ 270055Z AUTO 36008KT 10SM BKN039 OVC048 12/05 A3016 RMK AO2,KPUJ,2019-03-27T00:55:00Z,33.92,-84.93,12.0,5.0,360,8,,10.0,30.159449,,,TRUE,TRUE,,,,,,,BKN,3900,OVC,4800,,,,,VFR,,,,,,,,,,,,METAR,393.0
KPTB 270055Z AUTO 00000KT 10SM CLR 02/M06 A3032 RMK AO2 T00211059,KPTB,2019-03-27T00:55:00Z,37.17,-77.52,2.1,-5.9,0,0,,10.0,30.318897,,,TRUE,TRUE,,,,,,,CLR,,,,,,,,VFR,,,,,,,,,,,,METAR,59.0
KPMH 270055Z AUTO 34004KT 10SM CLR 06/M08 A3035 RMK AO2 T00561076,KPMH,2019-03-27T00:55:00Z,38.83,-82.85,5.6,-7.6,340,4,,10.0,30.351377,,,TRUE,TRUE,,,,,,,CLR,,,,,,,,VFR,,,,,,,,,,,,METAR,202.0
KPIM 270055Z AUTO 35003KT 10SM OVC031 13/10 A3013 RMK AO2 T01290099 PWINO,KPIM,2019-03-27T00:55:00Z,32.83,-84.88,12.9,9.9,350,3,,10.0,30.129921,,,TRUE,TRUE,,,,,TRUE,,OVC,3100,,,,,,,VFR,,,,,,,,,,,,METAR,275.0
KPHP 270055Z AUTO 09005KT 10SM CLR 13/04 A2984 RMK AO2 SLP110 T01330039,KPHP,2019-03-27T00:55:00Z,44.05,-101.6,13.3,3.9,90,5,,10.0,29.840551,1011.0,,TRUE,TRUE,,,,,,,CLR,,,,,,,,VFR,,,,,,,,,,,,METAR,672.0
KPEZ 270055Z AUTO 09004KT 10SM CLR 22/09 A3020 RMK AO2 T02190087,KPEZ,2019-03-27T00:55:00Z,28.95,-98.52,21.9,8.7,90,4,,10.0,30.200787,,,TRUE,TRUE,,,,,,,CLR,,,,,,,,VFR,,,,,,,,,,,,METAR,132.0
KOWX 270055Z AUTO 10005KT 10SM CLR M01/M07 A3042 RMK AO1,KOWX,2019-03-27T00:55:00Z,41.03,-83.98,-1.0,-7.0,100,5,,10.0,30.41929,,,TRUE,TRUE,,,,,,,CLR,,,,,,,,VFR,,,,,,,,,,,,METAR,233.0
KOWP 270055Z AUTO 15003KT 10SM CLR 17/04 A3028 RMK AO2 T01680043 PWINO,KOWP,2019-03-27T00:55:00Z,36.18,-96.15,16.8,4.3,150,3,,10.0,30.280512,,,TRUE,TRUE,,,,,TRUE,,CLR,,,,,,,,VFR,,,,,,,,,,,,METAR,272.0
KOVL 270055Z AUTO 15008KT 10SM OVC033 07/05 A3013 RMK AO2,KOVL,2019-03-27T00:55:00Z,44.78,-95.03,7.0,5.0,150,8,,10.0,30.129921,,,TRUE,TRUE,,,,,,,OVC,3300,,,,,,,VFR,,,,,,,,,,,,METAR,328.0
KONA 270055Z AUTO 15004KT 10SM CLR 06/M02 A3027 RMK AO2,KONA,2019-03-27T00:55:00Z,44.07,-91.7,6.0,-2.0,150,4,,10.0,30.268702,,,TRUE,TRUE,,,,,,,CLR,,,,,,,,VFR,,,,,,,,,,,,METAR,200.0
KMRT 270055Z AUTO 03007KT 10SM CLR 02/M08 A3037 RMK AO2 T00221078,KMRT,2019-03-27T00:55:00Z,40.22,-83.35,2.2,-7.8,30,7,,10.0,30.369095,,,TRUE,TRUE,,,,,,,CLR,,,,,,,,VFR,,,,,,,,,,,,METAR,312.0
KMNE 270055Z AUTO 00000KT 10SM CLR 16/06 A3029 RMK AO2 T01630055,KMNE,2019-03-27T00:55:00Z,32.65,-93.3,16.3,5.5,0,0,,10.0,30.28937,,,TRUE,TRUE,,,,,,,CLR,,,,,,,,VFR,,,,,,,,,,,,METAR,85.0
KMLJ 270055Z AUTO 08006KT 10SM OVC120 15/08 A3014 RMK AO2,KMLJ,2019-03-27T00:55:00Z,33.15,-83.23,15.0,8.0,80,6,,10.0,30.138779,,,TRUE,TRUE,,,,,,,OVC,12000,,,,,,,VFR,,,,,,,,,,,,METAR,117.0
KMKN 270055Z AUTO 11005KT 10SM CLR 18/08 A3024 RMK AO2 T01820082,KMKN,2019-03-27T00:55:00Z,31.92,-98.6,18.2,8.2,110,5,,10.0,30.239174,,,TRUE,TRUE,,,,,,,CLR,,,,,,,,VFR,,,,,,,,,,,,METAR,423.0
KMKG 270055Z 00000KT 10SM BKN200 01/M09 A3040 RMK AO2 SLP301 T00061094,KMKG,2019-03-27T00:55:00Z,43.17,-86.23,0.6,-9.4,0,0,,10.0,30.398623,1030.1,,,TRUE,,,,,,,BKN,20000,,,,,,,VFR,,,,,,,,,,,,METAR,191.0
KMJQ 270055Z AUTO 16008KT 10SM SCT031 07/05 A3016 RMK AO2,KMJQ,2019-03-27T00:55:00Z,43.63,-94.97,7.0,5.0,160,8,,10.0,30.159449,,,TRUE,TRUE,,,,,,,SCT,3100,,,,,,,VFR,,,,,,,,,,,,METAR,441.0
KMFV 270055Z AUTO 06005KT 10SM CLR 04/M02 A3033 RMK AO2 T00361016,KMFV,2019-03-27T00:55:00Z,37.63,-75.77,3.6,-1.6,60,5,,10.0,30.33071,,,TRUE,TRUE,,,,,,,CLR,,,,,,,,VFR,,,,,,,,,,,,METAR,15.0
KLNC 270055Z AUTO 09004KT 10SM CLR 15/08 A3027 RMK AO2 T01460080,KLNC,2019-03-27T00:55:00Z,32.58,-96.72,14.6,8.0,90,4,,10.0,30.268702,,,TRUE,TRUE,,,,,,,CLR,,,,,,,,VFR,,,,,,,,,,,,METAR,153.0
KHVE 270055Z AUTO 36003KT 10SM CLR 16/00 A3001 RMK AO2,KHVE,2019-03-27T00:55:00Z,38.42,-110.7,16.0,0.0,360,3,,10.0,30.008858,,,TRUE,TRUE,,,,,,,CLR,,,,,,,,VFR,,,,,,,,,,,,METAR,1350.0
KHSP 270055Z AUTO 10004KT 10SM CLR 03/M06 A3023 RMK AO2 T00261064,KHSP,2019-03-27T00:55:00Z,37.95,-79.82,2.6,-6.4,100,4,,10.0,30.230314,,,TRUE,TRUE,,,,,,,CLR,,,,,,,,VFR,,,,,,,,,,,,METAR,1156.0
KHSB 270055Z AUTO 01004KT 10SM CLR 06/M02 A3037 RMK AO2 T00581018,KHSB,2019-03-27T00:55:00Z,37.82,-88.55,5.8,-1.8,10,4,,10.0,30.369095,,,TRUE,TRUE,,,,,,,CLR,,,,,,,,VFR,,,,,,,,,,,,METAR,121.0
KHQG 270055Z AUTO 17011KT 10SM CLR 16/09 A3011 RMK AO2 T01600088,KHQG,2019-03-27T00:55:00Z,37.17,-101.37,16.0,8.8,170,11,,10.0,30.109253,,,TRUE,TRUE,,,,,,,CLR,,,,,,,,VFR,,,,,,,,,,,,METAR,956.0
KHQG 270055Z AUTO 17011KT 10SM CLR 16/09 A3011 RMK AO2 T01600088,KHQG,2019-03-27T00:55:00Z,37.17,-101.37,16.0,8.8,170,11,,10.0,30.109253,,,TRUE,TRUE,,,,,,,CLR,,,,,,,,VFR,,,,,,,,,,,,METAR,956.0
K1K1 270055Z AUTO 19007KT 10SM CLR 15/05 A3023 RMK AO2 T01450054,K1K1,2019-03-27T00:55:00Z,37.77,-97.12,14.5,5.4,190,7,,10.0,30.230314,,,TRUE,TRUE,,,,,,,CLR,,,,,,,,VFR,,,,,,,,,,,,METAR,416.0
K1A9 270055Z AUTO 00000KT 10SM BKN050 10/07 A3017 RMK AO2 T01040071,K1A9,2019-03-27T00:55:00Z,32.43,-86.52,10.4,7.1,0,0,,10.0,30.171259,,,TRUE,TRUE,,,,,,,BKN,5000,,,,,,,VFR,,,,,,,,,,,,METAR,69.0
KCCA 270055Z AUTO 00000KT 10SM CLR 11/06 A3030 RMK AO2,KCCA,2019-03-27T00:55:00Z,35.6,-92.45,11.0,6.0,0,0,,10.0,30.301182,,,TRUE,TRUE,,,,,,,CLR,,,,,,,,VFR,,,,,,,,,,,,SPECI,157.0
KFDW 270055Z AUTO 11003KT 10SM SCT055 10/06 A3021 RMK AO1,KFDW,2019-03-27T00:55:00Z,34.32,-81.12,10.0,6.0,110,3,,10.0,30.209646,,,TRUE,TRUE,,,,,,,SCT,5500,,,,,,,VFR,,,,,,,,,,,,SPECI,176.0
KLUM 270055Z AUTO 14005KT 10SM BKN042 03/M03 A3024 RMK AO2 T00271030,KLUM,2019-03-27T00:55:00Z,44.9,-91.87,2.7,-3.0,140,5,,10.0,30.239174,,,TRUE,TRUE,,,,,,,BKN,4200,,,,,,,VFR,,,,,,,,,,,,METAR,273.0
KLDJ 270055Z AUTO 01009KT 10SM CLR 06/M18 A3034 RMK AO2 T00631179,KLDJ,2019-03-27T00:55:00Z,40.62,-74.25,6.3,-17.9,10,9,,10.0,30.339567,,,TRUE,TRUE,,,,,,,CLR,,,,,,,,VFR,,,,,,,,,,,,METAR,7.0
KDCM 270055Z AUTO 01003KT 10SM CLR 08/06 A3023 RMK AO2,KDCM,2019-03-27T00:55:00Z,34.78,-81.2,8.0,6.0,10,3,,10.0,30.230314,,,TRUE,TRUE,,,,,,,CLR,,,,,,,,VFR,,,,,,,,,,,,SPECI,200.0
KCKI 270055Z AUTO 00000KT 10SM SCT048 10/06 A3022 RMK AO2,KCKI,2019-03-27T00:55:00Z,33.72,-79.85,10.0,6.0,0,0,,10.0,30.221457,,,TRUE,TRUE,,,,,,,SCT,4800,,,,,,,VFR,,,,,,,,,,,,SPECI,21.0
K2V5 270055Z AUTO 15010KT 10SM CLR 17/05 A3002 RMK AO2,K2V5,2019-03-27T00:55:00Z,40.1,-102.25,17.0,5.0,150,10,,10.0,30.02067,,,TRUE,TRUE,,,,,,,CLR,,,,,,,,VFR,,,,,,,,,,,,METAR,1118.0
K2J9 270055Z AUTO VRB06G14KT 10SM BKN055 BKN075 17/09 A3007 RMK AO2,K2J9,2019-03-27T00:55:00Z,30.6,-84.55,17.0,9.0,0,6,14,10.0,30.070866,,,TRUE,TRUE,,,,,,,BKN,5500,BKN,7500,,,,,VFR,,,,,,,,,,,,SPECI,69.0
KAPY 270055Z AUTO 10010G16KT 10SM SCT050 OVC070 22/16 A3019 RMK AO2 T02210167,KAPY,2019-03-27T00:55:00Z,26.97,-99.25,22.1,16.7,100,10,16,10.0,30.188976,,,TRUE,TRUE,,,,,,,SCT,5000,OVC,7000,,,,,VFR,,,,,,,,,,,,METAR,129.0
KANJ 270055Z AUTO 21005KT 10SM CLR 01/M08 A3032 RMK AO2 SLP277 T00061078,KANJ,2019-03-27T00:55:00Z,46.47,-84.37,0.6,-7.8,210,5,,10.0,30.318897,1027.7,,TRUE,TRUE,,,,,,,CLR,,,,,,,,VFR,,,,,,,,,,,,METAR,218.0
KAJR 270055Z AUTO 08006KT 10SM RA SCT030 SCT036 OVC055 10/08 A3018 RMK AO2 T01030083,KAJR,2019-03-27T00:55:00Z,34.5,-83.55,10.3,8.3,80,6,,10.0,30.180119,,,TRUE,TRUE,,,,,,RA,SCT,3000,SCT,3600,OVC,5500,,,VFR,,,,,,,,,,,,METAR,441.0
KAIT 270055Z AUTO 17004KT 10SM SCT036 OVC050 04/M02 A3013 RMK AO2,KAIT,2019-03-27T00:55:00Z,46.53,-93.67,4.0,-2.0,170,4,,10.0,30.129921,,,TRUE,TRUE,,,,,,,SCT,3600,OVC,5000,,,,,VFR,,,,,,,,,,,,METAR,367.0
KADM 270055Z 12004KT 10SM CLR 18/05 A3026,KADM,2019-03-27T00:55:00Z,34.28,-97.02,18.0,5.0,120,4,,10.0,30.259842,,,,,,,,,,,CLR,,,,,,,,VFR,,,,,,,,,,,,METAR,232.0
KADC 270055Z AUTO 15003KT 10SM OVC019 03/01 A3010 RMK AO2,KADC,2019-03-27T00:55:00Z,46.45,-95.22,3.0,1.0,150,3,,10.0,30.100393,,,TRUE,TRUE,,,,,,,OVC,1900,,,,,,,MVFR,,,,,,,,,,,,METAR,418.0
KAAT 270055Z AUTO 22009G14KT 10SM BKN049 OVC060 09/01 A2992 RMK AO2 SLP129 T00890011,KAAT,2019-03-27T00:55:00Z,41.48,-120.57,8.9,1.1,220,9,14,10.0,29.920275,1012.9,,TRUE,TRUE,,,,,,,BKN,4900,OVC,6000,,,,,VFR,,,,,,,,,,,,METAR,1331.0
KAAS 270055Z AUTO 05006KT 10SM CLR 07/M09 A3036 RMK AO1,KAAS,2019-03-27T00:55:00Z,37.35,-85.32,7.0,-9.0,50,6,,10.0,30.360237,,,TRUE,TRUE,,,,,,,CLR,,,,,,,,VFR,,,,,,,,,,,,METAR,281.0
K8W2 270055Z AUTO 03005KT 10SM CLR 04/M11 A3031 RMK AO1 T00401106,K8W2,2019-03-27T00:55:00Z,38.65,-78.7,4.0,-10.6,30,5,,10.0,30.31004,,,TRUE,TRUE,,,,,,,CLR,,,,,,,,VFR,,,,,,,,,,,,METAR,297.0
K82V 270055Z AUTO 14005KT 10SM CLR 13/M02 A3003 RMK AO2,K82V,2019-03-27T00:55:00Z,41.15,-104.13,13.0,-2.0,140,5,,10.0,30.029528,,,TRUE,TRUE,,,,,,,CLR,,,,,,,,VFR,,,,,,,,,,,,METAR,1570.0
K7W4 270055Z AUTO 31003KT 10SM CLR 03/M10 A3033 RMK AO1 T00321105,K7W4,2019-03-27T00:55:00Z,37.97,-77.75,3.2,-10.5,310,3,,10.0,30.33071,,,TRUE,TRUE,,,,,,,CLR,,,,,,,,VFR,,,,,,,,,,,,METAR,106.0
K6B0 270055Z AUTO 34005KT 10SM CLR M02/M15 A3035 RMK AO2 T10241153,K6B0,2019-03-27T00:55:00Z,43.98,-73.1,-2.4,-15.3,340,5,,10.0,30.351377,,,TRUE,TRUE,,,,,,,CLR,,,,,,,,VFR,,,,,,,,,,,,METAR,149.0
K6A2 270055Z AUTO 05003KT 10SM SCT045 BKN085 OVC120 12/09 A3014 RMK AO2,K6A2,2019-03-27T00:55:00Z,33.23,-84.27,12.0,9.0,50,3,,10.0,30.138779,,,TRUE,TRUE,,,,,,,SCT,4500,BKN,8500,OVC,12000,,,VFR,,,,,,,,,,,,METAR,292.0
K5R8 270055Z AUTO 34003KT 10SM CLR 17/09 A3025 RMK AO2 T01710089,K5R8,2019-03-27T00:55:00Z,30.43,-93.47,17.1,8.9,340,3,,10.0,30.250984,,,TRUE,TRUE,,,,,,,CLR,,,,,,,,VFR,,,,,,,,,,,,METAR,24.0
K4V0 270055Z AUTO 00000KT 10SM CLR 13/00 A3003 RMK AO2 T01311005,K4V0,2019-03-27T00:55:00Z,40.1,-108.77,13.1,-0.5,0,0,,10.0,30.029528,,,TRUE,TRUE,,,,,,,CLR,,,,,,,,VFR,,,,,,,,,,,,METAR,1608.0
K3R7 270055Z AUTO 03005KT 10SM CLR 18/09 A3023 RMK AO2 T01750087,K3R7,2019-03-27T00:55:00Z,30.25,-92.67,17.5,8.7,30,5,,10.0,30.230314,,,TRUE,TRUE,,,,,,,CLR,,,,,,,,VFR,,,,,,,,,,,,METAR,7.0
KIKW 270055Z AUTO 00000KT 10SM CLR 03/M08 A3039 RMK AO2 T00321085,KIKW,2019-03-27T00:55:00Z,43.67,-84.27,3.2,-8.5,0,0,,10.0,30.389763,,,TRUE,TRUE,,,,,,,CLR,,,,,,,,VFR,,,,,,,,,,,,METAR,194.0
KIGQ 270055Z AUTO 05003KT 10SM CLR 03/M09 A3041 RMK AO2 T00251091,KIGQ,2019-03-27T00:55:00Z,41.53,-87.53,2.5,-9.1,50,3,,10.0,30.410433,,,TRUE,TRUE,,,,,,,CLR,,,,,,,,VFR,,,,,,,,,,,,METAR,188.0
KHYX 270055Z AUTO 13003KT 10SM CLR 01/M07 A3040 RMK AO2,KHYX,2019-03-27T00:55:00Z,43.43,-83.87,1.0,-7.0,130,3,,10.0,30.398623,,,TRUE,TRUE,,,,,,,CLR,,,,,,,,VFR,,,,,,,,,,,,METAR,183.0
KAST 270055Z AUTO 30009KT 10SM CLR 12/03 A2997 RMK AO2 SLP148 T01220033,KAST,2019-03-27T00:55:00Z,46.15,-123.88,12.2,3.3,300,9,,10.0,29.970472,1014.8,,TRUE,TRUE,,,,,,,CLR,,,,,,,,VFR,,,,,,,,,,,,METAR,3.0
KASN 270055Z AUTO 00000KT 10SM CLR 12/08 A3018 RMK AO2 T01160076,KASN,2019-03-27T00:55:00Z,33.57,-86.05,11.6,7.6,0,0,,10.0,30.180119,,,TRUE,TRUE,,,,,,,CLR,,,,,,,,VFR,,,,,,,,,,,,METAR,162.0
KARM 270055Z AUTO 02003KT 10SM CLR 21/08 A3022 RMK AO2 T02070081,KARM,2019-03-27T00:55:00Z,29.25,-96.15,20.7,8.1,20,3,,10.0,30.221457,,,TRUE,TRUE,,,,,,,CLR,,,,,,,,VFR,,,,,,,,,,,,METAR,31.0
KIMS 270055Z AUTO 00000KT 10SM CLR 05/M04 A3037 RMK AO1,KIMS,2019-03-27T00:55:00Z,38.75,-85.47,5.0,-4.0,0,0,,10.0,30.369095,,,TRUE,TRUE,,,,,,,CLR,,,,,,,,VFR,,,,,,,,,,,,METAR,250.0
KSTF 270055Z AUTO 34004KT 10SM BKN060 13/02 A3025 RMK AO2 PWINO,KSTF,2019-03-27T00:55:00Z,33.43,-88.85,13.0,2.0,340,4,,10.0,30.250984,,,TRUE,TRUE,,,,,TRUE,,BKN,6000,,,,,,,VFR,,,,,,,,,,,,METAR,102.0
KMHL 270055Z AUTO 11004KT 10SM CLR 11/01 A3032 RMK AO2,KMHL,2019-03-27T00:55:00Z,39.1,-93.2,11.0,1.0,110,4,,10.0,30.318897,,,TRUE,TRUE,,,,,,,CLR,,,,,,,,VFR,,,,,,,,,,,,METAR,237.0
KLKR 270055Z AUTO 03003KT 10SM OVC055 10/08 A3022 RMK AO2,KLKR,2019-03-27T00:55:00Z,34.72,-80.85,10.0,8.0,30,3,,10.0,30.221457,,,TRUE,TRUE,,,,,,,OVC,5500,,,,,,,VFR,,,,,,,,,,,,METAR,149.0
KLBO 270055Z AUTO 09003KT 10SM CLR 11/00 A3032 RMK AO2,KLBO,2019-03-27T00:55:00Z,37.65,-92.65,11.0,0.0,90,3,,10.0,30.318897,,,TRUE,TRUE,,,,,,,CLR,,,,,,,,VFR,,,,,,,,,,,,METAR,403.0
KJSO 270055Z AUTO 06003KT 10SM CLR 16/08 A3028 RMK AO2 T01630081,KJSO,2019-03-27T00:55:00Z,31.87,-95.22,16.3,8.1,60,3,,10.0,30.280512,,,TRUE,TRUE,,,,,,,CLR,,,,,,,,VFR,,,,,,,,,,,,METAR,206.0
KBRY 270055Z AUTO 01004KT 10SM CLR 05/M07 A3033 RMK AO1,KBRY,2019-03-27T00:55:00Z,37.82,-85.5,5.0,-7.0,10,4,,10.0,30.33071,,,TRUE,TRUE,,,,,,,CLR,,,,,,,,VFR,,,,,,,,,,,,METAR,204.0
KY51 270055Z AUTO 20005KT 10SM CLR 05/M07 A3029 RMK AO1 T00451069,KY51,2019-03-27T00:55:00Z,43.58,-90.9,4.5,-6.9,200,5,,10.0,30.28937,,,TRUE,TRUE,,,,,,,CLR,,,,,,,,VFR,,,,,,,,,,,,METAR,394.0
KMCX 270055Z AUTO 00000KT 10SM CLR 04/M11 A3037 RMK AO2 T00421113,KMCX,2019-03-27T00:55:00Z,40.72,-86.77,4.2,-11.3,0,0,,10.0,30.369095,,,TRUE,TRUE,,,,,,,CLR,,,,,,,,VFR,,,,,,,,,,,,METAR,206.0
KGAF 270055Z AUTO 17015KT 7SM OVC008 01/01 A3000 RMK AO2 PWINO,KGAF,2019-03-27T00:55:00Z,48.4,-97.37,1.0,1.0,170,15,,7.0,30.0,,,TRUE,TRUE,,,,,TRUE,,OVC,800,,,,,,,IFR,,,,,,,,,,,,METAR,252.0
KEKX 270055Z AUTO 02005KT 10SM CLR 05/M09 A3033 RMK AO2 T00531091,KEKX,2019-03-27T00:55:00Z,,,5.3,-9.1,20,5,,10.0,30.33071,,,TRUE,TRUE,,,,,,,CLR,,,,,,,,VFR,,,,,,,,,,,,SPECI,
KIPJ 270055Z AUTO 00000KT 10SM CLR 08/02 A3024 RMK AO2 T00810020,KIPJ,2019-03-27T00:55:00Z,35.48,-81.17,8.1,2.0,0,0,,10.0,30.239174,,,TRUE,TRUE,,,,,,,CLR,,,,,,,,VFR,,,,,,,,,,,,SPECI,267.0
KRCX 270055Z AUTO 00000KT 10SM CLR 04/M05 A3026 RMK AO2 T00441047,KRCX,2019-03-27T00:55:00Z,45.5,-91.0,4.4,-4.7,0,0,,10.0,30.259842,,,TRUE,TRUE,,,,,,,CLR,,,,,,,,VFR,,,,,,,,,,,,METAR,377.0
KMNI 270055Z AUTO 03004KT 10SM OVC043 11/06 A3021 RMK AO2,KMNI,2019-03-27T00:55:00Z,33.58,-80.22,11.0,6.0,30,4,,10.0,30.209646,,,TRUE,TRUE,,,,,,,OVC,4300,,,,,,,VFR,,,,,,,,,,,,METAR,32.0
KMAW 270055Z AUTO 03006KT 10SM CLR 10/M02 A3035 RMK AO2,KMAW,2019-03-27T00:55:00Z,36.6,-90.0,10.0,-2.0,30,6,,10.0,30.351377,,,TRUE,TRUE,,,,,,,CLR,,,,,,,,VFR,,,,,,,,,,,,METAR,90.0
KPLD 270055Z AUTO 00000KT 10SM CLR 04/M06 A3038 RMK AO2,KPLD,2019-03-27T00:55:00Z,40.45,-84.98,4.0,-6.0,0,0,,10.0,30.380905,,,TRUE,TRUE,,,,,,,CLR,,,,,,,,VFR,,,,,,,,,,,,METAR,282.0
KCNW 270055Z 07008KT 10SM SKC 18/09 A3025,KCNW,2019-03-27T00:55:00Z,31.63,-97.07,18.0,9.0,70,8,,10.0,30.250984,,,,,,,,,,,SKC,,,,,,,,VFR,,,,,,,,,,,,METAR,156.0
KMYJ 270055Z AUTO 00000KT 10SM CLR 08/M01 A3034 RMK AO2,KMYJ,2019-03-27T00:55:00Z,39.15,-91.82,8.0,-1.0,0,0,,10.0,30.339567,,,TRUE,TRUE,,,,,,,CLR,,,,,,,,VFR,,,,,,,,,,,,METAR,251.0
KEGV 270055Z AUTO 21005KT 10SM CLR 04/M10 A3022 RMK AO2 T00351105,KEGV,2019-03-27T00:55:00Z,45.93,-89.27,3.5,-10.5,210,5,,10.0,30.221457,,,TRUE,TRUE,,,,,,,CLR,,,,,,,,VFR,,,,,,,,,,,,SPECI,500.0
KIRK 270055Z AUTO 12005KT 10SM CLR 09/M02 A3031 RMK AO2 SLP274 T00891022,KIRK,2019-03-27T00:55:00Z,40.1,-92.55,8.9,-2.2,120,5,,10.0,30.31004,1027.4,,TRUE,TRUE,,,,,,,CLR,,,,,,,,VFR,,,,,,,,,,,,METAR,293.0
KINL 270055Z AUTO VRB04KT 10SM OVC035 04/M03 A3007 RMK AO2 SLP204 T00441033,KINL,2019-03-27T00:55:00Z,48.57,-93.4,4.4,-3.3,0,4,,10.0,30.070866,1020.4,,TRUE,TRUE,,,,,,,OVC,3500,,,,,,,VFR,,,,,,,,,,,,METAR,360.0
KL18 270055Z AUTO 21005KT 10SM CLR 17/11 A2997 RMK AO2,KL18,2019-03-27T00:55:00Z,33.35,-117.25,17.0,11.0,210,5,,10.0,29.970472,,,TRUE,TRUE,,,,,,,CLR,,,,,,,,VFR,,,,,,,,,,,,METAR,216.0
KJYL 270055Z AUTO 11006KT 10SM OVC110 13/09 A3017 RMK AO2 T01280090,KJYL,2019-03-27T00:55:00Z,32.65,-81.6,12.8,9.0,110,6,,10.0,30.171259,,,TRUE,TRUE,,,,,,,OVC,11000,,,,,,,VFR,,,,,,,,,,,,METAR,57.0
KLNA 270055Z AUTO 09003KT 10SM CLR 23/18 A2997 RMK AO2 LTG DSNT SE T02260177,KLNA,2019-03-27T00:55:00Z,26.6,-80.02,22.6,17.7,90,3,,10.0,29.970472,,,TRUE,TRUE,,,,,,,CLR,,,,,,,,VFR,,,,,,,,,,,,METAR,11.0
KLLJ 270055Z AUTO 00000KT 10SM BKN070 BKN085 12/M04 A2992 RMK AO2 SLP122 T01171044,KLLJ,2019-03-27T00:55:00Z,44.52,-114.22,11.7,-4.4,0,0,,10.0,29.920275,1012.2,,TRUE,TRUE,,,,,,,BKN,7000,BKN,8500,,,,,VFR,,,,,,,,,,,,METAR,1536.0
KLJF 270055Z AUTO 15006KT 10SM OVC027 07/04 A3015 RMK AO2,KLJF,2019-03-27T00:55:00Z,45.1,-94.52,7.0,4.0,150,6,,10.0,30.15059,,,TRUE,TRUE,,,,,,,OVC,2700,,,,,,,MVFR,,,,,,,,,,,,METAR,348.0
KLIC 270055Z AUTO 09009KT 10SM CLR 12/02 A3004 RMK AO2 SLP146 T01220017,KLIC,2019-03-27T00:55:00Z,39.27,-103.67,12.2,1.7,90,9,,10.0,30.041338,1014.6,,TRUE,TRUE,,,,,,,CLR,,,,,,,,VFR,,,,,,,,,,,,METAR,1630.0
KLHM 270055Z AUTO 19007KT 10SM SCT120 17/08 A2994 RMK AO1,KLHM,2019-03-27T00:55:00Z,38.92,-121.35,17.0,8.0,190,7,,10.0,29.940945,,,TRUE,TRUE,,,,,,,SCT,12000,,,,,,,VFR,,,,,,,,,,,,METAR,37.0
KLHB 270055Z AUTO 00000KT 10SM CLR 20/11 A3025 RMK AO2 T01950113,KLHB,2019-03-27T00:55:00Z,30.87,-96.62,19.5,11.3,0,0,,10.0,30.250984,,,TRUE,TRUE,,,,,,,CLR,,,,,,,,VFR,,,,,,,,,,,,METAR,87.0
KHZL 270055Z AUTO 36005KT 10SM CLR 00/M18 A3034 RMK AO2,KHZL,2019-03-27T00:55:00Z,40.98,-76.0,0.0,-18.0,360,5,,10.0,30.339567,,,TRUE,TRUE,,,,,,,CLR,,,,,,,,VFR,,,,,,,,,,,,METAR,489.0
KAIB 270055Z AUTO 18004KT 10SM CLR 17/M06 A3011 RMK AO2,KAIB,2019-03-27T00:55:00Z,38.23,-108.57,17.0,-6.0,180,4,,10.0,30.109253,,,TRUE,TRUE,,,,,,,CLR,,,,,,,,VFR,,,,,,,,,,,,METAR,1811.0
KLUD 270055Z AUTO 08004KT 7SM CLR 16/06 A3026 RMK AO2 T01630061,KLUD,2019-03-27T00:55:00Z,33.25,-97.58,16.3,6.1,80,4,,7.0,30.259842,,,TRUE,TRUE,,,,,,,CLR,,,,,,,,VFR,,,,,,,,,,,,METAR,319.0
KCZL 270055Z AUTO 01003KT 10SM SCT065 12/05 A3020 RMK AO2,KCZL,2019-03-27T00:55:00Z,34.47,-84.93,12.0,5.0,10,3,,10.0,30.200787,,,TRUE,TRUE,,,,,,,SCT,6500,,,,,,,VFR,,,,,,,,,,,,METAR,195.0
KCWC 270055Z AUTO 14004KT 10SM CLR 18/07 A3026 RMK AO2 T01800065,KCWC,2019-03-27T00:55:00Z,33.85,-98.48,18.0,6.5,140,4,,10.0,30.259842,,,TRUE,TRUE,,,,,,,CLR,,,,,,,,VFR,,,,,,,,,,,,METAR,305.0
KCQM 270055Z AUTO 20008KT 10SM OVC046 04/M05 A3011 RMK AO2,KCQM,2019-03-27T00:55:00Z,47.82,-92.68,4.0,-5.0,200,8,,10.0,30.109253,,,TRUE,TRUE,,,,,,,OVC,4600,,,,,,,VFR,,,,,,,,,,,,METAR,404.0
KCPK 270055Z AUTO 05008KT 7SM CLR 05/M01 A3032 RMK AO2 T00491011,KCPK,2019-03-27T00:55:00Z,36.67,-76.32,4.9,-1.1,50,8,,7.0,30.318897,,,TRUE,TRUE,,,,,,,CLR,,,,,,,,VFR,,,,,,,,,,,,METAR,6.0
KCNK 270055Z AUTO 18013KT 10SM CLR 16/07 A3015 RMK AO2 SLP210 T01560067,KCNK,2019-03-27T00:55:00Z,39.55,-97.65,15.6,6.7,180,13,,10.0,30.15059,1021.0,,TRUE,TRUE,,,,,,,CLR,,,,,,,,VFR,,,,,,,,,,,,METAR,447.0
KCMD 270055Z AUTO 00000KT 10SM CLR 10/M02 A3024 RMK AO2 T01021017,KCMD,2019-03-27T00:55:00Z,34.27,-86.85,10.2,-1.7,0,0,,10.0,30.239174,,,TRUE,TRUE,,,,,,,CLR,,,,,,,,VFR,,,,,,,,,,,,METAR,294.0
KCMA 270055Z 26008KT 10SM CLR 18/11 A2996 RMK AO2 SLP155 T01830106,KCMA,2019-03-27T00:55:00Z,34.22,-119.1,18.3,10.6,260,8,,10.0,29.958662,1015.5,,,TRUE,,,,,,,CLR,,,,,,,,VFR,,,,,,,,,,,,METAR,23.0
KCKN 270055Z AUTO 18014KT 10SM OVC013 02/01 A3003 RMK AO2,KCKN,2019-03-27T00:55:00Z,47.85,-96.62,2.0,1.0,180,14,,10.0,30.029528,,,TRUE,TRUE,,,,,,,OVC,1300,,,,,,,MVFR,,,,,,,,,,,,METAR,273.0
KCKC 270055Z AUTO 20006KT 10SM 01/M10 A3013 RMK AO2,KCKC,2019-03-27T00:55:00Z,47.83,-90.37,1.0,-10.0,200,6,,10.0,30.129921,,,TRUE,TRUE,,,,,,,,,,,,,,,,,,,,,,,,,,,METAR,548.0
KCDH 270055Z AUTO 00000KT 6SM RA CLR 14/03 A3029 RMK AO2,KCDH,2019-03-27T00:55:00Z,33.62,-92.77,14.0,3.0,0,0,,6.0,30.28937,,,TRUE,TRUE,,,,,,RA,CLR,,,,,,,,VFR,,,,,,,,,,,,METAR,35.0
KCAO 270055Z AUTO 19017KT 10SM CLR 17/04 A3012 RMK AO2 SLP173 T01670044,KCAO,2019-03-27T00:55:00Z,36.45,-103.15,16.7,4.4,190,17,,10.0,30.121063,1017.3,,TRUE,TRUE,,,,,,,CLR,,,,,,,,VFR,,,,,,,,,,,,METAR,1514.0
KBYY 270055Z AUTO 00000KT 10SM CLR 18/13 A3021 RMK AO2 T01860140,KBYY,2019-03-27T00:55:00Z,28.97,-95.87,18.6,14.0,0,0,,10.0,30.209646,,,TRUE,TRUE,,,,,,,CLR,,,,,,,,VFR,,,,,,,,,,,,METAR,14.0
KBQK 270055Z AUTO 04016G20KT 10SM OVC014 15/11 A3011 RMK AO2,KBQK,2019-03-27T00:55:00Z,31.25,-81.47,15.0,11.0,40,16,20,10.0,30.109253,,,TRUE,TRUE,,,,,,,OVC,1400,,,,,,,MVFR,,,,,,,,,,,,METAR,8.0
KBBB 270055Z AUTO 17007KT 10SM BKN029 06/04 A3011 RMK AO2,KBBB,2019-03-27T00:55:00Z,45.32,-95.65,6.0,4.0,170,7,,10.0,30.109253,,,TRUE,TRUE,,,,,,,BKN,2900,,,,,,,MVFR,,,,,,,,,,,,METAR,317.0
KBAM 270055Z AUTO 29005KT 10SM CLR 17/M06 A2989 RMK AO1,KBAM,2019-03-27T00:55:00Z,,,17.0,-6.0,290,5,,10.0,29.890747,,,TRUE,TRUE,,,,,,,CLR,,,,,,,,VFR,,,,,,,,,,,,METAR,
KAZC 270055Z AUTO 30005KT 10SM CLR 19/M06 A3006 RMK AO2,KAZC,2019-03-27T00:55:00Z,36.97,-113.02,19.0,-6.0,300,5,,10.0,30.059055,,,TRUE,TRUE,,,,,,,CLR,,,,,,,,VFR,,,,,,,,,,,,METAR,1486.0
KAXH 270055Z AUTO 07004KT 10SM CLR 20/09 A3022 RMK AO2 T01950094,KAXH,2019-03-27T00:55:00Z,29.52,-95.48,19.5,9.4,70,4,,10.0,30.221457,,,TRUE,TRUE,,,,,,,CLR,,,,,,,,VFR,,,,,,,,,,,,METAR,21.0
KRRL 270055Z AUTO 23003KT 10SM CLR 04/M05 A3026 RMK AO2 T00371050 TSNO,KRRL,2019-03-27T00:55:00Z,45.2,-89.72,3.7,-5.0,230,3,,10.0,30.259842,,,TRUE,TRUE,,,TRUE,,,,CLR,,,,,,,,VFR,,,,,,,,,,,,SPECI,401.0
KGPH 270055Z AUTO 12003KT 10SM CLR 13/03 A3028 RMK AO2,KGPH,2019-03-27T00:55:00Z,39.33,-94.32,13.0,3.0,120,3,,10.0,30.280512,,,TRUE,TRUE,,,,,,,CLR,,,,,,,,VFR,,,,,,,,,,,,METAR,235.0
KHMZ 270055Z AUTO 00000KT 10SM CLR 00/M08 A3031 RMK AO2 T00041077,KHMZ,2019-03-27T00:55:00Z,40.08,-78.52,0.4,-7.7,0,0,,10.0,30.31004,,,TRUE,TRUE,,,,,,,CLR,,,,,,,,VFR,,,,,,,,,,,,METAR,354.0
KISQ 270055Z AUTO 20007KT 10SM CLR 00/M06 A3030 RMK AO2 T00031056,KISQ,2019-03-27T00:55:00Z,45.97,-86.17,0.3,-5.6,200,7,,10.0,30.301182,,,TRUE,TRUE,,,,,,,CLR,,,,,,,,VFR,,,,,,,,,,,,METAR,209.0
KLUX 270055Z AUTO 08003KT 10SM OVC055 11/06 A3021 RMK AO2,KLUX,2019-03-27T00:55:00Z,34.5,-81.95,11.0,6.0,80,3,,10.0,30.209646,,,TRUE,TRUE,,,,,,,OVC,5500,,,,,,,VFR,,,,,,,,,,,,SPECI,213.0
KC62 270055Z AUTO 00000KT 10SM CLR 02/M13 A3037 RMK AO2 T00281139,KC62,2019-03-27T00:55:00Z,41.47,-85.25,2.8,-13.9,0,0,,10.0,30.369095,,,TRUE,TRUE,,,,,,,CLR,,,,,,,,VFR,,,,,,,,,,,,SPECI,306.0
KX07 270055Z AUTO 32007KT 10SM CLR 21/15 A3003 RMK A01,KX07,2019-03-27T00:55:00Z,27.9,-81.62,21.0,15.0,320,7,,10.0,30.029528,,,TRUE,TRUE,,,,,,,CLR,,,,,,,,VFR,,,,,,,,,,,,METAR,39.0
KSXU 270055Z AUTO 16011KT 10SM CLR 19/02 A3014 RMK AO2 T01900024,KSXU,2019-03-27T00:55:00Z,34.93,-104.65,19.0,2.4,160,11,,10.0,30.138779,,,TRUE,TRUE,,,,,,,CLR,,,,,,,,VFR,,,,,,,,,,,,METAR,1460.0
KSEM 270055Z AUTO 00000KT 10SM 12/08 A3017 RMK AO2,KSEM,2019-03-27T00:55:00Z,32.35,-86.98,12.0,8.0,0,0,,10.0,30.171259,,,TRUE,TRUE,,,,,,,,,,,,,,,,,,,,,,,,,,,METAR,51.0
KS33 270055Z AUTO 34006KT 10SM CLR 11/M01 A2995 RMK AO2,KS33,2019-03-27T00:55:00Z,44.67,-121.15,11.0,-1.0,340,6,,10.0,29.949802,,,TRUE,TRUE,,,,,,,CLR,,,,,,,,VFR,,,,,,,,,,,,METAR,743.0
KRID 270055Z AUTO 02004KT 10SM CLR 02/M05 A3037 RMK AO2,KRID,2019-03-27T00:55:00Z,39.75,-84.85,2.0,-5.0,20,4,,10.0,30.369095,,,TRUE,TRUE,,,,,,,CLR,,,,,,,,VFR,,,,,,,,,,,,METAR,348.0
KEOE 270055Z AUTO 07003KT 10SM CLR 10/07 A3024 RMK AO2,KEOE,2019-03-27T00:55:00Z,34.32,-81.63,10.0,7.0,70,3,,10.0,30.239174,,,TRUE,TRUE,,,,,,,CLR,,,,,,,,VFR,,,,,,,,,,,,METAR,174.0
KDYA 270055Z AUTO 30004KT 10SM CLR 14/05 A3019 RMK AO2 T01400050,KDYA,2019-03-27T00:55:00Z,32.47,-87.95,14.0,5.0,300,4,,10.0,30.188976,,,TRUE,TRUE,,,,,,,CLR,,,,,,,,VFR,,,,,,,,,,,,METAR,34.0
KAID 270055Z AUTO 00000KT 10SM CLR 04/M06 A3038 RMK AO2 T00441057,KAID,2019-03-27T00:55:00Z,40.12,-85.62,4.4,-5.7,0,0,,10.0,30.380905,,,TRUE,TRUE,,,,,,,CLR,,,,,,,,VFR,,,,,,,,,,,,METAR,280.0
FJDG 270055Z 00000KT 9999 FEW022 FEW250 28/25 A2988 RMK SLP115 T02790253,FJDG,2019-03-27T00:55:00Z,-7.32,72.42,27.9,25.3,0,0,,6.21,29.878937,1011.5,,,,,,,,,,FEW,2200,FEW,25000,,,,,VFR,,,,,,,,,,,,METAR,3.0
EHVK 270055Z AUTO VRB02KT 9000 BR BKN052 OVC370 06/05 Q1032 BLU,EHVK,2019-03-27T00:55:00Z,51.63,5.7,6.0,5.0,0,2,,5.59,30.47244,,,TRUE,,,,,,,BR,BKN,5200,OVC,37000,,,,,VFR,,,,,,,,,,,,METAR,21.0
KOZW 270055Z AUTO 00000KT 10SM CLR 03/M11 A3039 RMK AO2 T00271110,KOZW,2019-03-27T00:55:00Z,42.62,-83.97,2.7,-11.0,0,0,,10.0,30.389763,,,TRUE,TRUE,,,,,,,CLR,,,,,,,,VFR,,,,,,,,,,,,METAR,293.0
KOSC 270055Z AUTO 00000KT 10SM CLR M01/M05 A3039 RMK AO2 T10071052,KOSC,2019-03-27T00:55:00Z,44.45,-83.4,-0.7,-5.2,0,0,,10.0,30.389763,,,TRUE,TRUE,,,,,,,CLR,,,,,,,,VFR,,,,,,,,,,,,METAR,193.0
KONZ 270055Z AUTO 17006KT 10SM CLR 00/M06 A3041 RMK AO2 T00041059,KONZ,2019-03-27T00:55:00Z,42.1,-83.15,0.4,-5.9,170,6,,10.0,30.410433,,,TRUE,TRUE,,,,,,,CLR,,,,,,,,VFR,,,,,,,,,,,,METAR,180.0
KOEB 270055Z AUTO 00000KT 10SM CLR 03/M11 A3038 RMK AO2 T00251113,KOEB,2019-03-27T00:55:00Z,41.92,-85.03,2.5,-11.3,0,0,,10.0,30.380905,,,TRUE,TRUE,,,,,,,CLR,,,,,,,,VFR,,,,,,,,,,,,METAR,292.0
KSAZ 270055Z AUTO 16004KT 10SM OVC024 04/01 A3011 RMK AO2,KSAZ,2019-03-27T00:55:00Z,46.37,-94.8,4.0,1.0,160,4,,10.0,30.109253,,,TRUE,TRUE,,,,,,,OVC,2400,,,,,,,MVFR,,,,,,,,,,,,METAR,392.0
KM25 270055Z AUTO 01004KT 10SM CLR 07/M06 A3035 RMK AO2,KM25,2019-03-27T00:55:00Z,36.77,-88.58,7.0,-6.0,10,4,,10.0,30.351377,,,TRUE,TRUE,,,,,,,CLR,,,,,,,,VFR,,,,,,,,,,,,METAR,160.0
KGPC 270055Z AUTO 00000KT 10SM CLR 04/M06 A3036 RMK AO2,KGPC,2019-03-27T00:55:00Z,39.63,-86.82,4.0,-6.0,0,0,,10.0,30.360237,,,TRUE,TRUE,,,,,,,CLR,,,,,,,,VFR,,,,,,,,,,,,METAR,257.0
KSVE 270055Z AUTO 24011G17KT 10SM CLR 10/00 A2993 RMK AO2,KSVE,2019-03-27T00:55:00Z,40.37,-120.57,10.0,0.0,240,11,17,10.0,29.929134,,,TRUE,TRUE,,,,,,,CLR,,,,,,,,VFR,,,,,,,,,,,,METAR,1263.0
KSVC 270055Z AUTO 00000KT 10SM CLR 21/M04 A3012 RMK AO2 T02141044,KSVC,2019-03-27T00:55:00Z,32.63,-108.15,21.4,-4.4,0,0,,10.0,30.121063,,,TRUE,TRUE,,,,,,,CLR,,,,,,,,VFR,,,,,,,,,,,,METAR,1659.0
KSUW 270055Z AUTO 19004KT 10SM OVC060 06/M03 A3018 RMK AO2 T00561032,KSUW,2019-03-27T00:55:00Z,46.68,-92.1,5.6,-3.2,190,4,,10.0,30.180119,,,TRUE,TRUE,,,,,,,OVC,6000,,,,,,,VFR,,,,,,,,,,,,METAR,206.0
KRPD 270055Z AUTO 15006KT 10SM CLR 04/M02 A3023 RMK AO2 T00411019,KRPD,2019-03-27T00:55:00Z,45.42,-91.77,4.1,-1.9,150,6,,10.0,30.230314,,,TRUE,TRUE,,,,,,,CLR,,,,,,,,VFR,,,,,,,,,,,,METAR,338.0
KRAW 270055Z AUTO 00000KT 10SM CLR A3031 RMK AO2,KRAW,2019-03-27T00:55:00Z,38.35,-93.35,,,0,0,,10.0,30.31004,,,TRUE,TRUE,,,,,,,CLR,,,,,,,,VFR,,,,,,,,,,,,METAR,285.0
KPTS 270055Z AUTO 14003KT 10SM CLR 14/05 A3028 RMK AO2 T01350047,KPTS,2019-03-27T00:55:00Z,37.45,-94.73,13.5,4.7,140,3,,10.0,30.280512,,,TRUE,TRUE,,,,,,,CLR,,,,,,,,VFR,,,,,,,,,,,,METAR,290.0
KOIN 270055Z AUTO 19010KT 10SM CLR 15/07 A3011 RMK AO1 T01480065,KOIN,2019-03-27T00:55:00Z,39.83,-100.53,14.8,6.5,190,10,,10.0,30.109253,,,TRUE,TRUE,,,,,,,CLR,,,,,,,,VFR,,,,,,,,,,,,METAR,824.0
KMVE 270055Z AUTO 19009KT 10SM CLR 07/04 A3009 RMK AO2,KMVE,2019-03-27T00:55:00Z,44.97,-95.72,7.0,4.0,190,9,,10.0,30.088583,,,TRUE,TRUE,,,,,,,CLR,,,,,,,,VFR,,,,,,,,,,,,METAR,315.0
KMQJ 270055Z AUTO 08005KT 10SM CLR 02/M01 A3037 RMK AO1,KMQJ,2019-03-27T00:55:00Z,39.85,-85.9,2.0,-1.0,80,5,,10.0,30.369095,,,TRUE,TRUE,,,,,,,CLR,,,,,,,,VFR,,,,,,,,,,,,METAR,263.0
KMOX 270055Z AUTO 14009KT 5SM BR CLR 04/03 A3003 RMK AO2,KMOX,2019-03-27T00:55:00Z,45.57,-95.97,4.0,3.0,140,9,,5.0,30.029528,,,TRUE,TRUE,,,,,,BR,CLR,,,,,,,,MVFR,,,,,,,,,,,,METAR,344.0
KMOP 270055Z AUTO 16004KT 10SM CLR 04/M09 A3038 RMK AO2 T00351089,KMOP,2019-03-27T00:55:00Z,43.62,-84.73,3.5,-8.9,160,4,,10.0,30.380905,,,TRUE,TRUE,,,,,,,CLR,,,,,,,,VFR,,,,,,,,,,,,METAR,230.0
KMGN 270055Z AUTO 00000KT 10SM CLR 00/M11 A3034 RMK AO2 T10061117,KMGN,2019-03-27T00:55:00Z,45.43,-84.92,-0.6,-11.7,0,0,,10.0,30.339567,,,TRUE,TRUE,,,,,,,CLR,,,,,,,,VFR,,,,,,,,,,,,METAR,209.0
KLYV 270055Z AUTO 16005KT 10SM CLR 08/03 A3011 RMK AO2,KLYV,2019-03-27T00:55:00Z,43.62,-96.22,8.0,3.0,160,5,,10.0,30.109253,,,TRUE,TRUE,,,,,,,CLR,,,,,,,,VFR,,,,,,,,,,,,METAR,436.0
KLWA 270055Z AUTO 00000KT 10SM CLR 01/M08 A3040 RMK AO2 T00071085,KLWA,2019-03-27T00:55:00Z,42.35,-86.25,0.7,-8.5,0,0,,10.0,30.398623,,,TRUE,TRUE,,,,,,,CLR,,,,,,,,VFR,,,,,,,,,,,,METAR,203.0
KLDM 270055Z AUTO 00000KT 10SM CLR 02/M13 A3037 RMK AO2 T00181130,KLDM,2019-03-27T00:55:00Z,43.97,-86.4,1.8,-13.0,0,0,,10.0,30.369095,,,TRUE,TRUE,,,,,,,CLR,,,,,,,,VFR,,,,,,,,,,,,METAR,197.0
KTEW 270055Z AUTO 00000KT 10SM CLR 03/M08 A3039 RMK AO2 T00261085,KTEW,2019-03-27T00:55:00Z,42.57,-84.42,2.6,-8.5,0,0,,10.0,30.389763,,,TRUE,TRUE,,,,,,,CLR,,,,,,,,VFR,,,,,,,,,,,,METAR,280.0
KSYM 270055Z AUTO 05003KT 10SM CLR 06/M13 A3033 RMK AO2,KSYM,2019-03-27T00:55:00Z,38.22,-83.58,6.0,-13.0,50,3,,10.0,30.33071,,,TRUE,TRUE,,,,,,,CLR,,,,,,,,VFR,,,,,,,,,,,,METAR,313.0
KSTK 270055Z AUTO 15006KT 10SM CLR 16/02 A2997 RMK AO2,KSTK,2019-03-27T00:55:00Z,40.62,-103.27,16.0,2.0,150,6,,10.0,29.970472,,,TRUE,TRUE,,,,,,,CLR,,,,,,,,VFR,,,,,,,,,,,,METAR,1231.0
KSJX 270055Z AUTO 19003KT 10SM CLR 00/M11 A3033 RMK AO2 T00001107,KSJX,2019-03-27T00:55:00Z,45.7,-85.57,0.0,-10.7,190,3,,10.0,30.33071,,,TRUE,TRUE,,,,,,,CLR,,,,,,,,VFR,,,,,,,,,,,,METAR,204.0
KSGS 270055Z AUTO 18005KT 10SM OVC036 08/02 A3020 RMK AO2 T00830016,KSGS,2019-03-27T00:55:00Z,44.87,-93.03,8.3,1.6,180,5,,10.0,30.200787,,,TRUE,TRUE,,,,,,,OVC,3600,,,,,,,VFR,,,,,,,,,,,,METAR,250.0
KAAO 270054Z AUTO 17007KT 10SM CLR 13/06 A3022 RMK AO2 SLP240 T01330056,KAAO,2019-03-27T00:54:00Z,37.75,-97.22,13.3,5.6,170,7,,10.0,30.221457,1024.0,,TRUE,TRUE,,,,,,,CLR,,,,,,,,VFR,,,,,,,,,,,,METAR,434.0
KPLN 270054Z AUTO 00000KT 10SM CLR M02/M09 A3034 RMK AO2 SLP288 T10221089,KPLN,2019-03-27T00:54:00Z,45.57,-84.8,-2.2,-8.9,0,0,,10.0,30.339567,1028.8,,TRUE,TRUE,,,,,,,CLR,,,,,,,,VFR,,,,,,,,,,,,METAR,217.0
YBCG 270054Z AUTO 19012KT 9999 -DZ SCT011 BKN025 BKN038 21/20 Q1019,YBCG,2019-03-27T00:54:00Z,-28.17,153.5,21.0,20.0,190,12,,6.21,30.088583,,,TRUE,,,,,,,-DZ,SCT,1100,BKN,2500,BKN,3800,,,MVFR,,,,,,,,,,,,SPECI,6.0
KFOZ 270054Z AUTO 19005KT 10SM SCT033 OVC046 03/M03 A3013 RMK AO2,KFOZ,2019-03-27T00:54:00Z,47.77,-93.65,3.0,-3.0,190,5,,10.0,30.129921,,,TRUE,TRUE,,,,,,,SCT,3300,OVC,4600,,,,,VFR,,,,,,,,,,,,METAR,411.0
K12N 270054Z AUTO 00000KT 01/M14 A3034 RMK AO1 SLP284 T00111144,K12N,2019-03-27T00:54:00Z,41.02,-74.73,1.1,-14.4,0,0,,,30.339567,1028.4,,TRUE,TRUE,,,,,,,,,,,,,,,,,,,,,,,,,,,METAR,177.0
KDMH 270054Z AUTO 08/M11 A3035 RMK AO1 SLP278 T00781111,KDMH,2019-03-27T00:54:00Z,39.28,-76.62,7.8,-11.1,,,,,30.351377,1027.8,,TRUE,TRUE,,,,,,,,,,,,,,,,,,,,,,,,,,,METAR,5.0
K1V4 270054Z AUTO M03/M16 A3034 RMK AO1 SLP290 T10331156,K1V4,2019-03-27T00:54:00Z,44.42,-72.02,-3.3,-15.6,,,,,30.339567,1029.0,,TRUE,TRUE,,,,,,,,,,,,,,,,,,,,,,,,,,,METAR,210.0
KNKT 270054Z 05018G22KT 10SM CLR 08/M03 A3027 RMK AO2 SLP246 T00831033,KNKT,2019-03-27T00:54:00Z,34.9,-76.88,8.3,-3.3,50,18,22,10.0,30.268702,1024.6,,,TRUE,,,,,,,CLR,,,,,,,,VFR,,,,,,,,,,,,METAR,9.0
PGUM 270054Z 03009KT 10SM -RA SCT030 BKN041 OVC055 28/22 A3000 RMK AO2 RAB50 SLP151 P0000 T02780217,PGUM,2019-03-27T00:54:00Z,13.48,144.8,27.8,21.7,30,9,,10.0,30.0,1015.1,,,TRUE,,,,,,-RA,SCT,3000,BKN,4100,OVC,5500,,,VFR,,,,,,0.005,,,,,,METAR,91.0
KMTP 270054Z AUTO 00000KT M02/M08 A3032 RMK AO1 SLP267 T10171083 ,KMTP,2019-03-27T00:54:00Z,41.07,-71.92,-1.7,-8.3,0,0,,,30.318897,1026.7,,TRUE,TRUE,,,,,,,,,,,,,,,,,,,,,,,,,,,METAR,2.0
KBKB 270054Z AUTO 00000KT 10SM CLR 14/07 A3023 RMK AO2 SLP266 T01440067 ,KBKB,2019-03-27T00:54:00Z,31.0,-92.92,14.4,6.7,0,0,,10.0,30.230314,1026.6,,TRUE,TRUE,,,,,,,CLR,,,,,,,,VFR,,,,,,,,,,,,METAR,94.0
KCAR 270054Z AUTO 29004KT 10SM CLR M06/M17 A3020 RMK AO2 SLP243 T10611172,KCAR,2019-03-27T00:54:00Z,46.87,-68.02,-6.1,-17.2,290,4,,10.0,30.200787,1024.3,,TRUE,TRUE,,,,,,,CLR,,,,,,,,VFR,,,,,,,,,,,,METAR,191.0
KBWI 270054Z 32004KT 10SM CLR 06/M11 A3035 RMK AO2 SLP276 T00611111,KBWI,2019-03-27T00:54:00Z,39.17,-76.68,6.1,-11.1,320,4,,10.0,30.351377,1027.6,,,TRUE,,,,,,,CLR,,,,,,,,VFR,,,,,,,,,,,,METAR,59.0
KCCU 270054Z AUTO 18014G21KT 10SM CLR 03/M14 A3032 RMK AO2,KCCU,2019-03-27T00:54:00Z,39.48,-106.15,3.0,-14.0,180,14,21,10.0,30.318897,,,TRUE,TRUE,,,,,,,CLR,,,,,,,,VFR,,,,,,,,,,,,METAR,3680.0
KCEU 270054Z AUTO 09007KT 10SM BKN049 OVC070 12/05 A3022 RMK AO2 SLP231 T01170050,KCEU,2019-03-27T00:54:00Z,34.67,-82.88,11.7,5.0,90,7,,10.0,30.221457,1023.1,,TRUE,TRUE,,,,,,,BKN,4900,OVC,7000,,,,,VFR,,,,,,,,,,,,METAR,268.0
KCRW 270054Z VRB03KT 10SM CLR 08/M12 A3030 RMK AO2 SLP267 T00781122,KCRW,2019-03-27T00:54:00Z,38.38,-81.58,7.8,-12.2,0,3,,10.0,30.301182,1026.7,,,TRUE,,,,,,,CLR,,,,,,,,VFR,,,,,,,,,,,,METAR,309.0
KCOU 270054Z 06004KT 10SM CLR 11/M06 A3032 RMK AO2 SLP270 T01061056,KCOU,2019-03-27T00:54:00Z,38.82,-92.22,10.6,-5.6,60,4,,10.0,30.318897,1027.0,,,TRUE,,,,,,,CLR,,,,,,,,VFR,,,,,,,,,,,,METAR,271.0
KCOS 270054Z 15014KT 10SM BKN250 16/M02 A3007 RMK AO2 SLP156 T01561017,KCOS,2019-03-27T00:54:00Z,38.82,-104.68,15.6,-1.7,150,14,,10.0,30.070866,1015.6,,,TRUE,,,,,,,BKN,25000,,,,,,,VFR,,,,,,,,,,,,METAR,1856.0
KDDH 270054Z AUTO 00000KT 10SM CLR M01/M16 A3031 RMK AO2 SLP276 T10061156,KDDH,2019-03-27T00:54:00Z,42.9,-73.25,-0.6,-15.6,0,0,,10.0,30.31004,1027.6,,TRUE,TRUE,,,,,,,CLR,,,,,,,,VFR,,,,,,,,,,,,METAR,244.0
KDEC 270054Z 04004KT 10SM CLR 03/M03 A3038 RMK AO2 SLP293 T00281033,KDEC,2019-03-27T00:54:00Z,39.83,-88.85,2.8,-3.3,40,4,,10.0,30.380905,1029.3,,,TRUE,,,,,,,CLR,,,,,,,,VFR,,,,,,,,,,,,METAR,207.0
KDSM 270054Z 18008KT 10SM BKN060 BKN070 11/02 A3026 RMK AO2 SLP253 T01060022,KDSM,2019-03-27T00:54:00Z,41.53,-93.67,10.6,2.2,180,8,,10.0,30.259842,1025.3,,,TRUE,,,,,,,BKN,6000,BKN,7000,,,,,VFR,,,,,,,,,,,,METAR,295.0
KDSV 270054Z AUTO 30003KT 10SM CLR 00/M14 A3042 RMK AO2 SLP318 T00001139,KDSV,2019-03-27T00:54:00Z,42.57,-77.72,0.0,-13.9,300,3,,10.0,30.41929,1031.8,,TRUE,TRUE,,,,,,,CLR,,,,,,,,VFR,,,,,,,,,,,,METAR,198.0
KDYL 270054Z AUTO 01004KT 10SM CLR 03/M16 A3033 RMK AO2 SLP277 T00331161,KDYL,2019-03-27T00:54:00Z,40.33,-75.12,3.3,-16.1,10,4,,10.0,30.33071,1027.7,,TRUE,TRUE,,,,,,,CLR,,,,,,,,VFR,,,,,,,,,,,,METAR,117.0
KECG 270054Z 03013KT 10SM CLR 06/M01 A3031 RMK AO2 SLP264 T00611006,KECG,2019-03-27T00:54:00Z,36.27,-76.18,6.1,-0.6,30,13,,10.0,30.31004,1026.4,,,TRUE,,,,,,,CLR,,,,,,,,VFR,,,,,,,,,,,,METAR,11.0
K2V6 270054Z AUTO 16008KT 10SM CLR 12/00 A3002 RMK AO2,K2V6,2019-03-27T00:54:00Z,40.1,-102.72,12.0,0.0,160,8,,10.0,30.02067,,,TRUE,TRUE,,,,,,,CLR,,,,,,,,VFR,,,,,,,,,,,,METAR,1261.0
K20V 270054Z AUTO 11006KT 10SM CLR 09/M03 A3012 RMK AO2,K20V,2019-03-27T00:54:00Z,40.05,-106.37,9.0,-3.0,110,6,,10.0,30.121063,,,TRUE,TRUE,,,,,,,CLR,,,,,,,,VFR,,,,,,,,,,,,METAR,2259.0
KFFZ 270054Z AUTO 30004KT 10SM CLR 28/M03 A2988 RMK AO2 SLP099 T02831033,KFFZ,2019-03-27T00:54:00Z,33.47,-111.72,28.3,-3.3,300,4,,10.0,29.878937,1009.9,,TRUE,TRUE,,,,,,,CLR,,,,,,,,VFR,,,,,,,,,,,,METAR,424.0
KEWN 270054Z 04012KT 10SM CLR 07/M02 A3028 RMK AO2 SLP253 T00671022,KEWN,2019-03-27T00:54:00Z,35.07,-77.05,6.7,-2.2,40,12,,10.0,30.280512,1025.3,,,TRUE,,,,,,,CLR,,,,,,,,VFR,,,,,,,,,,,,METAR,3.0
KEVV 270054Z 33004KT 10SM CLR 07/M04 A3036 RMK AO2 SLP284 T00671039,KEVV,2019-03-27T00:54:00Z,38.05,-87.52,6.7,-3.9,330,4,,10.0,30.360237,1028.4,,,TRUE,,,,,,,CLR,,,,,,,,VFR,,,,,,,,,,,,METAR,117.0
KEUG 270054Z 36006KT 10SM OVC150 13/04 A2994 RMK AO2 SLP140 T01330044,KEUG,2019-03-27T00:54:00Z,44.13,-123.22,13.3,4.4,360,6,,10.0,29.940945,1014.0,,,TRUE,,,,,,,OVC,15000,,,,,,,VFR,,,,,,,,,,,,METAR,114.0
KAKR 270054Z AUTO 02006KT 10SM CLR 02/M12 A3038 RMK AO2 SLP296 T00171122,KAKR,2019-03-27T00:54:00Z,41.03,-81.47,1.7,-12.2,20,6,,10.0,30.380905,1029.6,,TRUE,TRUE,,,,,,,CLR,,,,,,,,VFR,,,,,,,,,,,,METAR,363.0
KAKQ 270054Z AUTO 04003KT 10SM CLR 05/M08 A3032 RMK AO2 SLP270 T00501083,KAKQ,2019-03-27T00:54:00Z,36.98,-77.0,5.0,-8.3,40,3,,10.0,30.318897,1027.0,,TRUE,TRUE,,,,,,,CLR,,,,,,,,VFR,,,,,,,,,,,,METAR,34.0
KAKH 270054Z AUTO 36004KT 10SM CLR 11/03 A3023 RMK AO2 SLP239 T01060028,KAKH,2019-03-27T00:54:00Z,35.2,-81.15,10.6,2.8,360,4,,10.0,30.230314,1023.9,,TRUE,TRUE,,,,,,,CLR,,,,,,,,VFR,,,,,,,,,,,,METAR,243.0
PAKN 270054Z 27011KT 9SM CLR 08/01 A3018 RMK AO2 SLP220 T00780006 $,PAKN,2019-03-27T00:54:00Z,58.68,-156.65,7.8,0.6,270,11,,9.0,30.180119,1022.0,,,TRUE,TRUE,,,,,,CLR,,,,,,,,VFR,,,,,,,,,,,,METAR,17.0
KAPN 270054Z AUTO 13003KT 10SM CLR M01/M06 A3037 RMK AO2 SLP296 T10061056,KAPN,2019-03-27T00:54:00Z,45.07,-83.57,-0.6,-5.6,130,3,,10.0,30.369095,1029.6,,TRUE,TRUE,,,,,,,CLR,,,,,,,,VFR,,,,,,,,,,,,METAR,210.0
KAPC 270054Z 21006KT 10SM FEW060 OVC080 16/07 A2994 RMK AO2 SLP129 T01560072,KAPC,2019-03-27T00:54:00Z,38.2,-122.28,15.6,7.2,210,6,,10.0,29.940945,1012.9,,,TRUE,,,,,,,FEW,6000,OVC,8000,,,,,VFR,,,,,,,,,,,,METAR,13.0
KALO 270054Z AUTO 16008KT 10SM CLR 08/M03 A3027 RMK AO2 SLP259 T00781028,KALO,2019-03-27T00:54:00Z,42.55,-92.4,7.8,-2.8,160,8,,10.0,30.268702,1025.9,,TRUE,TRUE,,,,,,,CLR,,,,,,,,VFR,,,,,,,,,,,,METAR,264.0
KBOS 270054Z 32012KT 10SM CLR 04/M17 A3033 RMK AO2 SLP268 T00391167,KBOS,2019-03-27T00:54:00Z,42.37,-71.02,3.9,-16.7,320,12,,10.0,30.33071,1026.8,,,TRUE,,,,,,,CLR,,,,,,,,VFR,,,,,,,,,,,,METAR,6.0
KBFL 270054Z 32009KT 10SM CLR 22/07 A2991 RMK AO2 SLP126 T02220067,KBFL,2019-03-27T00:54:00Z,35.43,-119.05,22.2,6.7,320,9,,10.0,29.911417,1012.6,,,TRUE,,,,,,,CLR,,,,,,,,VFR,,,,,,,,,,,,METAR,151.0
KAVP 270054Z 35006KT 10SM CLR 01/M14 A3035 RMK AO2 SLP285 T00111139,KAVP,2019-03-27T00:54:00Z,41.33,-75.72,1.1,-13.9,350,6,,10.0,30.351377,1028.5,,,TRUE,,,,,,,CLR,,,,,,,,VFR,,,,,,,,,,,,METAR,291.0
KAVL 270054Z VRB04KT 10SM OVC040 08/04 A3023 RMK AO2 SLP233 T00780039,KAVL,2019-03-27T00:54:00Z,35.43,-82.53,7.8,3.9,0,4,,10.0,30.230314,1023.3,,,TRUE,,,,,,,OVC,4000,,,,,,,VFR,,,,,,,,,,,,METAR,670.0
KAUW 270054Z AUTO 23004KT 10SM CLR 05/M09 A3025 RMK AO2 SLP262 T00501089,KAUW,2019-03-27T00:54:00Z,44.93,-89.62,5.0,-8.9,230,4,,10.0,30.250984,1026.2,,TRUE,TRUE,,,,,,,CLR,,,,,,,,VFR,,,,,,,,,,,,METAR,362.0
KBTV 270054Z 00000KT 10SM CLR M01/M16 A3038 RMK AO2 SLP292 T10111156,KBTV,2019-03-27T00:54:00Z,44.47,-73.15,-1.1,-15.6,0,0,,10.0,30.380905,1029.2,,,TRUE,,,,,,,CLR,,,,,,,,VFR,,,,,,,,,,,,METAR,105.0
KBUY 270054Z AUTO 05005KT 10SM CLR 09/M08 A3027 RMK AO2 SLP249 T00891083,KBUY,2019-03-27T00:54:00Z,36.05,-79.47,8.9,-8.3,50,5,,10.0,30.268702,1024.9,,TRUE,TRUE,,,,,,,CLR,,,,,,,,VFR,,,,,,,,,,,,METAR,180.0
KFIG 270054Z AUTO 35004KT 10SM CLR 02/M14 A3032 RMK AO2 SLP284 T00171144,KFIG,2019-03-27T00:54:00Z,41.05,-78.42,1.7,-14.4,350,4,,10.0,30.318897,1028.4,,TRUE,TRUE,,,,,,,CLR,,,,,,,,VFR,,,,,,,,,,,,METAR,462.0
KGCN 270054Z 24007KT 10SM SCT120 15/M11 A3012 RMK AO2 SLP164 T01501111,KGCN,2019-03-27T00:54:00Z,35.95,-112.15,15.0,-11.1,240,7,,10.0,30.121063,1016.4,,,TRUE,,,,,,,SCT,12000,,,,,,,VFR,,,,,,,,,,,,METAR,2016.0
KGCK 270054Z 19014G22KT 10SM CLR 15/07 A3010 RMK AO2 PK WND 20026/0029 SLP192 T01500072,KGCK,2019-03-27T00:54:00Z,37.92,-100.72,15.0,7.2,190,14,22,10.0,30.100393,1019.2,,,TRUE,,,,,,,CLR,,,,,,,,VFR,,,,,,,,,,,,METAR,877.0
KFZY 270054Z AUTO 00000KT 10SM CLR M03/M14 A3043 RMK AO2 SLP311 T10281144,KFZY,2019-03-27T00:54:00Z,43.35,-76.38,-2.8,-14.4,0,0,,10.0,30.431103,1031.1,,TRUE,TRUE,,,,,,,CLR,,,,,,,,VFR,,,,,,,,,,,,METAR,138.0
KFWA 270054Z 10005KT 10SM FEW250 03/M05 A3038 RMK AO2 SLP296 T00281050 $,KFWA,2019-03-27T00:54:00Z,40.98,-85.18,2.8,-5.0,100,5,,10.0,30.380905,1029.6,,,TRUE,TRUE,,,,,,FEW,25000,,,,,,,VFR,,,,,,,,,,,,METAR,248.0
KACY 270054Z 00000KT 10SM CLR 02/M07 A3033 RMK AO2 SLP271 T00171067,KACY,2019-03-27T00:54:00Z,39.45,-74.57,1.7,-6.7,0,0,,10.0,30.33071,1027.1,,,TRUE,,,,,,,CLR,,,,,,,,VFR,,,,,,,,,,,,METAR,23.0
KGEU 270054Z E23009KT 10SM BKN180 OVC250 29/M03 A2989,KGEU,2019-03-27T00:54:00Z,33.53,-112.3,29.0,-3.0,230,9,,10.0,29.890747,,,,,,,,,,,BKN,18000,OVC,25000,,,,,VFR,,,,,,,,,,,,METAR,325.0
KGED 270054Z AUTO 00000KT 10SM CLR 03/M04 A3035 RMK AO2 SLP276 T00331039,KGED,2019-03-27T00:54:00Z,38.68,-75.37,3.3,-3.9,0,0,,10.0,30.351377,1027.6,,TRUE,TRUE,,,,,,,CLR,,,,,,,,VFR,,,,,,,,,,,,METAR,19.0
KHWD 270054Z 35005KT 10SM OVC070 22/07 A2992 RMK AO2 RAB28E41 SLP141 P0000 T02220067,KHWD,2019-03-27T00:54:00Z,37.67,-122.12,22.2,6.7,350,5,,10.0,29.920275,1014.1,,,TRUE,,,,,,,OVC,7000,,,,,,,VFR,,,,,,0.005,,,,,,METAR,21.0
KGSO 270054Z 08008KT 10SM CLR 08/M06 A3025 RMK AO2 SLP243 T00781061,KGSO,2019-03-27T00:54:00Z,36.1,-79.95,7.8,-6.1,80,8,,10.0,30.250984,1024.3,,,TRUE,,,,,,,CLR,,,,,,,,VFR,,,,,,,,,,,,METAR,275.0
KLAF 270054Z AUTO 10005KT 10SM CLR 05/M11 A3037 RMK AO2 SLP290 T00501111,KLAF,2019-03-27T00:54:00Z,40.42,-86.93,5.0,-11.1,100,5,,10.0,30.369095,1029.0,,TRUE,TRUE,,,,,,,CLR,,,,,,,,VFR,,,,,,,,,,,,METAR,182.0
KJST 270054Z AUTO 32005KT 10SM CLR 02/M15 A3028 RMK AO2 SLP277 T00221150,KJST,2019-03-27T00:54:00Z,40.32,-78.83,2.2,-15.0,320,5,,10.0,30.280512,1027.7,,TRUE,TRUE,,,,,,,CLR,,,,,,,,VFR,,,,,,,,,,,,METAR,694.0
KIZG 270054Z AUTO 36008KT 10SM CLR M02/M16 A3031 RMK AO2 SLP271 T10171161,KIZG,2019-03-27T00:54:00Z,43.98,-70.95,-1.7,-16.1,360,8,,10.0,30.31004,1027.1,,TRUE,TRUE,,,,,,,CLR,,,,,,,,VFR,,,,,,,,,,,,METAR,135.0
KISW 270054Z AUTO 20003KT 10SM CLR 03/M10 A3029 RMK AO2 SLP270 T00331100 TSNO,KISW,2019-03-27T00:54:00Z,44.37,-89.83,3.3,-10.0,200,3,,10.0,30.28937,1027.0,,TRUE,TRUE,,,TRUE,,,,CLR,,,,,,,,VFR,,,,,,,,,,,,METAR,307.0
KIPT 270054Z 04006KT 10SM CLR 03/M15 A3036 RMK AO2 SLP288 T00331150,KIPT,2019-03-27T00:54:00Z,41.25,-76.92,3.3,-15.0,40,6,,10.0,30.360237,1028.8,,,TRUE,,,,,,,CLR,,,,,,,,VFR,,,,,,,,,,,,METAR,164.0
KINT 270054Z 07005KT 10SM CLR 09/M02 A3026 RMK AO2 SLP247 T00941017,KINT,2019-03-27T00:54:00Z,36.13,-80.22,9.4,-1.7,70,5,,10.0,30.259842,1024.7,,,TRUE,,,,,,,CLR,,,,,,,,VFR,,,,,,,,,,,,METAR,291.0
KIND 270054Z 07005KT 10SM FEW250 06/M08 A3036 RMK AO2 SLP288 T00561078,KIND,2019-03-27T00:54:00Z,39.72,-86.3,5.6,-7.8,70,5,,10.0,30.360237,1028.8,,,TRUE,,,,,,,FEW,25000,,,,,,,VFR,,,,,,,,,,,,METAR,241.0
KIMT 270054Z AUTO 21004KT 10SM CLR 04/M11 A3023 RMK AO2 SLP256 T00391106,KIMT,2019-03-27T00:54:00Z,45.82,-88.12,3.9,-10.6,210,4,,10.0,30.230314,1025.6,,TRUE,TRUE,,,,,,,CLR,,,,,,,,VFR,,,,,,,,,,,,METAR,349.0
KWLD 270054Z AUTO 16005KT 10SM CLR 13/05 A3025 RMK AO2 SLP245 T01330050,KWLD,2019-03-27T00:54:00Z,37.17,-97.03,13.3,5.0,160,5,,10.0,30.250984,1024.5,,TRUE,TRUE,,,,,,,CLR,,,,,,,,VFR,,,,,,,,,,,,METAR,350.0
KWAL 270054Z AUTO 05009KT 10SM CLR 04/M03 A3035 RMK AO2 SLP273 T00441033,KWAL,2019-03-27T00:54:00Z,37.93,-75.47,4.4,-3.3,50,9,,10.0,30.351377,1027.3,,TRUE,TRUE,,,,,,,CLR,,,,,,,,VFR,,,,,,,,,,,,METAR,14.0
KVTA 270054Z AUTO 00000KT 10SM CLR 06/M08 A3035 RMK AO2 SLP283 T00611078,KVTA,2019-03-27T00:54:00Z,40.02,-82.47,6.1,-7.8,0,0,,10.0,30.351377,1028.3,,TRUE,TRUE,,,,,,,CLR,,,,,,,,VFR,,,,,,,,,,,,METAR,268.0
KVSF 270054Z AUTO 00000KT 10SM CLR M02/M12 A3033 RMK AO2 SLP279 T10171122,KVSF,2019-03-27T00:54:00Z,43.35,-72.52,-1.7,-12.2,0,0,,10.0,30.33071,1027.9,,TRUE,TRUE,,,,,,,CLR,,,,,,,,VFR,,,,,,,,,,,,METAR,175.0
KVAY 270054Z AUTO 34004KT 10SM CLR 04/M13 A3034 RMK AO2 SLP274 T00441133,KVAY,2019-03-27T00:54:00Z,39.93,-74.83,4.4,-13.3,340,4,,10.0,30.339567,1027.4,,TRUE,TRUE,,,,,,,CLR,,,,,,,,VFR,,,,,,,,,,,,METAR,15.0
KUZA 270054Z AUTO 02006KT 10SM BKN060 09/04 A3023 RMK AO2 SLP236 T00940039,KUZA,2019-03-27T00:54:00Z,34.98,-81.05,9.4,3.9,20,6,,10.0,30.230314,1023.6,,TRUE,TRUE,,,,,,,BKN,6000,,,,,,,VFR,,,,,,,,,,,,METAR,202.0
KUIN 270054Z AUTO 15004KT 10SM CLR 08/M03 A3034 RMK AO2 SLP278 T00781028,KUIN,2019-03-27T00:54:00Z,39.95,-91.2,7.8,-2.8,150,4,,10.0,30.339567,1027.8,,TRUE,TRUE,,,,,,,CLR,,,,,,,,VFR,,,,,,,,,,,,METAR,234.0
KTQE 270054Z AUTO 14013KT 10SM CLR 12/07 A3013 RMK AO2 SLP203 T01220072,KTQE,2019-03-27T00:54:00Z,41.77,-96.18,12.2,7.2,140,13,,10.0,30.129921,1020.3,,TRUE,TRUE,,,,,,,CLR,,,,,,,,VFR,,,,,,,,,,,,METAR,312.0
KPIA 270054Z 17003KT 10SM CLR 07/M09 A3037 RMK AO2 SLP291 T00721094,KPIA,2019-03-27T00:54:00Z,40.67,-89.68,7.2,-9.4,170,3,,10.0,30.369095,1029.1,,,TRUE,,,,,,,CLR,,,,,,,,VFR,,,,,,,,,,,,METAR,205.0
KPHL 270054Z 35006KT 10SM CLR 06/M15 A3035 RMK AO2 SLP275 T00611150 $,KPHL,2019-03-27T00:54:00Z,39.87,-75.23,6.1,-15.0,350,6,,10.0,30.351377,1027.5,,,TRUE,TRUE,,,,,,CLR,,,,,,,,VFR,,,,,,,,,,,,METAR,18.0
KPNE 270054Z 36008KT 10SM CLR 06/M15 A3035 RMK AO2 SLP278 T00561150,KPNE,2019-03-27T00:54:00Z,40.08,-75.02,5.6,-15.0,360,8,,10.0,30.351377,1027.8,,,TRUE,,,,,,,CLR,,,,,,,,VFR,,,,,,,,,,,,METAR,28.0
KROA 270054Z 11004KT 10SM CLR 09/M09 A3029 RMK AO2 SLP258 T00891094,KROA,2019-03-27T00:54:00Z,37.32,-79.97,8.9,-9.4,110,4,,10.0,30.28937,1025.8,,,TRUE,,,,,,,CLR,,,,,,,,VFR,,,,,,,,,,,,METAR,362.0
KRIC 270054Z 06008KT 10SM CLR 06/M08 A3033 RMK AO2 SLP276 T00561078,KRIC,2019-03-27T00:54:00Z,37.52,-77.32,5.6,-7.8,60,8,,10.0,30.33071,1027.6,,,TRUE,,,,,,,CLR,,,,,,,,VFR,,,,,,,,,,,,METAR,50.0
KRFD 270054Z 16004KT 10SM FEW250 06/M09 A3038 RMK AO2 SLP296 T00561089,KRFD,2019-03-27T00:54:00Z,42.2,-89.1,5.6,-8.9,160,4,,10.0,30.380905,1029.6,,,TRUE,,,,,,,FEW,25000,,,,,,,VFR,,,,,,,,,,,,METAR,221.0
KRDG 270054Z 01005KT 10SM CLR 04/M13 A3034 RMK AO2 SLP282 T00441128,KRDG,2019-03-27T00:54:00Z,40.37,-75.97,4.4,-12.8,10,5,,10.0,30.339567,1028.2,,,TRUE,,,,,,,CLR,,,,,,,,VFR,,,,,,,,,,,,METAR,109.0
KRBL 270054Z AUTO 17008KT 10SM SCT080 16/07 A2994 RMK AO2 SLP138 T01560072,KRBL,2019-03-27T00:54:00Z,40.15,-122.25,15.6,7.2,170,8,,10.0,29.940945,1013.8,,TRUE,TRUE,,,,,,,SCT,8000,,,,,,,VFR,,,,,,,,,,,,METAR,104.0
KPTW 270054Z AUTO 36005KT 10SM CLR 03/M15 A3035 RMK AO2 SLP279 T00331150,KPTW,2019-03-27T00:54:00Z,40.23,-75.55,3.3,-15.0,360,5,,10.0,30.351377,1027.9,,TRUE,TRUE,,,,,,,CLR,,,,,,,,VFR,,,,,,,,,,,,METAR,92.0
KPSF 270054Z AUTO 29008KT 10SM CLR M01/M14 A3028 RMK AO2 SLP267 T10061144,KPSF,2019-03-27T00:54:00Z,42.43,-73.28,-0.6,-14.4,290,8,,10.0,30.280512,1026.7,,TRUE,TRUE,,,,,,,CLR,,,,,,,,VFR,,,,,,,,,,,,METAR,355.0
KROC 270054Z 00000KT 10SM CLR M01/M14 A3043 RMK AO2 SLP313 T10061139,KROC,2019-03-27T00:54:00Z,43.12,-77.68,-0.6,-13.9,0,0,,10.0,30.431103,1031.3,,,TRUE,,,,,,,CLR,,,,,,,,VFR,,,,,,,,,,,,METAR,178.0
PAHN 270054Z AUTO 26004KT 10SM BKN080 12/M02 A3002 RMK AO2 SLP169 T01171022 TSNO,PAHN,2019-03-27T00:54:00Z,59.25,-135.52,11.7,-2.2,260,4,,10.0,30.02067,1016.9,,TRUE,TRUE,,,TRUE,,,,BKN,8000,,,,,,,VFR,,,,,,,,,,,,METAR,5.0
PGSN 270054Z 06015KT 10SM SCT028 31/21 A3000 RMK AO2 SLP180 T03060206 PNO $,PGSN,2019-03-27T00:54:00Z,15.12,145.72,30.6,20.6,60,15,,10.0,30.0,1018.0,,,TRUE,TRUE,,,,,,SCT,2800,,,,,,,VFR,,,,,,,,,,,,METAR,65.0
PHOG 270054Z 03019KT 10SM FEW030 SCT050 28/16 A2998 RMK AO2 SLP158 T02780161,PHOG,2019-03-27T00:54:00Z,20.9,-156.43,27.8,16.1,30,19,,10.0,29.97933,1015.8,,,TRUE,,,,,,,FEW,3000,SCT,5000,,,,,VFR,,,,,,,,,,,,METAR,12.0
PHMK 270054Z 05011G20KT 10SM CLR 26/17 A2999 RMK AO2 SLP157 T02610172,PHMK,2019-03-27T00:54:00Z,21.15,-157.1,26.1,17.2,50,11,20,10.0,29.991142,1015.7,,,TRUE,,,,,,,CLR,,,,,,,,VFR,,,,,,,,,,,,METAR,141.0
MMCM 270054Z 12010KT 7SM SCT020 SCT100 27/21 A3000 RMK 8/520,MMCM,2019-03-27T00:54:00Z,18.5,-88.33,27.0,21.0,120,10,,7.0,30.0,,,,,,,,,,,SCT,2000,SCT,10000,,,,,VFR,,,,,,,,,,,,METAR,12.0
KORB 270054Z AUTO 17005KT 10SM OVC046 04/M06 A3008 RMK AO2,KORB,2019-03-27T00:54:00Z,48.02,-92.87,4.0,-6.0,170,5,,10.0,30.079725,,,TRUE,TRUE,,,,,,,OVC,4600,,,,,,,VFR,,,,,,,,,,,,METAR,397.0
KSBY 270054Z 00000KT 10SM CLR 02/M03 A3034 RMK AO2 SLP278 T00221033,KSBY,2019-03-27T00:54:00Z,38.33,-75.5,2.2,-3.3,0,0,,10.0,30.339567,1027.8,,,TRUE,,,,,,,CLR,,,,,,,,VFR,,,,,,,,,,,,METAR,19.0
KBUF 270054Z 26005KT 10SM CLR M01/M11 A3041 RMK AO2 SLP309 T10061111,KBUF,2019-03-27T00:54:00Z,42.93,-78.73,-0.6,-11.1,260,5,,10.0,30.410433,1030.9,,,TRUE,,,,,,,CLR,,,,,,,,VFR,,,,,,,,,,,,METAR,211.0
KILN 270054Z AUTO 01006KT 10SM CLR 03/M05 A3035 RMK AO2 SLP304 T00281050,KILN,2019-03-27T00:54:00Z,39.43,-83.8,2.8,-5.0,10,6,,10.0,30.351377,1030.4,,TRUE,TRUE,,,,,,,CLR,,,,,,,,VFR,,,,,,,,,,,,METAR,322.0
KJAN 270054Z 34009KT 10SM CLR 13/03 A3027 RMK AO2 SLP247 T01330028,KJAN,2019-03-27T00:54:00Z,32.32,-90.08,13.3,2.8,340,9,,10.0,30.268702,1024.7,,,TRUE,,,,,,,CLR,,,,,,,,VFR,,,,,,,,,,,,METAR,91.0
KPHF 270054Z 04004KT 10SM CLR 04/M05 A3033 RMK AO2 SLP270 T00441050,KPHF,2019-03-27T00:54:00Z,37.13,-76.5,4.4,-5.0,40,4,,10.0,30.33071,1027.0,,,TRUE,,,,,,,CLR,,,,,,,,VFR,,,,,,,,,,,,METAR,12.0
KORH 270054Z 34006KT 10SM CLR 00/M18 A3029 RMK AO2 SLP270 T00001178,KORH,2019-03-27T00:54:00Z,42.27,-71.87,0.0,-17.8,340,6,,10.0,30.28937,1027.0,,,TRUE,,,,,,,CLR,,,,,,,,VFR,,,,,,,,,,,,METAR,304.0
KOLS 270054Z AUTO 24007KT 10SM CLR 25/M07 A3002 RMK AO2 SLP119 T02501067,KOLS,2019-03-27T00:54:00Z,31.42,-110.85,25.0,-6.7,240,7,,10.0,30.02067,1011.9,,TRUE,TRUE,,,,,,,CLR,,,,,,,,VFR,,,,,,,,,,,,METAR,1184.0
KOLM 270054Z 34007KT 10SM CLR 14/02 A3000 RMK AO2 SLP160 T01440017,KOLM,2019-03-27T00:54:00Z,46.97,-122.9,14.4,1.7,340,7,,10.0,30.0,1016.0,,,TRUE,,,,,,,CLR,,,,,,,,VFR,,,,,,,,,,,,METAR,58.0
KOFP 270054Z AUTO VRB03KT 10SM CLR 06/M09 A3035 RMK AO2 SLP277 T00561089,KOFP,2019-03-27T00:54:00Z,37.7,-77.43,5.6,-8.9,0,3,,10.0,30.351377,1027.7,,TRUE,TRUE,,,,,,,CLR,,,,,,,,VFR,,,,,,,,,,,,METAR,62.0
KSBN 270054Z 36004KT 10SM CLR 02/M09 A3040 RMK AO2 SLP303 T00171094,KSBN,2019-03-27T00:54:00Z,41.7,-86.32,1.7,-9.4,360,4,,10.0,30.398623,1030.3,,,TRUE,,,,,,,CLR,,,,,,,,VFR,,,,,,,,,,,,METAR,237.0
KRST 270054Z 17009KT 10SM FEW038 05/00 A3024 RMK AO2 SLP256 T00500000,KRST,2019-03-27T00:54:00Z,43.9,-92.5,5.0,0.0,170,9,,10.0,30.239174,1025.6,,,TRUE,,,,,,,FEW,3800,,,,,,,VFR,,,,,,,,,,,,METAR,403.0
KRKS 270054Z AUTO 30007KT 10SM CLR 09/M05 A3005 RMK AO2 SLP166 T00891050,KRKS,2019-03-27T00:54:00Z,41.6,-109.07,8.9,-5.0,300,7,,10.0,30.050198,1016.6,,TRUE,TRUE,,,,,,,CLR,,,,,,,,VFR,,,,,,,,,,,,METAR,2060.0
KMVL 270054Z AUTO 00000KT 10SM CLR M06/M13 A3036 RMK AO2 SLP296 T10611133,KMVL,2019-03-27T00:54:00Z,44.53,-72.62,-6.1,-13.3,0,0,,10.0,30.360237,1029.6,,TRUE,TRUE,,,,,,,CLR,,,,,,,,VFR,,,,,,,,,,,,METAR,234.0
KMRY 270054Z 32004KT 10SM OVC065 15/11 A2994 RMK AO2 SLP149 T01500106,KMRY,2019-03-27T00:54:00Z,36.58,-121.85,15.0,10.6,320,4,,10.0,29.940945,1014.9,,,TRUE,,,,,,,OVC,6500,,,,,,,VFR,,,,,,,,,,,,METAR,66.0
KMOT 270054Z 17004KT 10SM CLR 07/03 A2982 RMK AO2 SLP113 T00720033,KMOT,2019-03-27T00:54:00Z,48.25,-101.27,7.2,3.3,170,4,,10.0,29.819881,1011.3,,,TRUE,,,,,,,CLR,,,,,,,,VFR,,,,,,,,,,,,METAR,519.0
KMLF 270054Z AUTO 21014KT 10SM CLR 16/M06 A2998 RMK AO2 WSHFT 0040 T01561056,KMLF,2019-03-27T00:54:00Z,38.42,-113.02,15.6,-5.6,210,14,,10.0,29.97933,,,TRUE,TRUE,,,,,,,CLR,,,,,,,,VFR,,,,,,,,,,,,SPECI,1534.0
KMKC 270054Z 14006KT 10SM CLR 16/03 A3025 RMK AO2 SLP245 T01560033,KMKC,2019-03-27T00:54:00Z,39.12,-94.6,15.6,3.3,140,6,,10.0,30.250984,1024.5,,,TRUE,,,,,,,CLR,,,,,,,,VFR,,,,,,,,,,,,METAR,227.0
KMIV 270054Z AUTO VRB03KT 10SM CLR 01/M08 A3033 RMK AO2 SLP271 T00061083,KMIV,2019-03-27T00:54:00Z,39.37,-75.08,0.6,-8.3,0,3,,10.0,30.33071,1027.1,,TRUE,TRUE,,,,,,,CLR,,,,,,,,VFR,,,,,,,,,,,,METAR,23.0
KMGJ 270054Z AUTO 34007KT 10SM CLR 01/M15 A3033 RMK AO2 SLP276 T00111150,KMGJ,2019-03-27T00:54:00Z,41.52,-74.27,1.1,-15.0,340,7,,10.0,30.33071,1027.6,,TRUE,TRUE,,,,,,,CLR,,,,,,,,VFR,,,,,,,,,,,,METAR,108.0
KMFI 270054Z AUTO 22003KT 10SM CLR 04/M06 A3025 RMK AO2 SLP260 T00441056,KMFI,2019-03-27T00:54:00Z,44.63,-90.18,4.4,-5.6,220,3,,10.0,30.250984,1026.0,,TRUE,TRUE,,,,,,,CLR,,,,,,,,VFR,,,,,,,,,,,,METAR,389.0
KMEM 270054Z 01008KT 10SM CLR 10/M06 A3031 RMK AO2 SLP264 T01001056 $,KMEM,2019-03-27T00:54:00Z,35.07,-89.98,10.0,-5.6,10,8,,10.0,30.31004,1026.4,,,TRUE,TRUE,,,,,,CLR,,,,,,,,VFR,,,,,,,,,,,,METAR,86.0
KLYH 270054Z 07006KT 10SM CLR 07/M11 A3028 RMK AO2 SLP256 T00721106,KLYH,2019-03-27T00:54:00Z,37.32,-79.2,7.2,-10.6,70,6,,10.0,30.280512,1025.6,,,TRUE,,,,,,,CLR,,,,,,,,VFR,,,,,,,,,,,,METAR,295.0
KLWT 270054Z AUTO 24009KT 10SM SCT070 BKN085 OVC100 07/00 A2987 RMK AO2 SLP126 T00720000,KLWT,2019-03-27T00:54:00Z,47.03,-109.47,7.2,0.0,240,9,,10.0,29.870079,1012.6,,TRUE,TRUE,,,,,,,SCT,7000,BKN,8500,OVC,10000,,,VFR,,,,,,,,,,,,METAR,1270.0
KLWM 270054Z 35004KT 10SM CLR 01/M17 A3034 RMK AO2 SLP275 T00111172,KLWM,2019-03-27T00:54:00Z,42.72,-71.13,1.1,-17.2,350,4,,10.0,30.339567,1027.5,,,TRUE,,,,,,,CLR,,,,,,,,VFR,,,,,,,,,,,,METAR,54.0
KLNK 270054Z 17010KT 10SM CLR 14/06 A3014 RMK AO2 SLP207 T01440061 $,KLNK,2019-03-27T00:54:00Z,40.85,-96.77,14.4,6.1,170,10,,10.0,30.138779,1020.7,,,TRUE,TRUE,,,,,,CLR,,,,,,,,VFR,,,,,,,,,,,,METAR,364.0
KLEX 270054Z 02007KT 10SM CLR 04/M06 A3033 RMK AO2 SLP276 T00441061,KLEX,2019-03-27T00:54:00Z,38.03,-84.6,4.4,-6.1,20,7,,10.0,30.33071,1027.6,,,TRUE,,,,,,,CLR,,,,,,,,VFR,,,,,,,,,,,,METAR,300.0
KTAD 270054Z AUTO 18019G27KT 10SM CLR 18/M02 A3007 RMK AO2 PK WND 19032/0012 SLP146 T01781017,KTAD,2019-03-27T00:54:00Z,37.27,-104.33,17.8,-1.7,180,19,27,10.0,30.070866,1014.6,,TRUE,TRUE,,,,,,,CLR,,,,,,,,VFR,,,,,,,,,,,,METAR,1756.0
KSYR 270054Z 31004KT 10SM FEW250 M01/M14 A3043 RMK AO2 SLP307 T10111144 $,KSYR,2019-03-27T00:54:00Z,43.12,-76.1,-1.1,-14.4,310,4,,10.0,30.431103,1030.7,,,TRUE,TRUE,,,,,,FEW,25000,,,,,,,VFR,,,,,,,,,,,,METAR,127.0
KSUS 270054Z 00000KT 10SM CLR 08/M01 A3034 RMK AO2 SLP280 T00781006 $,KSUS,2019-03-27T00:54:00Z,38.65,-90.65,7.8,-0.6,0,0,,10.0,30.339567,1028.0,,,TRUE,TRUE,,,,,,CLR,,,,,,,,VFR,,,,,,,,,,,,METAR,141.0
KSLC 270054Z 01008KT 10SM FEW085 SCT150 BKN200 15/03 A2994 RMK AO2 SLP113 T01500033,KSLC,2019-03-27T00:54:00Z,40.77,-111.97,15.0,3.3,10,8,,10.0,29.940945,1011.3,,,TRUE,,,,,,,FEW,8500,SCT,15000,BKN,20000,,,VFR,,,,,,,,,,,,METAR,1286.0
KSJN 270054Z AUTO 24011KT 10SM CLR 20/M08 A3007 RMK AO2 SLP141 T02001083,KSJN,2019-03-27T00:54:00Z,34.52,-109.38,20.0,-8.3,240,11,,10.0,30.070866,1014.1,,TRUE,TRUE,,,,,,,CLR,,,,,,,,VFR,,,,,,,,,,,,METAR,1745.0
KSET 270054Z AUTO 06006KT 10SM CLR 09/M02 A3035 RMK AO2 SLP278 T00891017 $,KSET,2019-03-27T00:54:00Z,38.93,-90.43,8.9,-1.7,60,6,,10.0,30.351377,1027.8,,TRUE,TRUE,TRUE,,,,,,CLR,,,,,,,,VFR,,,,,,,,,,,,METAR,134.0
KP92 270053Z AUTO 36004KT A3020 RMK AO1 SLP228 P0001 $,KP92,2019-03-27T00:53:00Z,29.57,-91.53,,,360,4,,,30.200787,1022.8,,TRUE,TRUE,TRUE,,,,,,,,,,,,,,,,,,,,0.01,,,,,,METAR,1.0
TJNR 270053Z AUTO 14005KT 10SM CLR 26/21 A2999 RMK AO2 SLP155 T02560211,TJNR,2019-03-27T00:53:00Z,18.25,-65.63,25.6,21.1,140,5,,10.0,29.991142,1015.5,,TRUE,TRUE,,,,,,,CLR,,,,,,,,VFR,,,,,,,,,,,,METAR,12.0
PACV 270053Z 06006KT 10SM FEW060 FEW200 14/M02 A2996 RMK AO2 SLP146 T01391022,PACV,2019-03-27T00:53:00Z,60.5,-145.47,13.9,-2.2,60,6,,10.0,29.958662,1014.6,,,TRUE,,,,,,,FEW,6000,FEW,20000,,,,,VFR,,,,,,,,,,,,METAR,12.0
PADE 270053Z AUTO 16016KT CLR 02/M01 A2993 RMK AO2 PK WND 16039/0024 SLP136 T00221006 TSNO $,PADE,2019-03-27T00:53:00Z,66.07,-162.77,2.2,-0.6,160,16,,,29.929134,1013.6,,TRUE,TRUE,TRUE,,TRUE,,,,CLR,,,,,,,,,,,,,,,,,,,,METAR,5.0
PADQ 270053Z 30010G15KT 10SM CLR 09/03 A3008 RMK AO2 SLP185 T00940033,PADQ,2019-03-27T00:53:00Z,57.75,-152.5,9.4,3.3,300,10,15,10.0,30.079725,1018.5,,,TRUE,,,,,,,CLR,,,,,,,,VFR,,,,,,,,,,,,METAR,34.0
PAEG 270053Z AUTO VRB05KT 10SM BKN048 08/01 A3004 RMK AO2 SLP181 T00830006 TSNO,PAEG,2019-03-27T00:53:00Z,64.78,-141.15,8.3,0.6,0,5,,10.0,30.041338,1018.1,,TRUE,TRUE,,,TRUE,,,,BKN,4800,,,,,,,VFR,,,,,,,,,,,,METAR,268.0
PAEN 270053Z 29008KT 10SM CLR 07/M02 A3006 RMK AO2 SLP182 T00721017,PAEN,2019-03-27T00:53:00Z,60.57,-151.25,7.2,-1.7,290,8,,10.0,30.059055,1018.2,,,TRUE,,,,,,,CLR,,,,,,,,VFR,,,,,,,,,,,,METAR,27.0
PAFA 270053Z 01003KT 10SM FEW060 BKN110 BKN180 07/00 A3005 RMK AO2 SLP184 T00670000 PNO,PAFA,2019-03-27T00:53:00Z,64.8,-147.85,6.7,0.0,10,3,,10.0,30.050198,1018.4,,,TRUE,,,,,,,FEW,6000,BKN,11000,BKN,18000,,,VFR,,,,,,,,,,,,METAR,132.0
PAGK 270053Z AUTO 28004KT 10SM CLR 10/M05 A3001 RMK AO2 SLP181 T01001050 TSNO,PAGK,2019-03-27T00:53:00Z,62.15,-145.45,10.0,-5.0,280,4,,10.0,30.008858,1018.1,,TRUE,TRUE,,,TRUE,,,,CLR,,,,,,,,VFR,,,,,,,,,,,,METAR,481.0
PAGY 270053Z AUTO 04008KT 10SM OVC080 13/M02 A3005 RMK AO2 SLP174 T01331022 TSNO,PAGY,2019-03-27T00:53:00Z,59.47,-135.3,13.3,-2.2,40,8,,10.0,30.050198,1017.4,,TRUE,TRUE,,,TRUE,,,,OVC,8000,,,,,,,VFR,,,,,,,,,,,,METAR,5.0
PAHO 270053Z 23007KT 10SM CLR 09/01 A3006 RMK AO2 SLP179 T00890006,PAHO,2019-03-27T00:53:00Z,59.63,-151.47,8.9,0.6,230,7,,10.0,30.059055,1017.9,,,TRUE,,,,,,,CLR,,,,,,,,VFR,,,,,,,,,,,,METAR,28.0
PAIL 270053Z 27011KT 10SM SCT017 BKN022 OVC065 07/03 A3016 RMK AO2 SLP215 T00720028,PAIL,2019-03-27T00:53:00Z,59.75,-154.92,7.2,2.8,270,11,,10.0,30.159449,1021.5,,,TRUE,,,,,,,SCT,1700,BKN,2200,OVC,6500,,,MVFR,,,,,,,,,,,,METAR,49.0
PALH 270053Z 32003KT 10SM CLR 07/M01 A3006 RMK AO2 SLP179 T00671011,PALH,2019-03-27T00:53:00Z,61.18,-149.97,6.7,-1.1,320,3,,10.0,30.059055,1017.9,,,TRUE,,,,,,,CLR,,,,,,,,VFR,,,,,,,,,,,,METAR,22.0
PAMC 270053Z AUTO 28006KT 10SM OVC047 04/M02 A3013 RMK AO2 SLP210 T00441017 TSNO,PAMC,2019-03-27T00:53:00Z,62.97,-155.62,4.4,-1.7,280,6,,10.0,30.129921,1021.0,,TRUE,TRUE,,,TRUE,,,,OVC,4700,,,,,,,VFR,,,,,,,,,,,,METAR,103.0
PAMR 270053Z 31006KT 10SM CLR 06/M01 A3005 RMK AO2 SLP177 T00561011,PAMR,2019-03-27T00:53:00Z,61.22,-149.85,5.6,-1.1,310,6,,10.0,30.050198,1017.7,,,TRUE,,,,,,,CLR,,,,,,,,VFR,,,,,,,,,,,,METAR,41.0
PANC 270053Z 32003KT 10SM SCT250 07/02 A3005 RMK AO2 SLP176 T00720022 $,PANC,2019-03-27T00:53:00Z,61.17,-150.0,7.2,2.2,320,3,,10.0,30.050198,1017.6,,,TRUE,TRUE,,,,,,SCT,25000,,,,,,,VFR,,,,,,,,,,,,METAR,38.0
PAKW 270053Z AUTO VRB03KT 10SM SCT055 13/04 A2988 RMK AO2 SLP120 T01280039 TSNO,PAKW,2019-03-27T00:53:00Z,55.58,-133.07,12.8,3.9,0,3,,10.0,29.878937,1012.0,,TRUE,TRUE,,,TRUE,,,,SCT,5500,,,,,,,VFR,,,,,,,,,,,,METAR,15.0
PAKT 270053Z 14006KT 10SM FEW035 10/02 A2996 RMK AO2 SLP146 HARBOR WND 14013KT T01000022,PAKT,2019-03-27T00:53:00Z,55.35,-131.7,10.0,2.2,140,6,,10.0,29.958662,1014.6,,,TRUE,,,,,,,FEW,3500,,,,,,,VFR,,,,,,,,,,,,METAR,28.0
PAJN 270053Z 08010G19KT 10SM FEW080 FEW120 BKN210 13/M01 A2995 RMK AO2 SLP141 T01331011,PAJN,2019-03-27T00:53:00Z,58.35,-134.58,13.3,-1.1,80,10,19,10.0,29.949802,1014.1,,,TRUE,,,,,,,FEW,8000,FEW,12000,BKN,21000,,,VFR,,,,,,,,,,,,METAR,5.0
PANN 270053Z AUTO 08003KT 10SM BKN100 OVC110 08/02 A3004 RMK AO2 SLP179 T00830017 TSNO,PANN,2019-03-27T00:53:00Z,64.55,-149.08,8.3,1.7,80,3,,10.0,30.041338,1017.9,,TRUE,TRUE,,,TRUE,,,,BKN,10000,OVC,11000,,,,,VFR,,,,,,,,,,,,METAR,110.0
PAOM 270053Z 16013KT 6SM BR SCT010 OVC018 M01/M01 A2994 RMK AO2 SLP140 T10061011,PAOM,2019-03-27T00:53:00Z,64.5,-165.43,-0.6,-1.1,160,13,,6.0,29.940945,1014.0,,,TRUE,,,,,,BR,SCT,1000,OVC,1800,,,,,MVFR,,,,,,,,,,,,METAR,11.0
PAPB 270053Z AUTO 10SM FEW025 05/00 A2999 RMK AO2 SLP145 T00500000 TSNO $,PAPB,2019-03-27T00:53:00Z,56.58,-169.67,5.0,0.0,,,,10.0,29.991142,1014.5,,TRUE,TRUE,TRUE,,TRUE,,,,FEW,2500,,,,,,,VFR,,,,,,,,,,,,METAR,35.0
PAQT 270053Z AUTO 19008KT 10SM FEW050 OVC085 M01/M02 A2994 RMK AO2 SLP140 T10111022 TSNO,PAQT,2019-03-27T00:53:00Z,70.22,-151.0,-1.1,-2.2,190,8,,10.0,29.940945,1014.0,,TRUE,TRUE,,,TRUE,,,,FEW,5000,OVC,8500,,,,,VFR,,,,,,,,,,,,METAR,12.0
PASC 270053Z 10009KT 10SM FEW033 OVC090 M05/M08 A2994 RMK AO2 SLP141 T10501078,PASC,2019-03-27T00:53:00Z,70.2,-148.47,-5.0,-7.8,100,9,,10.0,29.940945,1014.1,,,TRUE,,,,,,,FEW,3300,OVC,9000,,,,,VFR,,,,,,,,,,,,METAR,15.0
PASI 270053Z 32003KT 10SM FEW120 BKN250 10/03 A2989 RMK AO2 SLP122 T01000033,PASI,2019-03-27T00:53:00Z,57.07,-135.35,10.0,3.3,320,3,,10.0,29.890747,1012.2,,,TRUE,,,,,,,FEW,12000,BKN,25000,,,,,VFR,,,,,,,,,,,,METAR,5.0
PASN 270053Z AUTO 19024G28KT 9SM FEW045 04/01 A2995 RMK AO2 PK WND 20030/0029 RAE15B33E50SNB21E33 SLP144 P0000 T00440011 TSNO,PASN,2019-03-27T00:53:00Z,57.15,-170.22,4.4,1.1,190,24,28,9.0,29.949802,1014.4,,TRUE,TRUE,,,TRUE,,,,FEW,4500,,,,,,,VFR,,,,,,0.005,,,,,,METAR,29.0
PASO 270053Z AUTO VRB03KT 10SM FEW015 06/02 A3008 RMK AO2 SLP187 T00610017 TSNO,PASO,2019-03-27T00:53:00Z,59.45,-151.7,6.1,1.7,0,3,,10.0,30.079725,1018.7,,TRUE,TRUE,,,TRUE,,,,FEW,1500,,,,,,,VFR,,,,,,,,,,,,METAR,9.0
PATK 270053Z 00000KT 10SM CLR 09/M05 A3002 RMK AO2 SLP170 T00891050,PATK,2019-03-27T00:53:00Z,62.3,-150.1,8.9,-5.0,0,0,,10.0,30.02067,1017.0,,,TRUE,,,,,,,CLR,,,,,,,,VFR,,,,,,,,,,,,METAR,109.0
PATO 270053Z AUTO 28009G19KT 10SM CLR 07/M01 A3004 RMK AO2 SLP173 T00721006 TSNO,PATO,2019-03-27T00:53:00Z,60.78,-148.85,7.2,-0.6,280,9,19,10.0,30.041338,1017.3,,TRUE,TRUE,,,TRUE,,,,CLR,,,,,,,,VFR,,,,,,,,,,,,METAR,31.0
PAWD 270053Z AUTO 36016G24KT 10SM CLR 11/M01 A2998 RMK AO2 PK WND 33031/0028 SLP151 T01111006 TSNO,PAWD,2019-03-27T00:53:00Z,60.12,-149.42,11.1,-0.6,360,16,24,10.0,29.97933,1015.1,,TRUE,TRUE,,,TRUE,,,,CLR,,,,,,,,VFR,,,,,,,,,,,,METAR,23.0
PAWI 270053Z AUTO 17010KT 10SM CLR 01/M02 A2980 RMK AO2 SLP091 T00061022 TSNO,PAWI,2019-03-27T00:53:00Z,70.62,-159.85,0.6,-2.2,170,10,,10.0,29.799213,1009.1,,TRUE,TRUE,,,TRUE,,,,CLR,,,,,,,,VFR,,,,,,,,,,,,METAR,27.0
PAYA 270053Z AUTO 09013G20KT 10SM CLR 14/M04 A2996 RMK AO2 SLP146 T01441044 PWINO TSNO $,PAYA,2019-03-27T00:53:00Z,59.52,-139.67,14.4,-4.4,90,13,20,10.0,29.958662,1014.6,,TRUE,TRUE,TRUE,,TRUE,,TRUE,,CLR,,,,,,,,VFR,,,,,,,,,,,,METAR,11.0
PHJR 270053Z 13008G15KT 090V160 10SM FEW048 BKN060 BKN075 26/17 A2999 RMK AO2 SLP161 T02560172,PHJR,2019-03-27T00:53:00Z,21.32,-158.07,25.6,17.2,130,8,15,10.0,29.991142,1016.1,,,TRUE,,,,,,,FEW,4800,BKN,6000,BKN,7500,,,VFR,,,,,,,,,,,,METAR,15.0
PHNL 270053Z 07013G17KT 10SM FEW031 SCT044 BKN065 28/16 A2997 RMK AO2 SLP149 T02830156,PHNL,2019-03-27T00:53:00Z,21.33,-157.92,28.3,15.6,70,13,17,10.0,29.970472,1014.9,,,TRUE,,,,,,,FEW,3100,SCT,4400,BKN,6500,,,VFR,,,,,,,,,,,,METAR,4.0
KAAF 270053Z AUTO 33006KT 10SM CLR 17/09 A3005 RMK AO2 SLP175 T01720089,KAAF,2019-03-27T00:53:00Z,29.73,-85.03,17.2,8.9,330,6,,10.0,30.050198,1017.5,,TRUE,TRUE,,,,,,,CLR,,,,,,,,VFR,,,,,,,,,,,,METAR,5.0
KABR 270053Z AUTO 10005KT 6SM BR CLR 03/02 A2997 RMK AO2 SLP161 T00330017,KABR,2019-03-27T00:53:00Z,45.45,-98.42,3.3,1.7,100,5,,6.0,29.970472,1016.1,,TRUE,TRUE,,,,,,BR,CLR,,,,,,,,VFR,,,,,,,,,,,,METAR,397.0
KABY 270053Z AUTO 32009KT 10SM BKN050 OVC060 18/09 A3009 RMK AO2 SLP188 T01830089,KABY,2019-03-27T00:53:00Z,31.53,-84.2,18.3,8.9,320,9,,10.0,30.088583,1018.8,,TRUE,TRUE,,,,,,,BKN,5000,OVC,6000,,,,,VFR,,,,,,,,,,,,METAR,58.0
KACK 270053Z 02010KT 10SM CLR M01/M09 A3029 RMK AO2 SLP257 T10061094,KACK,2019-03-27T00:53:00Z,41.25,-70.07,-0.6,-9.4,20,10,,10.0,30.28937,1025.7,,,TRUE,,,,,,,CLR,,,,,,,,VFR,,,,,,,,,,,,METAR,16.0
KACV 270053Z AUTO 33005KT 10SM CLR 12/07 A2992 RMK AO2 SLP139 T01220072,KACV,2019-03-27T00:53:00Z,40.98,-124.1,12.2,7.2,330,5,,10.0,29.920275,1013.9,,TRUE,TRUE,,,,,,,CLR,,,,,,,,VFR,,,,,,,,,,,,METAR,67.0
KAEX 270053Z 02005KT 10SM CLR 16/04 A3024 RMK AO2 SLP244 T01610044,KAEX,2019-03-27T00:53:00Z,31.33,-92.57,16.1,4.4,20,5,,10.0,30.239174,1024.4,,,TRUE,,,,,,,CLR,,,,,,,,VFR,,,,,,,,,,,,METAR,27.0
KAFW 270053Z 05005KT 10SM SCT300 19/06 A3025 RMK AO2 SLP242 T01890061,KAFW,2019-03-27T00:53:00Z,32.97,-97.32,18.9,6.1,50,5,,10.0,30.250984,1024.2,,,TRUE,,,,,,,SCT,30000,,,,,,,VFR,,,,,,,,,,,,METAR,233.0
KAGC 270053Z 34005KT 10SM CLR 04/M13 A3032 RMK AO2 SLP286 T00441128,KAGC,2019-03-27T00:53:00Z,40.35,-79.92,4.4,-12.8,340,5,,10.0,30.318897,1028.6,,,TRUE,,,,,,,CLR,,,,,,,,VFR,,,,,,,,,,,,METAR,389.0
PAOT 270053Z 17018KT 10SM FEW028 BKN036 OVC050 02/M01 A2994 RMK AO2 PK WND 17026/0024 SLP137 T00221011,PAOT,2019-03-27T00:53:00Z,66.87,-162.58,2.2,-1.1,170,18,,10.0,29.940945,1013.7,,,TRUE,,,,,,,FEW,2800,BKN,3600,OVC,5000,,,VFR,,,,,,,,,,,,METAR,3.0
PAOR 270053Z 18004KT 10SM FEW050 FEW100 SCT170 07/M02 A3004 RMK AO2 SLP194 T00721017,PAOR,2019-03-27T00:53:00Z,62.97,-141.93,7.2,-1.7,180,4,,10.0,30.041338,1019.4,,,TRUE,,,,,,,FEW,5000,FEW,10000,SCT,17000,,,VFR,,,,,,,,,,,,METAR,523.0
KAGS 270053Z 06012KT 10SM BKN100 14/07 A3016 RMK AO2 SLP213 T01440067,KAGS,2019-03-27T00:53:00Z,33.37,-81.97,14.4,6.7,60,12,,10.0,30.159449,1021.3,,,TRUE,,,,,,,BKN,10000,,,,,,,VFR,,,,,,,,,,,,METAR,44.0
KAKO 270053Z AUTO 16008KT 10SM CLR 14/02 A3001 RMK AO2 SLP151 T01390017,KAKO,2019-03-27T00:53:00Z,40.17,-103.22,13.9,1.7,160,8,,10.0,30.008858,1015.1,,TRUE,TRUE,,,,,,,CLR,,,,,,,,VFR,,,,,,,,,,,,METAR,1421.0
KAIA 270053Z AUTO 16009KT 10SM CLR 12/00 A2995 RMK AO2 SLP148 T01170000,KAIA,2019-03-27T00:53:00Z,42.05,-102.8,11.7,0.0,160,9,,10.0,29.949802,1014.8,,TRUE,TRUE,,,,,,,CLR,,,,,,,,VFR,,,,,,,,,,,,METAR,1196.0
KAMA 270053Z 17013KT 10SM CLR 17/07 A3017 RMK AO2 SLP197 T01670072,KAMA,2019-03-27T00:53:00Z,35.22,-101.72,16.7,7.2,170,13,,10.0,30.171259,1019.7,,,TRUE,,,,,,,CLR,,,,,,,,VFR,,,,,,,,,,,,METAR,1093.0
KALW 270053Z 36004KT 10SM CLR 14/M02 A2998 RMK AO2 SLP154 T01391017,KALW,2019-03-27T00:53:00Z,46.1,-118.28,13.9,-1.7,360,4,,10.0,29.97933,1015.4,,,TRUE,,,,,,,CLR,,,,,,,,VFR,,,,,,,,,,,,METAR,363.0
KAMW 270053Z AUTO 16007KT 10SM BKN050 OVC065 10/03 A3024 RMK AO2 SLP245 T01000033,KAMW,2019-03-27T00:53:00Z,41.98,-93.62,10.0,3.3,160,7,,10.0,30.239174,1024.5,,TRUE,TRUE,,,,,,,BKN,5000,OVC,6500,,,,,VFR,,,,,,,,,,,,METAR,279.0
KAMG 270053Z AUTO 06008G16KT 10SM OVC017 16/11 A3010 RMK AO2 SLP191 T01610111 $,KAMG,2019-03-27T00:53:00Z,31.53,-82.5,16.1,11.1,60,8,16,10.0,30.100393,1019.1,,TRUE,TRUE,TRUE,,,,,,OVC,1700,,,,,,,MVFR,,,,,,,,,,,,METAR,59.0
KANB 270053Z AUTO 00000KT 10SM FEW060 11/07 A3017 RMK AO2 SLP220 T01060072,KANB,2019-03-27T00:53:00Z,33.58,-85.85,10.6,7.2,0,0,,10.0,30.171259,1022.0,,TRUE,TRUE,,,,,,,FEW,6000,,,,,,,VFR,,,,,,,,,,,,METAR,183.0
KAOH 270053Z AUTO 06006KT 10SM CLR 02/M08 A3039 RMK AO2 SLP300 T00171078,KAOH,2019-03-27T00:53:00Z,40.7,-84.02,1.7,-7.8,60,6,,10.0,30.389763,1030.0,,TRUE,TRUE,,,,,,,CLR,,,,,,,,VFR,,,,,,,,,,,,METAR,296.0
KAOO 270053Z AUTO 00000KT 10SM CLR 03/M12 A3031 RMK AO2 SLP278 T00331122,KAOO,2019-03-27T00:53:00Z,40.3,-78.32,3.3,-12.2,0,0,,10.0,30.31004,1027.8,,TRUE,TRUE,,,,,,,CLR,,,,,,,,VFR,,,,,,,,,,,,METAR,455.0
KAPA 270053Z 33007KT 10SM SCT140 BKN220 18/M06 A3000 RMK AO2 SLP132 T01781056,KAPA,2019-03-27T00:53:00Z,39.57,-104.85,17.8,-5.6,330,7,,10.0,30.0,1013.2,,,TRUE,,,,,,,SCT,14000,BKN,22000,,,,,VFR,,,,,,,,,,,,METAR,1775.0
KAPF 270053Z 30008KT 10SM CLR 22/18 A3001 RMK AO2 SLP160 T02220183 $,KAPF,2019-03-27T00:53:00Z,26.15,-81.77,22.2,18.3,300,8,,10.0,30.008858,1016.0,,,TRUE,TRUE,,,,,,CLR,,,,,,,,VFR,,,,,,,,,,,,METAR,3.0
KASD 270053Z AUTO 35008KT 10SM CLR 17/06 A3020 RMK AO2 SLP225 T01720061,KASD,2019-03-27T00:53:00Z,30.35,-89.82,17.2,6.1,350,8,,10.0,30.200787,1022.5,,TRUE,TRUE,,,,,,,CLR,,,,,,,,VFR,,,,,,,,,,,,METAR,9.0
KARA 270053Z 01009KT 10SM CLR 16/07 A3023 RMK AO2 SLP235 T01610067,KARA,2019-03-27T00:53:00Z,30.03,-91.88,16.1,6.7,10,9,,10.0,30.230314,1023.5,,,TRUE,,,,,,,CLR,,,,,,,,VFR,,,,,,,,,,,,METAR,18.0
KATY 270053Z AUTO 15010KT 6SM BR CLR 06/04 A3002 RMK AO2 SLP181 T00610039,KATY,2019-03-27T00:53:00Z,44.9,-97.15,6.1,3.9,150,10,,6.0,30.02067,1018.1,,TRUE,TRUE,,,,,,BR,CLR,,,,,,,,VFR,,,,,,,,,,,,METAR,532.0
KASX 270053Z AUTO 19007KT 10SM SCT070 04/M05 A3021 RMK AO2 SLP242 T00441050,KASX,2019-03-27T00:53:00Z,46.55,-90.92,4.4,-5.0,190,7,,10.0,30.209646,1024.2,,TRUE,TRUE,,,,,,,SCT,7000,,,,,,,VFR,,,,,,,,,,,,METAR,251.0
KASE 270053Z 18010KT 10SM CLR 12/M08 A3013 RMK AO2 SLP155 T01171078,KASE,2019-03-27T00:53:00Z,39.23,-106.87,11.7,-7.8,180,10,,10.0,30.129921,1015.5,,,TRUE,,,,,,,CLR,,,,,,,,VFR,,,,,,,,,,,,METAR,2354.0
KAUG 270053Z AUTO 32010KT 10SM CLR M02/M16 A3031 RMK AO2 SLP270 T10171161,KAUG,2019-03-27T00:53:00Z,44.32,-69.8,-1.7,-16.1,320,10,,10.0,30.31004,1027.0,,TRUE,TRUE,,,,,,,CLR,,,,,,,,VFR,,,,,,,,,,,,METAR,109.0
KAUS 270053Z 04007KT 10SM SCT250 20/09 A3022 RMK AO2 SLP232 T02000094 $,KAUS,2019-03-27T00:53:00Z,30.18,-97.68,20.0,9.4,40,7,,10.0,30.221457,1023.2,,,TRUE,TRUE,,,,,,SCT,25000,,,,,,,VFR,,,,,,,,,,,,METAR,166.0
KAXN 270053Z AUTO 16008KT 10SM OVC016 06/02 A3010 RMK AO2 SLP210 T00610017,KAXN,2019-03-27T00:53:00Z,45.87,-95.4,6.1,1.7,160,8,,10.0,30.100393,1021.0,,TRUE,TRUE,,,,,,,OVC,1600,,,,,,,MVFR,,,,,,,,,,,,METAR,433.0
KAZO 270053Z AUTO 00000KT 10SM CLR 05/M14 A3038 RMK AO2 SLP296 T00501139,KAZO,2019-03-27T00:53:00Z,42.23,-85.55,5.0,-13.9,0,0,,10.0,30.380905,1029.6,,TRUE,TRUE,,,,,,,CLR,,,,,,,,VFR,,,,,,,,,,,,METAR,272.0
KBYG 270053Z AUTO 34004KT 10SM CLR 14/M07 A2988 RMK AO2 SLP100 T01391072,KBYG,2019-03-27T00:53:00Z,44.38,-106.72,13.9,-7.2,340,4,,10.0,29.878937,1010.0,,TRUE,TRUE,,,,,,,CLR,,,,,,,,VFR,,,,,,,,,,,,METAR,1497.0
KBWG 270053Z AUTO 01004KT 10SM CLR 09/M09 A3032 RMK AO2 SLP270 T00891089,KBWG,2019-03-27T00:53:00Z,36.97,-86.42,8.9,-8.9,10,4,,10.0,30.318897,1027.0,,TRUE,TRUE,,,,,,,CLR,,,,,,,,VFR,,,,,,,,,,,,METAR,168.0
KCAG 270053Z AUTO 10003KT 10SM CLR 07/M02 A3007 RMK AO2 SLP206 T00671017,KCAG,2019-03-27T00:53:00Z,40.5,-107.52,6.7,-1.7,100,3,,10.0,30.070866,1020.6,,TRUE,TRUE,,,,,,,CLR,,,,,,,,VFR,,,,,,,,,,,,METAR,1887.0
KALI 270053Z AUTO 12009KT 10SM CLR 20/12 A3021 RMK AO2 SLP227 T02000117,KALI,2019-03-27T00:53:00Z,27.73,-98.02,20.0,11.7,120,9,,10.0,30.209646,1022.7,,TRUE,TRUE,,,,,,,CLR,,,,,,,,VFR,,,,,,,,,,,,METAR,53.0
KCCR 270053Z 01007KT 10SM OVC085 17/08 A2993 RMK AO2 SLP121 T01720078,KCCR,2019-03-27T00:53:00Z,38.0,-122.05,17.2,7.8,10,7,,10.0,29.929134,1012.1,,,TRUE,,,,,,,OVC,8500,,,,,,,VFR,,,,,,,,,,,,METAR,11.0
KCDR 270053Z AUTO 20009KT 10SM CLR 13/M01 A2989 RMK AO2 SLP137 T01281011,KCDR,2019-03-27T00:53:00Z,42.83,-103.1,12.8,-1.1,200,9,,10.0,29.890747,1013.7,,TRUE,TRUE,,,,,,,CLR,,,,,,,,VFR,,,,,,,,,,,,METAR,1010.0
KCDS 270053Z AUTO 15010KT 10SM CLR 18/06 A3022 RMK AO2 SLP228 T01830056,KCDS,2019-03-27T00:53:00Z,34.43,-100.28,18.3,5.6,150,10,,10.0,30.221457,1022.8,,TRUE,TRUE,,,,,,,CLR,,,,,,,,VFR,,,,,,,,,,,,METAR,594.0
KCDW 270053Z 10SM CLR 05/M17 A3035 RMK AO2 SLP283 T00501172,KCDW,2019-03-27T00:53:00Z,40.88,-74.28,5.0,-17.2,,,,10.0,30.351377,1028.3,,,TRUE,,,,,,,CLR,,,,,,,,VFR,,,,,,,,,,,,METAR,64.0
KCEZ 270053Z AUTO 12003KT 10SM CLR 17/M04 A3008 RMK AO2 SLP152 T01671039,KCEZ,2019-03-27T00:53:00Z,37.3,-108.63,16.7,-3.9,120,3,,10.0,30.079725,1015.2,,TRUE,TRUE,,,,,,,CLR,,,,,,,,VFR,,,,,,,,,,,,METAR,1797.0
KCEW 270053Z AUTO 35003KT 10SM CLR 12/07 A3017 RMK AO2 SLP214 T01170067,KCEW,2019-03-27T00:53:00Z,30.78,-86.52,11.7,6.7,350,3,,10.0,30.171259,1021.4,,TRUE,TRUE,,,,,,,CLR,,,,,,,,VFR,,,,,,,,,,,,METAR,55.0
KCGI 270053Z AUTO 03006KT 10SM CLR 08/M04 A3036 RMK AO2 SLP280 T00781039,KCGI,2019-03-27T00:53:00Z,37.23,-89.58,7.8,-3.9,30,6,,10.0,30.360237,1028.0,,TRUE,TRUE,,,,,,,CLR,,,,,,,,VFR,,,,,,,,,,,,METAR,102.0
KCHO 270053Z 07005KT 10SM CLR 07/M12 A3032 RMK AO2 SLP268 T00671122,KCHO,2019-03-27T00:53:00Z,38.13,-78.45,6.7,-12.2,70,5,,10.0,30.318897,1026.8,,,TRUE,,,,,,,CLR,,,,,,,,VFR,,,,,,,,,,,,METAR,192.0
KCHA 270053Z 01007KT 10SM FEW040 FEW250 13/05 A3021 RMK AO2 SLP227 T01280050,KCHA,2019-03-27T00:53:00Z,35.03,-85.2,12.8,5.0,10,7,,10.0,30.209646,1022.7,,,TRUE,,,,,,,FEW,4000,FEW,25000,,,,,VFR,,,,,,,,,,,,METAR,210.0
KCRG 270053Z 05014G19KT 10SM SCT016 OVC023 17/14 A3006 RMK AO2 SLP178 T01720144,KCRG,2019-03-27T00:53:00Z,30.33,-81.52,17.2,14.4,50,14,19,10.0,30.059055,1017.8,,,TRUE,,,,,,,SCT,1600,OVC,2300,,,,,MVFR,,,,,,,,,,,,METAR,13.0
KCRQ 270053Z 26005KT 10SM CLR 16/12 A2996 RMK AO2 SLP144 T01610117,KCRQ,2019-03-27T00:53:00Z,33.13,-117.28,16.1,11.7,260,5,,10.0,29.958662,1014.4,,,TRUE,,,,,,,CLR,,,,,,,,VFR,,,,,,,,,,,,METAR,99.0
KCSM 270053Z 17009KT 10SM FEW070 14/08 A3023 RMK AO2 SLP234 T01390083,KCSM,2019-03-27T00:53:00Z,35.35,-99.2,13.9,8.3,170,9,,10.0,30.230314,1023.4,,,TRUE,,,,,,,FEW,7000,,,,,,,VFR,,,,,,,,,,,,METAR,588.0
KCRS 270053Z AUTO 00000KT 10SM CLR 18/08 A3027 RMK AO2 SLP249 T01780083,KCRS,2019-03-27T00:53:00Z,32.03,-96.4,17.8,8.3,0,0,,10.0,30.268702,1024.9,,TRUE,TRUE,,,,,,,CLR,,,,,,,,VFR,,,,,,,,,,,,METAR,133.0
KCSV 270053Z AUTO 36007KT 10SM CLR 07/M04 A3024 RMK AO2 SLP244 T00721044,KCSV,2019-03-27T00:53:00Z,35.95,-85.08,7.2,-4.4,360,7,,10.0,30.239174,1024.4,,TRUE,TRUE,,,,,,,CLR,,,,,,,,VFR,,,,,,,,,,,,METAR,570.0
KCUB 270053Z AUTO 07004KT 10SM OVC075 13/04 A3023 RMK AO2 SLP234 T01330044,KCUB,2019-03-27T00:53:00Z,33.97,-81.0,13.3,4.4,70,4,,10.0,30.230314,1023.4,,TRUE,TRUE,,,,,,,OVC,7500,,,,,,,VFR,,,,,,,,,,,,METAR,56.0
KCUT 270053Z AUTO 22003KT 10SM CLR 10/M07 A2993 RMK AO2 SLP127 T01001072,KCUT,2019-03-27T00:53:00Z,43.73,-103.62,10.0,-7.2,220,3,,10.0,29.929134,1012.7,,TRUE,TRUE,,,,,,,CLR,,,,,,,,VFR,,,,,,,,,,,,METAR,1725.0
KCXO 270053Z 06003KT 10SM CLR 18/11 A3024 RMK AO2 SLP236 T01830111,KCXO,2019-03-27T00:53:00Z,30.35,-95.42,18.3,11.1,60,3,,10.0,30.239174,1023.6,,,TRUE,,,,,,,CLR,,,,,,,,VFR,,,,,,,,,,,,METAR,75.0
KBBW 270053Z AUTO 18013KT 10SM CLR 16/07 A3003 RMK AO2 SLP174 T01610072,KBBW,2019-03-27T00:53:00Z,41.43,-99.63,16.1,7.2,180,13,,10.0,30.029528,1017.4,,TRUE,TRUE,,,,,,,CLR,,,,,,,,VFR,,,,,,,,,,,,METAR,776.0
KBCE 270053Z AUTO 25003KT 10SM CLR 06/M04 A3014 RMK AO2 SLP177 T00561039,KBCE,2019-03-27T00:53:00Z,37.7,-112.15,5.6,-3.9,250,3,,10.0,30.138779,1017.7,,TRUE,TRUE,,,,,,,CLR,,,,,,,,VFR,,,,,,,,,,,,METAR,2312.0
KBDE 270053Z AUTO 18008KT 10SM OVC025 03/M03 A3002 RMK AO2 SLP184 T00331028,KBDE,2019-03-27T00:53:00Z,48.73,-94.62,3.3,-2.8,180,8,,10.0,30.02067,1018.4,,TRUE,TRUE,,,,,,,OVC,2500,,,,,,,MVFR,,,,,,,,,,,,METAR,329.0
KCRE 270053Z AUTO 03005KT 10SM CLR 10/03 A3022 RMK AO1 SLP233 T01000033,KCRE,2019-03-27T00:53:00Z,33.82,-78.72,10.0,3.3,30,5,,10.0,30.221457,1023.3,,TRUE,TRUE,,,,,,,CLR,,,,,,,,VFR,,,,,,,,,,,,METAR,10.0
KCPS 270053Z 10005KT 10SM CLR 08/M02 A3035 RMK AO2 SLP280 T00781022 $,KCPS,2019-03-27T00:53:00Z,38.57,-90.15,7.8,-2.2,100,5,,10.0,30.351377,1028.0,,,TRUE,TRUE,,,,,,CLR,,,,,,,,VFR,,,,,,,,,,,,METAR,126.0
KCPR 270053Z 22015KT 10SM CLR 11/M02 A2994 RMK AO2 SLP122 T01111017,KCPR,2019-03-27T00:53:00Z,42.9,-106.47,11.1,-1.7,220,15,,10.0,29.940945,1012.2,,,TRUE,,,,,,,CLR,,,,,,,,VFR,,,,,,,,,,,,METAR,1621.0
KCOT 270053Z AUTO 14010KT 10SM SCT060 24/13 A3016 RMK AO2 SLP208 T02390133,KCOT,2019-03-27T00:53:00Z,28.45,-99.22,23.9,13.3,140,10,,10.0,30.159449,1020.8,,TRUE,TRUE,,,,,,,SCT,6000,,,,,,,VFR,,,,,,,,,,,,METAR,140.0
KCNY 270053Z AUTO 33005KT 10SM CLR 16/01 A2999 RMK AO2 SLP137 T01560006,KCNY,2019-03-27T00:53:00Z,38.77,-109.75,15.6,0.6,330,5,,10.0,29.991142,1013.7,,TRUE,TRUE,,,,,,,CLR,,,,,,,,VFR,,,,,,,,,,,,METAR,1390.0
KCNO 270053Z 26012KT 10SM BKN250 19/07 A2995 RMK AO2 SLP140 T01890072,KCNO,2019-03-27T00:53:00Z,33.98,-117.62,18.9,7.2,260,12,,10.0,29.949802,1014.0,,,TRUE,,,,,,,BKN,25000,,,,,,,VFR,,,,,,,,,,,,METAR,207.0
KCNM 270053Z AUTO 12014G19KT 10SM CLR 22/09 A3010 RMK AO2 SLP154 T02220094,KCNM,2019-03-27T00:53:00Z,32.33,-104.25,22.2,9.4,120,14,19,10.0,30.100393,1015.4,,TRUE,TRUE,,,,,,,CLR,,,,,,,,VFR,,,,,,,,,,,,METAR,985.0
KCMX 270053Z AUTO 07004KT 10SM CLR M01/M10 A3018 RMK AO2 SLP237 T10061100,KCMX,2019-03-27T00:53:00Z,47.17,-88.48,-0.6,-10.0,70,4,,10.0,30.180119,1023.7,,TRUE,TRUE,,,,,,,CLR,,,,,,,,VFR,,,,,,,,,,,,METAR,326.0
KCMI 270053Z 07004KT 10SM CLR 05/M08 A3037 RMK AO2 SLP290 T00501083,KCMI,2019-03-27T00:53:00Z,40.03,-88.27,5.0,-8.3,70,4,,10.0,30.369095,1029.0,,,TRUE,,,,,,,CLR,,,,,,,,VFR,,,,,,,,,,,,METAR,228.0
KCLM 270053Z AUTO VRB04KT 10SM CLR 11/02 A3005 RMK AO2 SLP176 T01110017,KCLM,2019-03-27T00:53:00Z,48.12,-123.5,11.1,1.7,0,4,,10.0,30.050198,1017.6,,TRUE,TRUE,,,,,,,CLR,,,,,,,,VFR,,,,,,,,,,,,METAR,85.0
KCLL 270053Z 01005KT 10SM CLR 19/11 A3023 RMK AO2 SLP235 T01890106,KCLL,2019-03-27T00:53:00Z,30.58,-96.37,18.9,10.6,10,5,,10.0,30.230314,1023.5,,,TRUE,,,,,,,CLR,,,,,,,,VFR,,,,,,,,,,,,METAR,96.0
KCKB 270053Z AUTO 04005KT 10SM CLR 04/M11 A3033 RMK AO2 SLP274 T00441106,KCKB,2019-03-27T00:53:00Z,39.3,-80.22,4.4,-10.6,40,5,,10.0,30.33071,1027.4,,TRUE,TRUE,,,,,,,CLR,,,,,,,,VFR,,,,,,,,,,,,METAR,360.0
KBFD 270053Z AUTO 35004KT 10SM CLR M02/M14 A3032 RMK AO2 SLP291 T10171144 $,KBFD,2019-03-27T00:53:00Z,41.8,-78.63,-1.7,-14.4,350,4,,10.0,30.318897,1029.1,,TRUE,TRUE,TRUE,,,,,,CLR,,,,,,,,VFR,,,,,,,,,,,,METAR,647.0
KBFF 270053Z AUTO 14004KT 10SM CLR 17/00 A2995 RMK AO2 SLP135 T01670000,KBFF,2019-03-27T00:53:00Z,41.87,-103.58,16.7,0.0,140,4,,10.0,29.949802,1013.5,,TRUE,TRUE,,,,,,,CLR,,,,,,,,VFR,,,,,,,,,,,,METAR,1203.0
KBFI 270053Z VRB05KT 10SM CLR 14/M01 A3002 RMK AO2 SLP165 T01441011,KBFI,2019-03-27T00:53:00Z,47.55,-122.32,14.4,-1.1,0,5,,10.0,30.02067,1016.5,,,TRUE,,,,,,,CLR,,,,,,,,VFR,,,,,,,,,,,,METAR,4.0
KBFM 270053Z 31004KT 10SM SCT048 12/08 A3020 RMK AO2 SLP227 T01220078,KBFM,2019-03-27T00:53:00Z,30.62,-88.07,12.2,7.8,310,4,,10.0,30.200787,1022.7,,,TRUE,,,,,,,SCT,4800,,,,,,,VFR,,,,,,,,,,,,METAR,20.0
KBGM 270053Z 34008KT 10SM CLR M02/M17 A3034 RMK AO2 SLP295 T10221172,KBGM,2019-03-27T00:53:00Z,42.22,-75.98,-2.2,-17.2,340,8,,10.0,30.339567,1029.5,,,TRUE,,,,,,,CLR,,,,,,,,VFR,,,,,,,,,,,,METAR,490.0
KBGR 270053Z 32013G19KT 10SM CLR M02/M16 A3030 RMK AO2 SLP264 T10221156,KBGR,2019-03-27T00:53:00Z,44.8,-68.82,-2.2,-15.6,320,13,19,10.0,30.301182,1026.4,,,TRUE,,,,,,,CLR,,,,,,,,VFR,,,,,,,,,,,,METAR,57.0
KBHM 270053Z 35007KT 10SM CLR 12/03 A3021 RMK AO2 SLP229 T01170028,KBHM,2019-03-27T00:53:00Z,33.57,-86.75,11.7,2.8,350,7,,10.0,30.209646,1022.9,,,TRUE,,,,,,,CLR,,,,,,,,VFR,,,,,,,,,,,,METAR,197.0
KBIL 270053Z 31009KT 10SM SCT130 BKN240 16/M02 A2982 RMK AO2 SLP088 T01611022,KBIL,2019-03-27T00:53:00Z,45.8,-108.55,16.1,-2.2,310,9,,10.0,29.819881,1008.8,,,TRUE,,,,,,,SCT,13000,BKN,24000,,,,,VFR,,,,,,,,,,,,METAR,1091.0
KBIV 270053Z AUTO 00000KT 10SM CLR 02/M11 A3040 RMK AO2 SLP301 T00171111,KBIV,2019-03-27T00:53:00Z,42.75,-86.1,1.7,-11.1,0,0,,10.0,30.398623,1030.1,,TRUE,TRUE,,,,,,,CLR,,,,,,,,VFR,,,,,,,,,,,,METAR,208.0
KBKE 270053Z AUTO 07012KT 10SM SCT049 SCT060 BKN120 11/03 A2995 RMK AO2 SLP144 T01110028,KBKE,2019-03-27T00:53:00Z,44.85,-117.82,11.1,2.8,70,12,,10.0,29.949802,1014.4,,TRUE,TRUE,,,,,,,SCT,4900,SCT,6000,BKN,12000,,,VFR,,,,,,,,,,,,METAR,1024.0
KBKL 270053Z 06005KT 10SM CLR 01/M07 A3041 RMK AO2 SLP303 T00111067,KBKL,2019-03-27T00:53:00Z,41.53,-81.67,1.1,-6.7,60,5,,10.0,30.410433,1030.3,,,TRUE,,,,,,,CLR,,,,,,,,VFR,,,,,,,,,,,,METAR,184.0
KBKV 270053Z 26004KT 10SM CLR 16/15 A3002 RMK AO2 SLP166 T01610150,KBKV,2019-03-27T00:53:00Z,28.47,-82.45,16.1,15.0,260,4,,10.0,30.02067,1016.6,,,TRUE,,,,,,,CLR,,,,,,,,VFR,,,,,,,,,,,,METAR,20.0
KBLI 270053Z 23004KT 10SM CLR 13/00 A3004 RMK AO2 SLP180 T01330000,KBLI,2019-03-27T00:53:00Z,48.8,-122.53,13.3,0.0,230,4,,10.0,30.041338,1018.0,,,TRUE,,,,,,,CLR,,,,,,,,VFR,,,,,,,,,,,,METAR,50.0
KBMG 270053Z 04004KT 10SM CLR 06/M05 A3036 RMK AO2 SLP285 T00561050,KBMG,2019-03-27T00:53:00Z,39.15,-86.62,5.6,-5.0,40,4,,10.0,30.360237,1028.5,,,TRUE,,,,,,,CLR,,,,,,,,VFR,,,,,,,,,,,,METAR,257.0
KBMQ 270053Z AUTO 09005KT 10SM CLR 20/09 A3026 RMK AO2 SLP240 T02000089,KBMQ,2019-03-27T00:53:00Z,30.73,-98.23,20.0,8.9,90,5,,10.0,30.259842,1024.0,,TRUE,TRUE,,,,,,,CLR,,,,,,,,VFR,,,,,,,,,,,,METAR,389.0
KBNA 270053Z 01008KT 10SM CLR 09/M08 A3030 RMK AO2 SLP261 T00941078,KBNA,2019-03-27T00:53:00Z,36.12,-86.68,9.4,-7.8,10,8,,10.0,30.301182,1026.1,,,TRUE,,,,,,,CLR,,,,,,,,VFR,,,,,,,,,,,,METAR,210.0
KBNO 270053Z AUTO 05007KT 10SM CLR 09/01 A2994 RMK AO2 SLP141 T00890006,KBNO,2019-03-27T00:53:00Z,43.6,-118.95,8.9,0.6,50,7,,10.0,29.940945,1014.1,,TRUE,TRUE,,,,,,,CLR,,,,,,,,VFR,,,,,,,,,,,,METAR,1264.0
KBOI 270053Z 00000KT 10SM FEW044 BKN075 OVC090 11/07 A2996 RMK AO2 RAE34 SLP143 P0002 T01060067,KBOI,2019-03-27T00:53:00Z,43.57,-116.23,10.6,6.7,0,0,,10.0,29.958662,1014.3,,,TRUE,,,,,,,FEW,4400,BKN,7500,OVC,9000,,,VFR,,,,,,0.02,,,,,,METAR,875.0
KBPI 270053Z AUTO 06006KT 10SM CLR 05/M03 A3006 RMK AO2 SLP188 T00501028,KBPI,2019-03-27T00:53:00Z,42.58,-110.1,5.0,-2.8,60,6,,10.0,30.059055,1018.8,,TRUE,TRUE,,,,,,,CLR,,,,,,,,VFR,,,,,,,,,,,,METAR,2117.0
KBPK 270053Z AUTO 07003KT 10SM CLR 13/01 A3029 RMK AO2 SLP259 T01280011,KBPK,2019-03-27T00:53:00Z,36.37,-92.47,12.8,1.1,70,3,,10.0,30.28937,1025.9,,TRUE,TRUE,,,,,,,CLR,,,,,,,,VFR,,,,,,,,,,,,METAR,280.0
KBRD 270053Z AUTO 15005KT 10SM BKN031 OVC042 06/M01 A3013 RMK AO2 SLP220 T00561006,KBRD,2019-03-27T00:53:00Z,46.4,-94.13,5.6,-0.6,150,5,,10.0,30.129921,1022.0,,TRUE,TRUE,,,,,,,BKN,3100,OVC,4200,,,,,VFR,,,,,,,,,,,,METAR,372.0
KBPT 270053Z 36010KT 10SM FU CLR 20/09 A3023 RMK AO2 SLP235 T02000089,KBPT,2019-03-27T00:53:00Z,29.95,-94.03,20.0,8.9,360,10,,10.0,30.230314,1023.5,,,TRUE,,,,,,FU,CLR,,,,,,,,VFR,,,,,,,,,,,,METAR,5.0
KBRL 270053Z AUTO 00000KT 10SM CLR 07/M06 A3034 RMK AO2 SLP279 T00671061,KBRL,2019-03-27T00:53:00Z,40.77,-91.13,6.7,-6.1,0,0,,10.0,30.339567,1027.9,,TRUE,TRUE,,,,,,,CLR,,,,,,,,VFR,,,,,,,,,,,,METAR,211.0
KBRO 270053Z 07007KT 10SM OVC055 22/21 A3020 RMK AO2 SLP225 T02170206,KBRO,2019-03-27T00:53:00Z,25.92,-97.42,21.7,20.6,70,7,,10.0,30.200787,1022.5,,,TRUE,,,,,,,OVC,5500,,,,,,,VFR,,,,,,,,,,,,METAR,7.0
KBTL 270053Z 00000KT 10SM CLR 05/M14 A3038 RMK AO2 SLP297 T00501139,KBTL,2019-03-27T00:53:00Z,42.32,-85.23,5.0,-13.9,0,0,,10.0,30.380905,1029.7,,,TRUE,,,,,,,CLR,,,,,,,,VFR,,,,,,,,,,,,METAR,290.0
KBTM 270053Z AUTO 05004KT 10SM SCT060 BKN070 BKN110 04/M01 A2997 RMK AO2 SLP162 T00391011,KBTM,2019-03-27T00:53:00Z,45.97,-112.5,3.9,-1.1,50,4,,10.0,29.970472,1016.2,,TRUE,TRUE,,,,,,,SCT,6000,BKN,7000,BKN,11000,,,VFR,,,,,,,,,,,,METAR,1688.0
KBTR 270053Z 01008KT 10SM CLR 17/03 A3023 RMK AO2 SLP236 T01670028,KBTR,2019-03-27T00:53:00Z,30.53,-91.15,16.7,2.8,10,8,,10.0,30.230314,1023.6,,,TRUE,,,,,,,CLR,,,,,,,,VFR,,,,,,,,,,,,METAR,21.0
KBUR 270053Z 18009KT 10SM CLR 19/04 A2994 RMK AO2 SLP131 T01940044,KBUR,2019-03-27T00:53:00Z,34.2,-118.37,19.4,4.4,180,9,,10.0,29.940945,1013.1,,,TRUE,,,,,,,CLR,,,,,,,,VFR,,,,,,,,,,,,METAR,217.0
KBVY 270053Z AUTO 33006KT 10SM CLR 02/M16 A3031 RMK AO2 SLP263 T00171156,KBVY,2019-03-27T00:53:00Z,42.58,-70.92,1.7,-15.6,330,6,,10.0,30.31004,1026.3,,TRUE,TRUE,,,,,,,CLR,,,,,,,,VFR,,,,,,,,,,,,METAR,28.0
KEET 270053Z AUTO 00000KT 10SM FEW075 12/06 A3018 RMK AO2 SLP219 T01220056,KEET,2019-03-27T00:53:00Z,33.18,-86.78,12.2,5.6,0,0,,10.0,30.180119,1021.9,,TRUE,TRUE,,,,,,,FEW,7500,,,,,,,VFR,,,,,,,,,,,,METAR,173.0
KELD 270053Z AUTO 02005KT 10SM CLR 13/06 A3029 RMK AO2 SLP256 T01330061,KELD,2019-03-27T00:53:00Z,33.22,-92.82,13.3,6.1,20,5,,10.0,30.28937,1025.6,,TRUE,TRUE,,,,,,,CLR,,,,,,,,VFR,,,,,,,,,,,,METAR,81.0
KBEH 270053Z AUTO 00000KT 10SM CLR 01/M07 A3040 RMK AO2 SLP301 T00061067,KBEH,2019-03-27T00:53:00Z,42.13,-86.42,0.6,-6.7,0,0,,10.0,30.398623,1030.1,,TRUE,TRUE,,,,,,,CLR,,,,,,,,VFR,,,,,,,,,,,,METAR,191.0
KELM 270053Z 03006KT 10SM CLR M01/M13 A3039 RMK AO2 SLP301 T10111133,KELM,2019-03-27T00:53:00Z,42.15,-76.9,-1.1,-13.3,30,6,,10.0,30.389763,1030.1,,,TRUE,,,,,,,CLR,,,,,,,,VFR,,,,,,,,,,,,METAR,302.0
KELN 270053Z AUTO 29005KT 10SM CLR 14/M03 A2997 RMK AO2 SLP153 T01391028,KELN,2019-03-27T00:53:00Z,47.03,-120.53,13.9,-2.8,290,5,,10.0,29.970472,1015.3,,TRUE,TRUE,,,,,,,CLR,,,,,,,,VFR,,,,,,,,,,,,METAR,519.0
KELY 270053Z AUTO 18014KT 10SM CLR 12/M07 A2998 RMK AO2 SLP110 T01221067,KELY,2019-03-27T00:53:00Z,39.3,-114.85,12.2,-6.7,180,14,,10.0,29.97933,1011.0,,TRUE,TRUE,,,,,,,CLR,,,,,,,,VFR,,,,,,,,,,,,METAR,1906.0
KEMP 270053Z AUTO 15007KT 6SM HZ OVC046 13/05 A3023 RMK AO2 SLP243 T01330050,KEMP,2019-03-27T00:53:00Z,38.33,-96.2,13.3,5.0,150,7,,6.0,30.230314,1024.3,,TRUE,TRUE,,,,,,HZ,OVC,4600,,,,,,,VFR,,,,,,,,,,,,METAR,367.0
KEPH 270053Z AUTO 22009KT 10SM CLR 14/M04 A2997 RMK AO2 SLP154 T01441039,KEPH,2019-03-27T00:53:00Z,47.3,-119.52,14.4,-3.9,220,9,,10.0,29.970472,1015.4,,TRUE,TRUE,,,,,,,CLR,,,,,,,,VFR,,,,,,,,,,,,METAR,383.0
KENW 270053Z 17005KT 10SM CLR 01/M09 A3038 RMK AO2 SLP297 T00111094,KENW,2019-03-27T00:53:00Z,42.6,-87.93,1.1,-9.4,170,5,,10.0,30.380905,1029.7,,,TRUE,,,,,,,CLR,,,,,,,,VFR,,,,,,,,,,,,METAR,219.0
KESF 270053Z AUTO 00000KT 10SM CLR 14/05 A3026 RMK AO2 SLP245 T01440050,KESF,2019-03-27T00:53:00Z,31.4,-92.28,14.4,5.0,0,0,,10.0,30.259842,1024.5,,TRUE,TRUE,,,,,,,CLR,,,,,,,,VFR,,,,,,,,,,,,METAR,28.0
KEVW 270053Z AUTO 23008KT 10SM CLR 07/M07 A3004 RMK AO2 SLP161 T00671067,KEVW,2019-03-27T00:53:00Z,41.27,-111.03,6.7,-6.7,230,8,,10.0,30.041338,1016.1,,TRUE,TRUE,,,,,,,CLR,,,,,,,,VFR,,,,,,,,,,,,METAR,2177.0
KEWB 270053Z 00000KT 10SM CLR M01/M08 A3031 RMK AO2 SLP264 T10061083,KEWB,2019-03-27T00:53:00Z,41.68,-70.95,-0.6,-8.3,0,0,,10.0,30.31004,1026.4,,,TRUE,,,,,,,CLR,,,,,,,,VFR,,,,,,,,,,,,METAR,23.0
KEYE 270053Z AUTO 05003KT 10SM CLR 06/M08 A3036 RMK AO2 SLP287 T00611083,KEYE,2019-03-27T00:53:00Z,39.83,-86.3,6.1,-8.3,50,3,,10.0,30.360237,1028.7,,TRUE,TRUE,,,,,,,CLR,,,,,,,,VFR,,,,,,,,,,,,METAR,248.0
KEYW 270053Z AUTO 34005KT 10SM SCT020 25/22 A3002 RMK AO2 SLP164 T02500217,KEYW,2019-03-27T00:53:00Z,24.55,-81.75,25.0,21.7,340,5,,10.0,30.02067,1016.4,,TRUE,TRUE,,,,,,,SCT,2000,,,,,,,VFR,,,,,,,,,,,,METAR,5.0
KFAR 270053Z 15010KT 7SM OVC015 03/01 A3004 RMK AO2 SLP184 T00280011,KFAR,2019-03-27T00:53:00Z,46.93,-96.82,2.8,1.1,150,10,,7.0,30.041338,1018.4,,,TRUE,,,,,,,OVC,1500,,,,,,,MVFR,,,,,,,,,,,,METAR,277.0
KFAT 270053Z 35007KT 10SM FEW055 FEW100 BKN150 BKN200 22/08 A2993 RMK AO2 SLP131 T02220083,KFAT,2019-03-27T00:53:00Z,36.78,-119.72,22.2,8.3,350,7,,10.0,29.929134,1013.1,,,TRUE,,,,,,,FEW,5500,FEW,10000,BKN,15000,BKN,20000,VFR,,,,,,,,,,,,METAR,104.0
KFAY 270053Z 05004KT 10SM CLR 09/M01 A3025 RMK AO2 SLPNO T00941006,KFAY,2019-03-27T00:53:00Z,34.98,-78.88,9.4,-0.6,50,4,,10.0,30.250984,,,,TRUE,,,,,,,CLR,,,,,,,,VFR,,,,,,,,,,,,METAR,55.0
KEQY 270053Z AUTO 03005KT 10SM CLR 09/01 A3022 RMK AO2 SLP249 T00890006,KEQY,2019-03-27T00:53:00Z,35.02,-80.62,8.9,0.6,30,5,,10.0,30.221457,1024.9,,TRUE,TRUE,,,,,,,CLR,,,,,,,,VFR,,,,,,,,,,,,METAR,212.0
KFCM 270053Z 15008KT 10SM OVC032 08/02 A3018 RMK AO2 SLP229 T00830017,KFCM,2019-03-27T00:53:00Z,44.83,-93.47,8.3,1.7,150,8,,10.0,30.180119,1022.9,,,TRUE,,,,,,,OVC,3200,,,,,,,VFR,,,,,,,,,,,,METAR,280.0
KFDR 270053Z AUTO 13008KT 10SM CLR 16/08 A3020 RMK AO2 SLP224 T01610078,KFDR,2019-03-27T00:53:00Z,34.35,-98.98,16.1,7.8,130,8,,10.0,30.200787,1022.4,,TRUE,TRUE,,,,,,,CLR,,,,,,,,VFR,,,,,,,,,,,,METAR,386.0
KFDY 270053Z AUTO 08008KT 10SM CLR 02/M11 A3039 RMK AO2 SLP296 T00171106,KFDY,2019-03-27T00:53:00Z,41.02,-83.67,1.7,-10.6,80,8,,10.0,30.389763,1029.6,,TRUE,TRUE,,,,,,,CLR,,,,,,,,VFR,,,,,,,,,,,,METAR,247.0
KFFC 270053Z AUTO 32006KT 10SM SCT033 BKN043 OVC065 13/12 A3016 RMK AO2 RAE52 SLP214 P0003 T01330122,KFFC,2019-03-27T00:53:00Z,33.35,-84.57,13.3,12.2,320,6,,10.0,30.159449,1021.4,,TRUE,TRUE,,,,,,,SCT,3300,BKN,4300,OVC,6500,,,VFR,,,,,,0.03,,,,,,METAR,262.0
KFFT 270053Z AUTO 04005KT 10SM CLR 07/M08 A3033 RMK AO2 SLP274 T00671078,KFFT,2019-03-27T00:53:00Z,38.18,-84.9,6.7,-7.8,40,5,,10.0,30.33071,1027.4,,TRUE,TRUE,,,,,,,CLR,,,,,,,,VFR,,,,,,,,,,,,METAR,236.0
KFHR 270053Z AUTO 00000KT 10SM CLR 13/02 A3006 RMK AO2 SLP178 T01330022,KFHR,2019-03-27T00:53:00Z,48.52,-123.03,13.3,2.2,0,0,,10.0,30.059055,1017.8,,TRUE,TRUE,,,,,,,CLR,,,,,,,,VFR,,,,,,,,,,,,METAR,32.0
KFLD 270053Z AUTO 18006KT 10SM CLR 03/M06 A3031 RMK AO2 SLP276 T00281056,KFLD,2019-03-27T00:53:00Z,43.77,-88.48,2.8,-5.6,180,6,,10.0,30.31004,1027.6,,TRUE,TRUE,,,,,,,CLR,,,,,,,,VFR,,,,,,,,,,,,METAR,240.0
KFLL 270053Z 15008KT 6SM TSRA BR BKN026CB BKN038 OVC049 23/20 A2996 RMK AO2 LTG DSNT NE AND E RAB07E26B35 TSB2354E09B29E44B52 SLP146 OCNL LTGCG E SW CB E SW MOV SE P0007 T02280200,KFLL,2019-03-27T00:53:00Z,26.07,-80.15,22.8,20.0,150,8,,6.0,29.958662,1014.6,,,TRUE,,,,,,TSRA BR,BKN,2600,BKN,3800,OVC,4900,,,MVFR,,,,,,0.07,,,,,,METAR,3.0
KDHT 270053Z AUTO 19016KT 10SM CLR 18/07 A3013 RMK AO2 SLP178 T01780067,KDHT,2019-03-27T00:53:00Z,36.02,-102.55,17.8,6.7,190,16,,10.0,30.129921,1017.8,,TRUE,TRUE,,,,,,,CLR,,,,,,,,VFR,,,,,,,,,,,,METAR,1217.0
KDHN 270053Z 33007KT 10SM CLR 13/07 A3016 RMK AO2 SLP210 T01280072,KDHN,2019-03-27T00:53:00Z,31.32,-85.45,12.8,7.2,330,7,,10.0,30.159449,1021.0,,,TRUE,,,,,,,CLR,,,,,,,,VFR,,,,,,,,,,,,METAR,113.0
KDGW 270053Z AUTO 22008KT 10SM CLR 13/M05 A2995 RMK AO2 SLP137 T01331050,KDGW,2019-03-27T00:53:00Z,42.8,-105.38,13.3,-5.0,220,8,,10.0,29.949802,1013.7,,TRUE,TRUE,,,,,,,CLR,,,,,,,,VFR,,,,,,,,,,,,METAR,1499.0
KDFW 270053Z 09005KT 10SM FEW300 17/06 A3024 RMK AO2 SLP238 T01720061,KDFW,2019-03-27T00:53:00Z,32.9,-97.02,17.2,6.1,90,5,,10.0,30.239174,1023.8,,,TRUE,,,,,,,FEW,30000,,,,,,,VFR,,,,,,,,,,,,METAR,174.0
KDFI 270053Z AUTO 12005KT 10SM CLR 03/M09 A3040 RMK AO2 SLP300 T00331089,KDFI,2019-03-27T00:53:00Z,41.33,-84.43,3.3,-8.9,120,5,,10.0,30.398623,1030.0,,TRUE,TRUE,,,,,,,CLR,,,,,,,,VFR,,,,,,,,,,,,METAR,219.0
KDEW 270053Z AUTO 19008KT 10SM CLR 11/M03 A2998 RMK AO2 SLP160 T01061033 $,KDEW,2019-03-27T00:53:00Z,47.97,-117.43,10.6,-3.3,190,8,,10.0,29.97933,1016.0,,TRUE,TRUE,TRUE,,,,,,CLR,,,,,,,,VFR,,,,,,,,,,,,METAR,674.0
KDET 270053Z 21008KT 10SM CLR 02/M07 A3041 RMK AO2 SLP306 T00171072,KDET,2019-03-27T00:53:00Z,42.4,-83.02,1.7,-7.2,210,8,,10.0,30.410433,1030.6,,,TRUE,,,,,,,CLR,,,,,,,,VFR,,,,,,,,,,,,METAR,190.0
KDEQ 270053Z AUTO 00000KT 10SM CLR 16/08 A3025 RMK AO2 SLP243 T01610078,KDEQ,2019-03-27T00:53:00Z,34.05,-94.4,16.1,7.8,0,0,,10.0,30.250984,1024.3,,TRUE,TRUE,,,,,,,CLR,,,,,,,,VFR,,,,,,,,,,,,METAR,106.0
KDEN 270053Z 05010KT 10SM SCT160 BKN250 14/03 A2997 RMK AO2 SLP120 T01440028,KDEN,2019-03-27T00:53:00Z,39.85,-104.65,14.4,2.8,50,10,,10.0,29.970472,1012.0,,,TRUE,,,,,,,SCT,16000,BKN,25000,,,,,VFR,,,,,,,,,,,,METAR,1640.0
KDCU 270053Z AUTO 35007KT 10SM CLR 08/M02 A3024 RMK AO2 SLP241 T00831017,KDCU,2019-03-27T00:53:00Z,34.65,-86.95,8.3,-1.7,350,7,,10.0,30.239174,1024.1,,TRUE,TRUE,,,,,,,CLR,,,,,,,,VFR,,,,,,,,,,,,METAR,176.0
KDBQ 270053Z 16008KT 10SM CLR 02/M06 A3032 RMK AO2 SLP280 T00221061,KDBQ,2019-03-27T00:53:00Z,42.4,-90.7,2.2,-6.1,160,8,,10.0,30.318897,1028.0,,,TRUE,,,,,,,CLR,,,,,,,,VFR,,,,,,,,,,,,METAR,326.0
KDAN 270053Z AUTO 08004KT 10SM CLR 07/M08 A3028 RMK AO2 SLP250 T00721083,KDAN,2019-03-27T00:53:00Z,36.57,-79.33,7.2,-8.3,80,4,,10.0,30.280512,1025.0,,TRUE,TRUE,,,,,,,CLR,,,,,,,,VFR,,,,,,,,,,,,METAR,175.0
KDAL 270053Z 09006KT 10SM FEW250 19/07 A3026 RMK AO2 SLP243 T01940067,KDAL,2019-03-27T00:53:00Z,32.85,-96.85,19.4,6.7,90,6,,10.0,30.259842,1024.3,,,TRUE,,,,,,,FEW,25000,,,,,,,VFR,,,,,,,,,,,,METAR,158.0
KDAB 270053Z 04011KT 9SM -RA SCT022 BKN055 BKN100 18/17 A3003 RMK AO2 RAB31 SLP167 P0001 T01780167 $,KDAB,2019-03-27T00:53:00Z,29.18,-81.07,17.8,16.7,40,11,,9.0,30.029528,1016.7,,,TRUE,TRUE,,,,,-RA,SCT,2200,BKN,5500,BKN,10000,,,VFR,,,,,,0.01,,,,,,METAR,9.0
KCYS 270053Z 19006KT 10SM CLR 13/M08 A3004 RMK AO2 SLP149 T01331083,KCYS,2019-03-27T00:53:00Z,41.15,-104.8,13.3,-8.3,190,6,,10.0,30.041338,1014.9,,,TRUE,,,,,,,CLR,,,,,,,,VFR,,,,,,,,,,,,METAR,1868.0
KFOK 270053Z 36005KT 10SM CLR 02/M11 A3032 RMK AO2 SLP269 T00171106,KFOK,2019-03-27T00:53:00Z,40.85,-72.62,1.7,-10.6,360,5,,10.0,30.318897,1026.9,,,TRUE,,,,,,,CLR,,,,,,,,VFR,,,,,,,,,,,,METAR,33.0
KFOE 270053Z 16007KT 10SM CLR 12/04 A3022 RMK AO2 SLP239 T01220044,KFOE,2019-03-27T00:53:00Z,38.93,-95.65,12.2,4.4,160,7,,10.0,30.221457,1023.9,,,TRUE,,,,,,,CLR,,,,,,,,VFR,,,,,,,,,,,,METAR,320.0
KFNT 270053Z 33003KT CLR 02/M08 A3041 RMK AO2 SLP307 T00221083 $,KFNT,2019-03-27T00:53:00Z,42.97,-83.75,2.2,-8.3,330,3,,,30.410433,1030.7,,,TRUE,TRUE,,,,,,CLR,,,,,,,,,,,,,,,,,,,,METAR,233.0
KFNB 270053Z AUTO 14008KT 10SM FEW065 13/06 A3020 RMK AO2 SLP229 T01280056,KFNB,2019-03-27T00:53:00Z,40.07,-95.58,12.8,5.6,140,8,,10.0,30.200787,1022.9,,TRUE,TRUE,,,,,,,FEW,6500,,,,,,,VFR,,,,,,,,,,,,METAR,300.0
KFMY 270053Z 29009KT 10SM CLR 22/17 A3001 RMK AO2 SLP163 T02170172,KFMY,2019-03-27T00:53:00Z,26.58,-81.87,21.7,17.2,290,9,,10.0,30.008858,1016.3,,,TRUE,,,,,,,CLR,,,,,,,,VFR,,,,,,,,,,,,METAR,4.0
KFMN 270053Z 34005KT 10SM FEW120 19/M07 A3005 RMK AO2 SLP152 T01891067,KFMN,2019-03-27T00:53:00Z,36.75,-108.23,18.9,-6.7,340,5,,10.0,30.050198,1015.2,,,TRUE,,,,,,,FEW,12000,,,,,,,VFR,,,,,,,,,,,,METAR,1685.0
KFLO 270053Z 03005KT 10SM FEW055 10/06 A3022 RMK AO2 SLP232 T01000061,KFLO,2019-03-27T00:53:00Z,34.18,-79.73,10.0,6.1,30,5,,10.0,30.221457,1023.2,,,TRUE,,,,,,,FEW,5500,,,,,,,VFR,,,,,,,,,,,,METAR,44.0
KDMO 270053Z AUTO 12005KT 10SM CLR 11/02 A3031 RMK AO2 SLP267 T01060022,KDMO,2019-03-27T00:53:00Z,38.72,-93.17,10.6,2.2,120,5,,10.0,30.31004,1026.7,,TRUE,TRUE,,,,,,,CLR,,,,,,,,VFR,,,,,,,,,,,,METAR,274.0
KDMN 270053Z AUTO 23005KT 10SM CLR 26/M08 A3004 RMK AO2 SLP113 T02561083,KDMN,2019-03-27T00:53:00Z,32.27,-107.72,25.6,-8.3,230,5,,10.0,30.041338,1011.3,,TRUE,TRUE,,,,,,,CLR,,,,,,,,VFR,,,,,,,,,,,,METAR,1311.0
KDLS 270053Z AUTO 10005KT 10SM CLR 15/M01 A2996 RMK AO2 SLP145 T01501006,KDLS,2019-03-27T00:53:00Z,45.62,-121.17,15.0,-0.6,100,5,,10.0,29.958662,1014.5,,TRUE,TRUE,,,,,,,CLR,,,,,,,,VFR,,,,,,,,,,,,METAR,71.0
KDLN 270053Z AUTO 21015KT 10SM BKN110 09/M01 A2992 RMK AO2 SLP123 T00891011,KDLN,2019-03-27T00:53:00Z,45.25,-112.55,8.9,-1.1,210,15,,10.0,29.920275,1012.3,,TRUE,TRUE,,,,,,,BKN,11000,,,,,,,VFR,,,,,,,,,,,,METAR,1591.0
KDKK 270053Z AUTO 00000KT 10SM CLR M02/M11 A3042 RMK AO2 SLP310 T10221111,KDKK,2019-03-27T00:53:00Z,42.5,-79.28,-2.2,-11.1,0,0,,10.0,30.41929,1031.0,,TRUE,TRUE,,,,,,,CLR,,,,,,,,VFR,,,,,,,,,,,,METAR,202.0
KMGW 270053Z 01004KT 10SM CLR 04/M12 A3034 RMK AO2 SLP285 T00391122,KMGW,2019-03-27T00:53:00Z,39.65,-79.92,3.9,-12.2,10,4,,10.0,30.339567,1028.5,,,TRUE,,,,,,,CLR,,,,,,,,VFR,,,,,,,,,,,,METAR,378.0
KMGM 270053Z 35004KT 10SM OVC046 13/07 A3017 RMK AO2 SLP217 T01330067,KMGM,2019-03-27T00:53:00Z,32.3,-86.4,13.3,6.7,350,4,,10.0,30.171259,1021.7,,,TRUE,,,,,,,OVC,4600,,,,,,,VFR,,,,,,,,,,,,METAR,63.0
KMFR 270053Z 01007KT 10SM FEW050 SCT120 15/01 A2987 RMK AO2 SLP115 T01500011,KMFR,2019-03-27T00:53:00Z,42.38,-122.87,15.0,1.1,10,7,,10.0,29.870079,1011.5,,,TRUE,,,,,,,FEW,5000,SCT,12000,,,,,VFR,,,,,,,,,,,,METAR,396.0
KMFE 270053Z 09010KT 10SM SCT012 OVC049 22/20 A3019 RMK AO2 SLP223 T02170200,KMFE,2019-03-27T00:53:00Z,26.18,-98.25,21.7,20.0,90,10,,10.0,30.188976,1022.3,,,TRUE,,,,,,,SCT,1200,OVC,4900,,,,,VFR,,,,,,,,,,,,METAR,38.0
KMDW 270053Z 11006KT 10SM FEW020 BKN250 04/M13 A3039 RMK AO2 SLP302 FU FEW020 T00391133,KMDW,2019-03-27T00:53:00Z,41.78,-87.75,3.9,-13.3,110,6,,10.0,30.389763,1030.2,,,TRUE,,,,,,,FEW,2000,BKN,25000,,,,,VFR,,,,,,,,,,,,METAR,188.0
KMCW 270053Z AUTO 17009KT 10SM FEW035 OVC055 08/04 A3023 RMK AO2 SLP244 T00780039,KMCW,2019-03-27T00:53:00Z,43.15,-93.33,7.8,3.9,170,9,,10.0,30.230314,1024.4,,TRUE,TRUE,,,,,,,FEW,3500,OVC,5500,,,,,VFR,,,,,,,,,,,,METAR,369.0
KMCO 270053Z 04009KT 10SM FEW060 FEW095 19/14 A3003 RMK AO2 SLP167 T01940144,KMCO,2019-03-27T00:53:00Z,28.42,-81.33,19.4,14.4,40,9,,10.0,30.029528,1016.7,,,TRUE,,,,,,,FEW,6000,FEW,9500,,,,,VFR,,,,,,,,,,,,METAR,29.0
KMCN 270053Z AUTO 07009KT 10SM BKN075 OVC090 15/11 A3012 RMK AO2 SLP196 T01500106,KMCN,2019-03-27T00:53:00Z,32.68,-83.65,15.0,10.6,70,9,,10.0,30.121063,1019.6,,TRUE,TRUE,,,,,,,BKN,7500,OVC,9000,,,,,VFR,,,,,,,,,,,,METAR,109.0
KMCK 270053Z AUTO 18009KT 10SM CLR 16/07 A3005 RMK AO2 SLP184 T01560067,KMCK,2019-03-27T00:53:00Z,40.2,-100.58,15.6,6.7,180,9,,10.0,30.050198,1018.4,,TRUE,TRUE,,,,,,,CLR,,,,,,,,VFR,,,,,,,,,,,,METAR,782.0
KMCI 270053Z 14007KT 10SM SCT170 11/03 A3025 RMK AO2 SLP247 T01110033 $,KMCI,2019-03-27T00:53:00Z,39.3,-94.73,11.1,3.3,140,7,,10.0,30.250984,1024.7,,,TRUE,TRUE,,,,,,SCT,17000,,,,,,,VFR,,,,,,,,,,,,METAR,320.0
KMCE 270053Z AUTO 02005KT 10SM BKN100 18/11 A2993 RMK AO2 SLP135 T01830106,KMCE,2019-03-27T00:53:00Z,37.28,-120.5,18.3,10.6,20,5,,10.0,29.929134,1013.5,,TRUE,TRUE,,,,,,,BKN,10000,,,,,,,VFR,,,,,,,,,,,,METAR,47.0
KMCB 270053Z AUTO 35009KT 10SM CLR 15/03 A3024 RMK AO2 SLP239 T01500033,KMCB,2019-03-27T00:53:00Z,31.18,-90.47,15.0,3.3,350,9,,10.0,30.239174,1023.9,,TRUE,TRUE,,,,,,,CLR,,,,,,,,VFR,,,,,,,,,,,,METAR,124.0
KEEO 270053Z AUTO 22005KT 10SM CLR 12/M04 A3007 RMK AO2 SLP168 T01221044,KEEO,2019-03-27T00:53:00Z,40.05,-107.88,12.2,-4.4,220,5,,10.0,30.070866,1016.8,,TRUE,TRUE,,,,,,,CLR,,,,,,,,VFR,,,,,,,,,,,,METAR,1930.0
KECP 270053Z 31012KT 10SM CLR 14/08 A3011 RMK AO2 SLP208 T01390083,KECP,2019-03-27T00:53:00Z,30.35,-85.8,13.9,8.3,310,12,,10.0,30.109253,1020.8,,,TRUE,,,,,,,CLR,,,,,,,,VFR,,,,,,,,,,,,METAR,21.0
KDXR 270053Z 35007KT 10SM CLR 03/M16 A3034 RMK AO2 SLP276 T00281161,KDXR,2019-03-27T00:53:00Z,41.37,-73.48,2.8,-16.1,350,7,,10.0,30.339567,1027.6,,,TRUE,,,,,,,CLR,,,,,,,,VFR,,,,,,,,,,,,METAR,139.0
KDWH 270053Z 04004KT 10SM CLR 21/10 A3022 RMK AO2 SLP232 T02110100,KDWH,2019-03-27T00:53:00Z,30.07,-95.55,21.1,10.0,40,4,,10.0,30.221457,1023.2,,,TRUE,,,,,,,CLR,,,,,,,,VFR,,,,,,,,,,,,METAR,46.0
KDVT 270053Z 22008KT 10SM CLR 27/M02 A2989 RMK AO2 SLP105 T02721017,KDVT,2019-03-27T00:53:00Z,33.68,-112.07,27.2,-1.7,220,8,,10.0,29.890747,1010.5,,,TRUE,,,,,,,CLR,,,,,,,,VFR,,,,,,,,,,,,METAR,443.0
KDUJ 270053Z AUTO 35006KT 10SM CLR 02/M14 A3031 RMK AO2 SLP284 T00171139 $,KDUJ,2019-03-27T00:53:00Z,41.17,-78.9,1.7,-13.9,350,6,,10.0,30.31004,1028.4,,TRUE,TRUE,TRUE,,,,,,CLR,,,,,,,,VFR,,,,,,,,,,,,METAR,554.0
KDTW 270053Z 14006KT 10SM SCT250 02/M08 A3042 RMK AO2 SLP307 T00171078,KDTW,2019-03-27T00:53:00Z,42.23,-83.33,1.7,-7.8,140,6,,10.0,30.41929,1030.7,,,TRUE,,,,,,,SCT,25000,,,,,,,VFR,,,,,,,,,,,,METAR,195.0
KDTS 270053Z 36010KT 10SM CLR 14/07 A3015 RMK AO2 SLP207 T01440067,KDTS,2019-03-27T00:53:00Z,30.4,-86.47,14.4,6.7,360,10,,10.0,30.15059,1020.7,,,TRUE,,,,,,,CLR,,,,,,,,VFR,,,,,,,,,,,,METAR,5.0
KDTO 270053Z 08005KT 10SM CLR 18/07 A3025 RMK AO2 SLP243 T01780067,KDTO,2019-03-27T00:53:00Z,33.2,-97.2,17.8,6.7,80,5,,10.0,30.250984,1024.3,,,TRUE,,,,,,,CLR,,,,,,,,VFR,,,,,,,,,,,,METAR,196.0
KDTN 270053Z 35005KT 10SM CLR 17/06 A3028 RMK AO2 SLP251 T01720061,KDTN,2019-03-27T00:53:00Z,32.55,-93.75,17.2,6.1,350,5,,10.0,30.280512,1025.1,,,TRUE,,,,,,,CLR,,,,,,,,VFR,,,,,,,,,,,,METAR,53.0
KDRT 270053Z AUTO 11010KT 10SM BKN060 OVC085 25/14 A3013 RMK AO2 SLP191 T02500139,KDRT,2019-03-27T00:53:00Z,29.37,-100.92,25.0,13.9,110,10,,10.0,30.129921,1019.1,,TRUE,TRUE,,,,,,,BKN,6000,OVC,8500,,,,,VFR,,,,,,,,,,,,METAR,313.0
KDRO 270053Z AUTO 35003KT 10SM SCT120 16/M09 A3013 RMK AO2 SLP181 T01611089,KDRO,2019-03-27T00:53:00Z,37.15,-107.77,16.1,-8.9,350,3,,10.0,30.129921,1018.1,,TRUE,TRUE,,,,,,,SCT,12000,,,,,,,VFR,,,,,,,,,,,,METAR,2035.0
KDNL 270053Z AUTO 04012KT 10SM CLR 14/06 A3017 RMK AO2 SLP215 T01390061,KDNL,2019-03-27T00:53:00Z,33.47,-82.03,13.9,6.1,40,12,,10.0,30.171259,1021.5,,TRUE,TRUE,,,,,,,CLR,,,,,,,,VFR,,,,,,,,,,,,METAR,130.0
KMIA 270053Z 18006KT 10SM SCT036 SCT045 BKN060 24/19 A2997 RMK AO2 LTG DSNT N AND NE SLP147 OCNL LTGIC DSNT N-NE CB DSNT N-NE MOV E T02440189,KMIA,2019-03-27T00:53:00Z,25.8,-80.28,24.4,18.9,180,6,,10.0,29.970472,1014.7,,,TRUE,,,,,,,SCT,3600,SCT,4500,BKN,6000,,,VFR,,,,,,,,,,,,METAR,3.0
KMHT 270053Z 35003KT 10SM CLR 02/M18 A3031 RMK AO2 SLP282 T00171178,KMHT,2019-03-27T00:53:00Z,42.93,-71.43,1.7,-17.8,350,3,,10.0,30.31004,1028.2,,,TRUE,,,,,,,CLR,,,,,,,,VFR,,,,,,,,,,,,METAR,81.0
KMHE 270053Z AUTO 15011KT 10SM CLR 13/07 A3000 RMK AO2 SLP166 T01280067,KMHE,2019-03-27T00:53:00Z,43.77,-98.02,12.8,6.7,150,11,,10.0,30.0,1016.6,,TRUE,TRUE,,,,,,,CLR,,,,,,,,VFR,,,,,,,,,,,,METAR,397.0
KSCH 270053Z 29010G16KT 15SM CLR 01/M14 A3035,KSCH,2019-03-27T00:53:00Z,42.85,-73.92,1.0,-14.0,290,10,16,15.0,30.351377,,,,,,,,,,,CLR,,,,,,,,VFR,,,,,,,,,,,,METAR,115.0
KSBM 270053Z AUTO 17008KT 10SM CLR 01/M06 A3034 RMK AO2 SLP284 T00061056,KSBM,2019-03-27T00:53:00Z,43.78,-87.85,0.6,-5.6,170,8,,10.0,30.339567,1028.4,,TRUE,TRUE,,,,,,,CLR,,,,,,,,VFR,,,,,,,,,,,,METAR,232.0
KHWO 270053Z AUTO VRB04G21KT 1SM +TSRA SCT018 BKN033 OVC080 21/18 A3000 RMK AO2 LTG DSNT NE AND E RAB19 TSB46 SLP158 P0055 T02110183,KHWO,2019-03-27T00:53:00Z,26.0,-80.23,21.1,18.3,0,4,21,1.0,30.0,1015.8,,TRUE,TRUE,,,,,,+TSRA,SCT,1800,BKN,3300,OVC,8000,,,IFR,,,,,,0.55,,,,,,METAR,2.0
KHVR 270053Z AUTO 28015KT 10SM CLR 13/M03 A2980 RMK AO2 PK WND 27026/0031 SLP103 T01331033,KHVR,2019-03-27T00:53:00Z,48.55,-109.77,13.3,-3.3,280,15,,10.0,29.799213,1010.3,,TRUE,TRUE,,,,,,,CLR,,,,,,,,VFR,,,,,,,,,,,,METAR,787.0
KHVN 270053Z 35007KT 10SM CLR 06/M15 A3033 RMK AO2 SLP269 T00561150,KHVN,2019-03-27T00:53:00Z,41.27,-72.87,5.6,-15.0,350,7,,10.0,30.33071,1026.9,,,TRUE,,,,,,,CLR,,,,,,,,VFR,,,,,,,,,,,,METAR,4.0
KHUL 270053Z AUTO 30006KT 10SM CLR M04/M17 A3023 RMK AO2 SLP246 T10441172 TSNO,KHUL,2019-03-27T00:53:00Z,46.12,-67.8,-4.4,-17.2,300,6,,10.0,30.230314,1024.6,,TRUE,TRUE,,,TRUE,,,,CLR,,,,,,,,VFR,,,,,,,,,,,,METAR,150.0
KHUF 270053Z 02003KT 10SM CLR 03/M04 A3037 RMK AO2 SLP288 T00331039,KHUF,2019-03-27T00:53:00Z,39.45,-87.3,3.3,-3.9,20,3,,10.0,30.369095,1028.8,,,TRUE,,,,,,,CLR,,,,,,,,VFR,,,,,,,,,,,,METAR,179.0
KMPO 270053Z AUTO 33008KT 10SM CLR M01/M15 A3029 RMK AO2 SLP281 T10111150,KMPO,2019-03-27T00:53:00Z,41.13,-75.38,-1.1,-15.0,330,8,,10.0,30.28937,1028.1,,TRUE,TRUE,,,,,,,CLR,,,,,,,,VFR,,,,,,,,,,,,METAR,577.0
KMOD 270053Z 11006KT 10SM SCT120 19/10 A2992 RMK AO2 SLP132 T01890100,KMOD,2019-03-27T00:53:00Z,37.62,-120.95,18.9,10.0,110,6,,10.0,29.920275,1013.2,,,TRUE,,,,,,,SCT,12000,,,,,,,VFR,,,,,,,,,,,,METAR,29.0
KMNN 270053Z AUTO 03009KT 10SM CLR M02/M08 A3039 RMK AO2 SLP306 T10171083 $,KMNN,2019-03-27T00:53:00Z,40.62,-83.07,-1.7,-8.3,30,9,,10.0,30.389763,1030.6,,TRUE,TRUE,TRUE,,,,,,CLR,,,,,,,,VFR,,,,,,,,,,,,METAR,301.0
KMMV 270053Z AUTO 00000KT 10SM CLR 14/02 A2995 RMK AO2 SLP142 T01390022,KMMV,2019-03-27T00:53:00Z,45.2,-123.13,13.9,2.2,0,0,,10.0,29.949802,1014.2,,TRUE,TRUE,,,,,,,CLR,,,,,,,,VFR,,,,,,,,,,,,METAR,48.0
KMMK 270053Z AUTO 33004KT 10SM CLR 03/M14 A3033 RMK AO2 SLP272 T00331139,KMMK,2019-03-27T00:53:00Z,41.52,-72.83,3.3,-13.9,330,4,,10.0,30.33071,1027.2,,TRUE,TRUE,,,,,,,CLR,,,,,,,,VFR,,,,,,,,,,,,METAR,31.0
KMLU 270053Z 04007KT 10SM CLR 14/05 A3029 RMK AO2 SLP257 T01390050,KMLU,2019-03-27T00:53:00Z,32.52,-92.03,13.9,5.0,40,7,,10.0,30.28937,1025.7,,,TRUE,,,,,,,CLR,,,,,,,,VFR,,,,,,,,,,,,METAR,29.0
KMLS 270053Z AUTO 15006KT 10SM CLR 16/01 A2978 RMK AO2 SLP089 T01610006,KMLS,2019-03-27T00:53:00Z,46.43,-105.88,16.1,0.6,150,6,,10.0,29.778543,1008.9,,TRUE,TRUE,,,,,,,CLR,,,,,,,,VFR,,,,,,,,,,,,METAR,801.0
KMLP 270053Z AUTO VRB04KT 10SM CLR M01/M06 A2996 RMK AO2 SLP122 T10061061,KMLP,2019-03-27T00:53:00Z,47.45,-115.67,-0.6,-6.1,0,4,,10.0,29.958662,1012.2,,TRUE,TRUE,,,,,,,CLR,,,,,,,,VFR,,,,,,,,,,,,METAR,1837.0
KMLC 270053Z AUTO 00000KT 10SM FEW070 FEW100 16/06 A3028 RMK AO2 SLP253 T01560056,KMLC,2019-03-27T00:53:00Z,34.88,-95.78,15.6,5.6,0,0,,10.0,30.280512,1025.3,,TRUE,TRUE,,,,,,,FEW,7000,FEW,10000,,,,,VFR,,,,,,,,,,,,METAR,232.0
KMLB 270053Z 01006KT 10SM SCT065 BKN080 21/17 A3001 RMK AO2 SLP160 T02060167,KMLB,2019-03-27T00:53:00Z,28.1,-80.65,20.6,16.7,10,6,,10.0,30.008858,1016.0,,,TRUE,,,,,,,SCT,6500,BKN,8000,,,,,VFR,,,,,,,,,,,,METAR,11.0
KMKO 270053Z AUTO 25004KT 10SM CLR 17/06 A3028 RMK AO2 SLP253 T01670056,KMKO,2019-03-27T00:53:00Z,35.65,-95.37,16.7,5.6,250,4,,10.0,30.280512,1025.3,,TRUE,TRUE,,,,,,,CLR,,,,,,,,VFR,,,,,,,,,,,,METAR,185.0
KMKL 270053Z AUTO 36007KT 10SM CLR 08/M04 A3031 RMK AO2 SLP266 T00831044,KMKL,2019-03-27T00:53:00Z,35.6,-88.92,8.3,-4.4,360,7,,10.0,30.31004,1026.6,,TRUE,TRUE,,,,,,,CLR,,,,,,,,VFR,,,,,,,,,,,,METAR,128.0
KMIW 270053Z AUTO 15009KT 10SM BKN046 OVC060 09/00 A3026 RMK AO2 SLP256 T00890000,KMIW,2019-03-27T00:53:00Z,42.12,-92.92,8.9,0.0,150,9,,10.0,30.259842,1025.6,,TRUE,TRUE,,,,,,,BKN,4600,OVC,6000,,,,,VFR,,,,,,,,,,,,METAR,296.0
KMIE 270053Z 09003KT 10SM CLR 04/M07 A3037 RMK AO2 SLP290 T00391067,KMIE,2019-03-27T00:53:00Z,40.23,-85.4,3.9,-6.7,90,3,,10.0,30.369095,1029.0,,,TRUE,,,,,,,CLR,,,,,,,,VFR,,,,,,,,,,,,METAR,285.0
KMIC 270053Z 17009G19KT 10SM OVC038 08/02 A3018 RMK AO2 SLP229 T00830017,KMIC,2019-03-27T00:53:00Z,45.07,-93.35,8.3,1.7,170,9,19,10.0,30.180119,1022.9,,,TRUE,,,,,,,OVC,3800,,,,,,,VFR,,,,,,,,,,,,METAR,265.0
KHZY 270053Z AUTO 00000KT 10SM CLR M01/M14 A3041 RMK AO2 SLP308 T10111139,KHZY,2019-03-27T00:53:00Z,41.78,-80.7,-1.1,-13.9,0,0,,10.0,30.410433,1030.8,,TRUE,TRUE,,,,,,,CLR,,,,,,,,VFR,,,,,,,,,,,,METAR,276.0
KHYR 270053Z AUTO 18005KT 10SM OVC055 05/M04 A3021 RMK AO2 SLP248 T00501039,KHYR,2019-03-27T00:53:00Z,46.02,-91.45,5.0,-3.9,180,5,,10.0,30.209646,1024.8,,TRUE,TRUE,,,,,,,OVC,5500,,,,,,,VFR,,,,,,,,,,,,METAR,370.0
CYDN 270053Z AUTO 22011KT 9SM SCT014 03/02 A2979 RMK SLP105,CYDN,2019-03-27T00:53:00Z,51.1,-100.03,3.0,2.0,220,11,,9.0,29.790354,1010.5,,TRUE,,,,,,,,SCT,1400,,,,,,,VFR,,,,,,,,,,,,SPECI,305.0
KIAG 270053Z 24006KT 10SM CLR M02/M11 A3041 RMK AO2 SLP316 T10221106 $,KIAG,2019-03-27T00:53:00Z,43.12,-78.93,-2.2,-10.6,240,6,,10.0,30.410433,1031.6,,,TRUE,TRUE,,,,,,CLR,,,,,,,,VFR,,,,,,,,,,,,METAR,182.0
KIAH 270053Z 04008KT 10SM FEW250 22/10 A3022 RMK AO2 SLP233 T02170100,KIAH,2019-03-27T00:53:00Z,30.0,-95.37,21.7,10.0,40,8,,10.0,30.221457,1023.3,,,TRUE,,,,,,,FEW,25000,,,,,,,VFR,,,,,,,,,,,,METAR,36.0
KICR 270053Z AUTO 16012KT 10SM CLR 16/04 A2992 RMK AO2 SLP135 T01560044,KICR,2019-03-27T00:53:00Z,43.38,-99.85,15.6,4.4,160,12,,10.0,29.920275,1013.5,,TRUE,TRUE,,,,,,,CLR,,,,,,,,VFR,,,,,,,,,,,,METAR,621.0
KICT 270053Z 19007KT 10SM FEW150 SCT180 BKN210 13/06 A3022 RMK AO2 SLP237 T01330056,KICT,2019-03-27T00:53:00Z,37.65,-97.43,13.3,5.6,190,7,,10.0,30.221457,1023.7,,,TRUE,,,,,,,FEW,15000,SCT,18000,BKN,21000,,,VFR,,,,,,,,,,,,METAR,407.0
KIDA 270053Z 22009KT 10SM CLR 13/M02 A2996 RMK AO2 SLP143 T01331022,KIDA,2019-03-27T00:53:00Z,43.52,-112.07,13.3,-2.2,220,9,,10.0,29.958662,1014.3,,,TRUE,,,,,,,CLR,,,,,,,,VFR,,,,,,,,,,,,METAR,1453.0
KILM 270053Z AUTO 04008KT 10SM CLR 08/M02 A3024 RMK AO2 SLP240 T00831017,KILM,2019-03-27T00:53:00Z,34.27,-77.9,8.3,-1.7,40,8,,10.0,30.239174,1024.0,,TRUE,TRUE,,,,,,,CLR,,,,,,,,VFR,,,,,,,,,,,,METAR,9.0
KITR 270053Z AUTO 15014KT 10SM CLR 14/08 A3004 RMK AO2 SLP161 T01390078,KITR,2019-03-27T00:53:00Z,39.23,-102.28,13.9,7.8,150,14,,10.0,30.041338,1016.1,,TRUE,TRUE,,,,,,,CLR,,,,,,,,VFR,,,,,,,,,,,,METAR,1279.0
KIPL 270053Z AUTO 07007KT 9SM CLR 29/02 A2983 RMK AO2 SLP102 T02890022,KIPL,2019-03-27T00:53:00Z,32.83,-115.58,28.9,2.2,70,7,,9.0,29.828741,1010.2,,TRUE,TRUE,,,,,,,CLR,,,,,,,,VFR,,,,,,,,,,,,METAR,-17.0
KINK 270053Z AUTO 14014G25KT 10SM 23/09 A3011 RMK AO2 PK WND 14028/0008 SLP168 T02280094 $,KINK,2019-03-27T00:53:00Z,31.78,-103.2,22.8,9.4,140,14,25,10.0,30.109253,1016.8,,TRUE,TRUE,TRUE,,,,,,,,,,,,,,,,,,,,,,,,,,METAR,855.0
KIML 270053Z AUTO 16011KT 10SM CLR 15/05 A3002 RMK AO2 SLP173 T01500050,KIML,2019-03-27T00:53:00Z,40.52,-101.62,15.0,5.0,160,11,,10.0,30.02067,1017.3,,TRUE,TRUE,,,,,,,CLR,,,,,,,,VFR,,,,,,,,,,,,METAR,998.0
KIWI 270053Z AUTO VRB05KT 10SM CLR 00/M17 A3032 RMK AO2 SLP270 T00001167,KIWI,2019-03-27T00:53:00Z,43.97,-69.72,0.0,-16.7,0,5,,10.0,30.318897,1027.0,,TRUE,TRUE,,,,,,,CLR,,,,,,,,VFR,,,,,,,,,,,,METAR,20.0
KOVS 270053Z AUTO 18003KT 9SM CLR 07/M08 A3032 RMK AO2 SLP276 T00671078,KOVS,2019-03-27T00:53:00Z,43.15,-90.68,6.7,-7.8,180,3,,9.0,30.318897,1027.6,,TRUE,TRUE,,,,,,,CLR,,,,,,,,VFR,,,,,,,,,,,,METAR,202.0
KLKV 270053Z AUTO 23006KT 10SM BKN015 BKN020 BKN030 05/02 A2994 RMK AO2 RAE20 SLP157 P0000 T00500022,KLKV,2019-03-27T00:53:00Z,42.17,-120.4,5.0,2.2,230,6,,10.0,29.940945,1015.7,,TRUE,TRUE,,,,,,,BKN,1500,BKN,2000,BKN,3000,,,MVFR,,,,,,0.005,,,,,,METAR,1441.0
KHLC 270053Z AUTO 17008KT 10SM CLR 16/08 A3010 RMK AO2 SLP195 T01610078,KHLC,2019-03-27T00:53:00Z,39.37,-99.83,16.1,7.8,170,8,,10.0,30.100393,1019.5,,TRUE,TRUE,,,,,,,CLR,,,,,,,,VFR,,,,,,,,,,,,METAR,669.0
KGFL 270053Z AUTO 36005KT 10SM CLR 01/M16 A3036 RMK AO2 SLP290 T00061161,KGFL,2019-03-27T00:53:00Z,43.33,-73.62,0.6,-16.1,360,5,,10.0,30.360237,1029.0,,TRUE,TRUE,,,,,,,CLR,,,,,,,,VFR,,,,,,,,,,,,METAR,103.0
KGAG 270053Z AUTO 16011KT 7SM CLR 16/07 A3018 RMK AO2 SLP216 T01610067,KGAG,2019-03-27T00:53:00Z,36.3,-99.77,16.1,6.7,160,11,,7.0,30.180119,1021.6,,TRUE,TRUE,,,,,,,CLR,,,,,,,,VFR,,,,,,,,,,,,METAR,668.0
KBVO 270053Z 17004KT 10SM CLR 13/05 A3028 RMK AO2 SLP252 T01330050,KBVO,2019-03-27T00:53:00Z,36.77,-96.02,13.3,5.0,170,4,,10.0,30.280512,1025.2,,,TRUE,,,,,,,CLR,,,,,,,,VFR,,,,,,,,,,,,METAR,210.0
KPMP 270053Z AUTO 00000KT 7SM VCTS FEW049 SCT060 22/19 A2997 RMK AO2 LTG DSNT E-SW RAE15 TSE03 SLP148 P0000 T02170194,KPMP,2019-03-27T00:53:00Z,26.25,-80.12,21.7,19.4,0,0,,7.0,29.970472,1014.8,,TRUE,TRUE,,,,,,VCTS,FEW,4900,SCT,6000,,,,,VFR,,,,,,0.005,,,,,,METAR,6.0
KPMD 270053Z 27013KT 10SM CLR 19/M02 A2996 RMK AO2 SLP137 T01941022,KPMD,2019-03-27T00:53:00Z,34.63,-118.08,19.4,-2.2,270,13,,10.0,29.958662,1013.7,,,TRUE,,,,,,,CLR,,,,,,,,VFR,,,,,,,,,,,,METAR,780.0
KPKD 270053Z AUTO 17007KT 10SM OVC020 03/M01 A3008 RMK AO2 SLP209 T00331011,KPKD,2019-03-27T00:53:00Z,46.9,-95.07,3.3,-1.1,170,7,,10.0,30.079725,1020.9,,TRUE,TRUE,,,,,,,OVC,2000,,,,,,,MVFR,,,,,,,,,,,,METAR,442.0
KPKB 270053Z 03004KT 10SM CLR 06/M12 A3037 RMK AO2 SLP290 T00611122,KPKB,2019-03-27T00:53:00Z,39.35,-81.42,6.1,-12.2,30,4,,10.0,30.369095,1029.0,,,TRUE,,,,,,,CLR,,,,,,,,VFR,,,,,,,,,,,,METAR,262.0
KPIR 270053Z AUTO 14011KT 10SM CLR 09/05 A2987 RMK AO2 SLP124 T00890050,KPIR,2019-03-27T00:53:00Z,44.38,-100.28,8.9,5.0,140,11,,10.0,29.870079,1012.4,,TRUE,TRUE,,,,,,,CLR,,,,,,,,VFR,,,,,,,,,,,,METAR,526.0
KPIL 270053Z AUTO 09010KT 8SM FEW012 BKN100 OVC120 21/18 A3020 RMK AO2 SLP224 T02110183,KPIL,2019-03-27T00:53:00Z,26.17,-97.33,21.1,18.3,90,10,,8.0,30.200787,1022.4,,TRUE,TRUE,,,,,,,FEW,1200,BKN,10000,OVC,12000,,,VFR,,,,,,,,,,,,METAR,5.0
KPIH 270053Z 00000KT 10SM CLR 14/M01 A2996 RMK AO2 SLP142 T01441006,KPIH,2019-03-27T00:53:00Z,42.92,-112.57,14.4,-0.6,0,0,,10.0,29.958662,1014.2,,,TRUE,,,,,,,CLR,,,,,,,,VFR,,,,,,,,,,,,METAR,1359.0
KPIE 270053Z 30006KT 10SM CLR 19/16 A3003 RMK AO2 SLP168 T01890156,KPIE,2019-03-27T00:53:00Z,27.92,-82.68,18.9,15.6,300,6,,10.0,30.029528,1016.8,,,TRUE,,,,,,,CLR,,,,,,,,VFR,,,,,,,,,,,,METAR,4.0
KPHD 270053Z AUTO 00000KT 10SM CLR 02/M07 A3037 RMK AO2 SLP295 T00221072,KPHD,2019-03-27T00:53:00Z,40.47,-81.42,2.2,-7.2,0,0,,10.0,30.369095,1029.5,,TRUE,TRUE,,,,,,,CLR,,,,,,,,VFR,,,,,,,,,,,,METAR,272.0
KPGD 270053Z AUTO 30008KT 10SM CLR 22/16 A3003 RMK AO2 SLP169 T02170161,KPGD,2019-03-27T00:53:00Z,26.92,-82.0,21.7,16.1,300,8,,10.0,30.029528,1016.9,,TRUE,TRUE,,,,,,,CLR,,,,,,,,VFR,,,,,,,,,,,,METAR,7.0
KPGA 270053Z AUTO 10004KT 10SM CLR 19/M04 A2999 RMK AO2 SLP120 T01941039 TSNO,KPGA,2019-03-27T00:53:00Z,36.92,-111.45,19.4,-3.9,100,4,,10.0,29.991142,1012.0,,TRUE,TRUE,,,TRUE,,,,CLR,,,,,,,,VFR,,,,,,,,,,,,METAR,1307.0
KPEO 270053Z AUTO 00000KT 10SM CLR M02/M14 A3041 RMK AO2 SLP310 T10171139,KPEO,2019-03-27T00:53:00Z,42.65,-77.05,-1.7,-13.9,0,0,,10.0,30.410433,1031.0,,TRUE,TRUE,,,,,,,CLR,,,,,,,,VFR,,,,,,,,,,,,METAR,256.0
KPDX 270053Z 29007KT 10SM FEW045 BKN250 14/02 A2996 RMK AO2 SLP145 T01440022,KPDX,2019-03-27T00:53:00Z,45.6,-122.62,14.4,2.2,290,7,,10.0,29.958662,1014.5,,,TRUE,,,,,,,FEW,4500,BKN,25000,,,,,VFR,,,,,,,,,,,,METAR,7.0
KPDT 270053Z 31004KT 10SM CLR 12/01 A2997 RMK AO2 SLP147 T01220011,KPDT,2019-03-27T00:53:00Z,45.7,-118.83,12.2,1.1,310,4,,10.0,29.970472,1014.7,,,TRUE,,,,,,,CLR,,,,,,,,VFR,,,,,,,,,,,,METAR,462.0
KPDK 270053Z 35011KT 9SM FEW022 OVC031 12/09 A3016 RMK AO2 SLP215 T01170094,KPDK,2019-03-27T00:53:00Z,33.88,-84.3,11.7,9.4,350,11,,9.0,30.159449,1021.5,,,TRUE,,,,,,,FEW,2200,OVC,3100,,,,,VFR,,,,,,,,,,,,METAR,302.0
KPBI 270053Z 12005KT 10SM SCT045 SCT100 SCT250 23/16 A2997 RMK AO2 SLP149 T02280161 $,KPBI,2019-03-27T00:53:00Z,26.68,-80.1,22.8,16.1,120,5,,10.0,29.970472,1014.9,,,TRUE,TRUE,,,,,,SCT,4500,SCT,10000,SCT,25000,,,VFR,,,,,,,,,,,,METAR,6.0
KPBG 270053Z AUTO 00000KT 10SM CLR M01/M17 A3038 RMK AO2 SLP292 T10061167,KPBG,2019-03-27T00:53:00Z,44.65,-73.47,-0.6,-16.7,0,0,,10.0,30.380905,1029.2,,TRUE,TRUE,,,,,,,CLR,,,,,,,,VFR,,,,,,,,,,,,METAR,72.0
KPBF 270053Z AUTO 07005KT 10SM CLR 12/06 A3030 RMK AO2 SLP260 T01170056,KPBF,2019-03-27T00:53:00Z,34.18,-91.93,11.7,5.6,70,5,,10.0,30.301182,1026.0,,TRUE,TRUE,,,,,,,CLR,,,,,,,,VFR,,,,,,,,,,,,METAR,62.0
KPAH 270053Z 01007KT 10SM CLR 07/M05 A3035 RMK AO2 SLP278 T00671050,KPAH,2019-03-27T00:53:00Z,37.07,-88.77,6.7,-5.0,10,7,,10.0,30.351377,1027.8,,,TRUE,,,,,,,CLR,,,,,,,,VFR,,,,,,,,,,,,METAR,119.0
KPAE 270053Z 29006KT 10SM CLR 12/01 A3003 RMK AO2 SLP172 T01220011,KPAE,2019-03-27T00:53:00Z,47.92,-122.28,12.2,1.1,290,6,,10.0,30.029528,1017.2,,,TRUE,,,,,,,CLR,,,,,,,,VFR,,,,,,,,,,,,METAR,180.0
KOXB 270053Z AUTO 05005KT 10SM CLR 04/M04 A3034 RMK AO2 SLP275 T00391039,KOXB,2019-03-27T00:53:00Z,38.32,-75.12,3.9,-3.9,50,5,,10.0,30.339567,1027.5,,TRUE,TRUE,,,,,,,CLR,,,,,,,,VFR,,,,,,,,,,,,METAR,3.0
KLAX 270053Z 27012KT 10SM FEW150 FEW200 SCT250 16/11 A2996 RMK AO2 SLP144 T01610106,KLAX,2019-03-27T00:53:00Z,33.93,-118.38,16.1,10.6,270,12,,10.0,29.958662,1014.4,,,TRUE,,,,,,,FEW,15000,FEW,20000,SCT,25000,,,VFR,,,,,,,,,,,,METAR,46.0
KLAW 270053Z AUTO 15005KT 10SM CLR 17/06 A3024 RMK AO2 SLP239 T01720061,KLAW,2019-03-27T00:53:00Z,34.55,-98.42,17.2,6.1,150,5,,10.0,30.239174,1023.9,,TRUE,TRUE,,,,,,,CLR,,,,,,,,VFR,,,,,,,,,,,,METAR,337.0
KLAR 270053Z AUTO 20011KT 10SM CLR 09/M05 A3006 RMK AO2 SLP147 T00941050,KLAR,2019-03-27T00:53:00Z,41.32,-105.67,9.4,-5.0,200,11,,10.0,30.059055,1014.7,,TRUE,TRUE,,,,,,,CLR,,,,,,,,VFR,,,,,,,,,,,,METAR,2216.0
KLAN 270053Z 00000KT 10SM CLR 02/M08 A3040 RMK AO2 SLP305 T00221083,KLAN,2019-03-27T00:53:00Z,42.78,-84.58,2.2,-8.3,0,0,,10.0,30.398623,1030.5,,,TRUE,,,,,,,CLR,,,,,,,,VFR,,,,,,,,,,,,METAR,264.0
KLAA 270053Z AUTO 13014KT 10SM CLR 19/06 A2997 RMK AO2 SLP126 T01940061,KLAA,2019-03-27T00:53:00Z,38.07,-102.68,19.4,6.1,130,14,,10.0,29.970472,1012.6,,TRUE,TRUE,,,,,,,CLR,,,,,,,,VFR,,,,,,,,,,,,METAR,1119.0
KJLN 270053Z 06003KT 10SM CLR 14/03 A3029 RMK AO2 SLP259 T01390033,KJLN,2019-03-27T00:53:00Z,37.15,-94.5,13.9,3.3,60,3,,10.0,30.28937,1025.9,,,TRUE,,,,,,,CLR,,,,,,,,VFR,,,,,,,,,,,,METAR,299.0
KJKL 270053Z AUTO 03005KT 10SM CLR 06/M10 A3029 RMK AO2 SLP265 T00611100,KJKL,2019-03-27T00:53:00Z,37.6,-83.32,6.1,-10.0,30,5,,10.0,30.28937,1026.5,,TRUE,TRUE,,,,,,,CLR,,,,,,,,VFR,,,,,,,,,,,,METAR,416.0
KJER 270053Z AUTO 32005KT 10SM CLR 15/M02 A2993 RMK AO2 SLP129 T01501017,KJER,2019-03-27T00:53:00Z,42.72,-114.45,15.0,-1.7,320,5,,10.0,29.929134,1012.9,,TRUE,TRUE,,,,,,,CLR,,,,,,,,VFR,,,,,,,,,,,,METAR,1222.0
KJEF 270053Z 07004KT 10SM CLR 12/M06 A3032 RMK AO2 SLP261 T01221061,KJEF,2019-03-27T00:53:00Z,38.6,-92.15,12.2,-6.1,70,4,,10.0,30.318897,1026.1,,,TRUE,,,,,,,CLR,,,,,,,,VFR,,,,,,,,,,,,METAR,168.0
KJBR 270053Z AUTO 05006KT 10SM CLR 09/02 A3032 RMK AO2 SLP268 T00890022,KJBR,2019-03-27T00:53:00Z,35.83,-90.65,8.9,2.2,50,6,,10.0,30.318897,1026.8,,TRUE,TRUE,,,,,,,CLR,,,,,,,,VFR,,,,,,,,,,,,METAR,79.0
KIXD 270053Z 13006KT 10SM CLR 13/04 A3026 RMK AO2 SLP250 T01330044,KIXD,2019-03-27T00:53:00Z,38.82,-94.88,13.3,4.4,130,6,,10.0,30.259842,1025.0,,,TRUE,,,,,,,CLR,,,,,,,,VFR,,,,,,,,,,,,METAR,342.0
KNUI 270053Z AUTO 04006KT 10SM CLR 06/M07 A3034 RMK AO2 SLP272 T00611067 $,KNUI,2019-03-27T00:53:00Z,38.15,-76.43,6.1,-6.7,40,6,,10.0,30.339567,1027.2,,TRUE,TRUE,TRUE,,,,,,CLR,,,,,,,,VFR,,,,,,,,,,,,METAR,7.0
KUNO 270053Z AUTO 04003KT 10SM CLR 12/M01 A3032 RMK AO2 SLP267 T01171006,KUNO,2019-03-27T00:53:00Z,36.88,-91.9,11.7,-0.6,40,3,,10.0,30.318897,1026.7,,TRUE,TRUE,,,,,,,CLR,,,,,,,,VFR,,,,,,,,,,,,METAR,372.0
KFOZ 270053Z AUTO 19005KT 10SM SCT033 OVC046 03/M03 A3013 RMK AO2,KFOZ,2019-03-27T00:53:00Z,47.77,-93.65,3.0,-3.0,190,5,,10.0,30.129921,,,TRUE,TRUE,,,,,,,SCT,3300,OVC,4600,,,,,VFR,,,,,,,,,,,,METAR,411.0
KMWT 270053Z AUTO 00000KT 10SM CLR 14/06 A3027 RMK AO2 SLP253 T01390061 $,KMWT,2019-03-27T00:53:00Z,34.55,-93.58,13.9,6.1,0,0,,10.0,30.268702,1025.3,,TRUE,TRUE,TRUE,,,,,,CLR,,,,,,,,VFR,,,,,,,,,,,,METAR,214.0
KSDB 270053Z AUTO 17015G21KT 10SM CLR 13/M06 A3002 RMK AO2 PK WND 18026/0032 SLP136 T01281056 $,KSDB,2019-03-27T00:53:00Z,34.75,-118.72,12.8,-5.6,170,15,21,10.0,30.02067,1013.6,,TRUE,TRUE,TRUE,,,,,,CLR,,,,,,,,VFR,,,,,,,,,,,,METAR,1377.0
KPRB 270053Z AUTO 21009KT 10SM CLR 20/10 A2993 RMK AO2 SLP133 T02000100 $,KPRB,2019-03-27T00:53:00Z,35.67,-120.63,20.0,10.0,210,9,,10.0,29.929134,1013.3,,TRUE,TRUE,TRUE,,,,,,CLR,,,,,,,,VFR,,,,,,,,,,,,METAR,245.0
KPQL 270053Z AUTO 36008KT 6SM HZ BKN049 14/07 A3019 RMK AO2 SLP225 T01390072,KPQL,2019-03-27T00:53:00Z,30.47,-88.53,13.9,7.2,360,8,,6.0,30.188976,1022.5,,TRUE,TRUE,,,,,,HZ,BKN,4900,,,,,,,VFR,,,,,,,,,,,,METAR,6.0
KPOU 270053Z 00000KT 10SM CLR 02/M16 A3034 RMK AO2 SLP272 T00221156,KPOU,2019-03-27T00:53:00Z,41.63,-73.88,2.2,-15.6,0,0,,10.0,30.339567,1027.2,,,TRUE,,,,,,,CLR,,,,,,,,VFR,,,,,,,,,,,,METAR,46.0
KPOF 270053Z AUTO 07007KT 10SM CLR 10/M02 A3033 RMK AO2 SLP274 T01001017,KPOF,2019-03-27T00:53:00Z,36.77,-90.32,10.0,-1.7,70,7,,10.0,30.33071,1027.4,,TRUE,TRUE,,,,,,,CLR,,,,,,,,VFR,,,,,,,,,,,,METAR,99.0
KPNS 270053Z 31005KT 10SM FEW045 12/07 A3016 RMK AO2 SLP215 T01220072,KPNS,2019-03-27T00:53:00Z,30.48,-87.18,12.2,7.2,310,5,,10.0,30.159449,1021.5,,,TRUE,,,,,,,FEW,4500,,,,,,,VFR,,,,,,,,,,,,METAR,38.0
KPNC 270053Z AUTO 17006KT 10SM CLR 17/04 A3024 RMK AO2 SLP239 T01670044,KPNC,2019-03-27T00:53:00Z,36.73,-97.1,16.7,4.4,170,6,,10.0,30.239174,1023.9,,TRUE,TRUE,,,,,,,CLR,,,,,,,,VFR,,,,,,,,,,,,METAR,308.0
KPSC 270053Z 31003KT 10SM CLR 16/M04 A2999 RMK AO2 SLP156 T01561044,KPSC,2019-03-27T00:53:00Z,46.27,-119.12,15.6,-4.4,310,3,,10.0,29.991142,1015.6,,,TRUE,,,,,,,CLR,,,,,,,,VFR,,,,,,,,,,,,METAR,121.0
KPRC 270053Z 22008KT 10SM CLR 19/M07 A3007 RMK AO2 SLP138 T01891072,KPRC,2019-03-27T00:53:00Z,34.65,-112.42,18.9,-7.2,220,8,,10.0,30.070866,1013.8,,,TRUE,,,,,,,CLR,,,,,,,,VFR,,,,,,,,,,,,METAR,1524.0
KFPR 270053Z 05003KT 10SM FEW024 FEW065 22/17 A2999 RMK AO2 SLP154 T02170172,KFPR,2019-03-27T00:53:00Z,27.5,-80.38,21.7,17.2,50,3,,10.0,29.991142,1015.4,,,TRUE,,,,,,,FEW,2400,FEW,6500,,,,,VFR,,,,,,,,,,,,METAR,13.0
KFRG 270053Z 02011KT 10SM CLR 04/M14 A3032 RMK AO2 SLP269 T00441144,KFRG,2019-03-27T00:53:00Z,40.73,-73.42,4.4,-14.4,20,11,,10.0,30.318897,1026.9,,,TRUE,,,,,,,CLR,,,,,,,,VFR,,,,,,,,,,,,METAR,21.0
KFSM 270053Z 27005KT 10SM CLR 16/06 A3027 RMK AO2 SLP252 T01560056,KFSM,2019-03-27T00:53:00Z,35.33,-94.37,15.6,5.6,270,5,,10.0,30.268702,1025.2,,,TRUE,,,,,,,CLR,,,,,,,,VFR,,,,,,,,,,,,METAR,140.0
KFST 270053Z AUTO 14018G27KT 10SM CLR 21/12 A3014 RMK AO2 PK WND 14030/0030 SLP173 T02060117,KFST,2019-03-27T00:53:00Z,30.92,-102.92,20.6,11.7,140,18,27,10.0,30.138779,1017.3,,TRUE,TRUE,,,,,,,CLR,,,,,,,,VFR,,,,,,,,,,,,METAR,918.0
KGGW 270053Z AUTO 02007KT 10SM CLR 11/06 A2976 RMK AO2 SLP091 T01110056,KGGW,2019-03-27T00:53:00Z,48.22,-106.62,11.1,5.6,20,7,,10.0,29.760826,1009.1,,TRUE,TRUE,,,,,,,CLR,,,,,,,,VFR,,,,,,,,,,,,METAR,694.0
KFUL 270053Z COR 21005KT 10SM CLR 21/05 A2993 RMK AO2 SLP135 T02060050,KFUL,2019-03-27T00:53:00Z,33.87,-117.98,20.6,5.0,210,5,,10.0,29.929134,1013.5,TRUE,,TRUE,,,,,,,CLR,,,,,,,,VFR,,,,,,,,,,,,METAR,35.0
KFTY 270053Z 31004KT 10SM OVC040 12/11 A3016 RMK AO2 RAE48 SLP210 P0013 T01220106,KFTY,2019-03-27T00:53:00Z,33.78,-84.52,12.2,10.6,310,4,,10.0,30.159449,1021.0,,,TRUE,,,,,,,OVC,4000,,,,,,,VFR,,,,,,0.13,,,,,,METAR,263.0
KFTW 270053Z 10007KT 10SM CLR 18/05 A3025 RMK AO2 SLP240 T01780050,KFTW,2019-03-27T00:53:00Z,32.83,-97.37,17.8,5.0,100,7,,10.0,30.250984,1024.0,,,TRUE,,,,,,,CLR,,,,,,,,VFR,,,,,,,,,,,,METAR,214.0
KFWN 270053Z AUTO 00000KT 10SM CLR 01/M14 A3034 RMK AO2 SLP280 T00111144,KFWN,2019-03-27T00:53:00Z,41.2,-74.63,1.1,-14.4,0,0,,10.0,30.339567,1028.0,,TRUE,TRUE,,,,,,,CLR,,,,,,,,VFR,,,,,,,,,,,,METAR,133.0
KFXE 270053Z 09003KT 10SM VCTS FEW075 FEW100 22/19 A2996 RMK AO2 LTG DSNT E-SW RAE38 TSE09 SLP149 P0001 T02170189,KFXE,2019-03-27T00:53:00Z,26.2,-80.18,21.7,18.9,90,3,,10.0,29.958662,1014.9,,,TRUE,,,,,,VCTS,FEW,7500,FEW,10000,,,,,VFR,,,,,,0.01,,,,,,METAR,6.0
KFYV 270053Z 00000KT 10SM CLR 10/04 A3029 RMK AO2 SLP260 T01000039,KFYV,2019-03-27T00:53:00Z,36.02,-94.17,10.0,3.9,0,0,,10.0,30.28937,1026.0,,,TRUE,,,,,,,CLR,,,,,,,,VFR,,,,,,,,,,,,METAR,379.0
KGCC 270053Z AUTO 00000KT 10SM CLR 09/02 A2986 RMK AO2 SLP112 T00940017,KGCC,2019-03-27T00:53:00Z,44.33,-105.55,9.4,1.7,0,0,,10.0,29.861221,1011.2,,TRUE,TRUE,,,,,,,CLR,,,,,,,,VFR,,,,,,,,,,,,METAR,1320.0
KGEG 270053Z 26006KT 10SM FEW060 BKN200 11/M04 A2999 RMK AO2 SLP161 T01061039,KGEG,2019-03-27T00:53:00Z,47.62,-117.53,10.6,-3.9,260,6,,10.0,29.991142,1016.1,,,TRUE,,,,,,,FEW,6000,BKN,20000,,,,,VFR,,,,,,,,,,,,METAR,735.0
KGEY 270053Z AUTO 15007KT 10SM CLR 18/M06 A2981 RMK AO2 SLP094 T01781061,KGEY,2019-03-27T00:53:00Z,44.52,-108.08,17.8,-6.1,150,7,,10.0,29.811024,1009.4,,TRUE,TRUE,,,,,,,CLR,,,,,,,,VFR,,,,,,,,,,,,METAR,1191.0
KGEZ 270053Z AUTO 05006KT 10SM CLR 04/M04 A3036 RMK AO2 SLP290 T00391044,KGEZ,2019-03-27T00:53:00Z,39.58,-85.8,3.9,-4.4,50,6,,10.0,30.360237,1029.0,,TRUE,TRUE,,,,,,,CLR,,,,,,,,VFR,,,,,,,,,,,,METAR,245.0
KGFK 270053Z 18014KT 10SM OVC009 01/M01 A3000 RMK AO2 SLP171 T00111011,KGFK,2019-03-27T00:53:00Z,47.95,-97.18,1.1,-1.1,180,14,,10.0,30.0,1017.1,,,TRUE,,,,,,,OVC,900,,,,,,,IFR,,,,,,,,,,,,METAR,258.0
KGGG 270053Z 06005KT 10SM CLR 17/07 A3026 RMK AO2 SLP247 T01670067,KGGG,2019-03-27T00:53:00Z,32.38,-94.72,16.7,6.7,60,5,,10.0,30.259842,1024.7,,,TRUE,,,,,,,CLR,,,,,,,,VFR,,,,,,,,,,,,METAR,107.0
KCDC 270053Z AUTO 21013KT 10SM CLR 13/M07 A3001 RMK AO2 SLP139 T01331072,KCDC,2019-03-27T00:53:00Z,37.7,-113.1,13.3,-7.2,210,13,,10.0,30.008858,1013.9,,TRUE,TRUE,,,,,,,CLR,,,,,,,,VFR,,,,,,,,,,,,METAR,1714.0
PHKO 270053Z 21011KT 10SM FEW065 27/17 A2994 RMK AO2 SLP139 T02720172,PHKO,2019-03-27T00:53:00Z,19.73,-156.05,27.2,17.2,210,11,,10.0,29.940945,1013.9,,,TRUE,,,,,,,FEW,6500,,,,,,,VFR,,,,,,,,,,,,METAR,27.0
PHTO 270053Z 04008KT 10SM CLR 26/16 A2999 RMK AO2 SLP153 T02560161,PHTO,2019-03-27T00:53:00Z,19.72,-155.05,25.6,16.1,40,8,,10.0,29.991142,1015.3,,,TRUE,,,,,,,CLR,,,,,,,,VFR,,,,,,,,,,,,METAR,12.0
KUTS 270053Z AUTO 00000KT 10SM CLR 19/10 A3024 RMK AO2 SLP236 T01890100,KUTS,2019-03-27T00:53:00Z,30.75,-95.58,18.9,10.0,0,0,,10.0,30.239174,1023.6,,TRUE,TRUE,,,,,,,CLR,,,,,,,,VFR,,,,,,,,,,,,METAR,104.0
PHLI 270053Z 12009KT 10SM FEW023 BKN050 OVC060 24/19 A3000 RMK AO2 SLP156 T02440189,PHLI,2019-03-27T00:53:00Z,21.97,-159.33,24.4,18.9,120,9,,10.0,30.0,1015.6,,,TRUE,,,,,,,FEW,2300,BKN,5000,OVC,6000,,,VFR,,,,,,,,,,,,METAR,45.0
KSAF 270053Z 24004KT 10SM CLR 17/M06 A3015 RMK AO2 SLP160 T01721061,KSAF,2019-03-27T00:53:00Z,35.62,-106.1,17.2,-6.1,240,4,,10.0,30.15059,1016.0,,,TRUE,,,,,,,CLR,,,,,,,,VFR,,,,,,,,,,,,METAR,1930.0
KSBA 270053Z 27009KT 10SM CLR 16/13 A2997 RMK AO2 SLP148 T01560128,KSBA,2019-03-27T00:53:00Z,34.43,-119.85,15.6,12.8,270,9,,10.0,29.970472,1014.8,,,TRUE,,,,,,,CLR,,,,,,,,VFR,,,,,,,,,,,,METAR,3.0
KSAC 270053Z 16004KT 10SM FEW041 SCT090 BKN110 18/09 A2994 RMK AO2 SLP138 T01830094,KSAC,2019-03-27T00:53:00Z,38.5,-121.5,18.3,9.4,160,4,,10.0,29.940945,1013.8,,,TRUE,,,,,,,FEW,4100,SCT,9000,BKN,11000,,,VFR,,,,,,,,,,,,METAR,11.0
KSEG 270053Z AUTO 02005KT 10SM CLR 01/M08 A3036 RMK AO2 SLP286 T00061078,KSEG,2019-03-27T00:53:00Z,40.82,-76.87,0.6,-7.8,20,5,,10.0,30.360237,1028.6,,TRUE,TRUE,,,,,,,CLR,,,,,,,,VFR,,,,,,,,,,,,METAR,134.0
KSFB 270053Z 03006KT 10SM CLR 18/15 A3003 RMK AO2 SLP167 T01780150,KSFB,2019-03-27T00:53:00Z,28.77,-81.22,17.8,15.0,30,6,,10.0,30.029528,1016.7,,,TRUE,,,,,,,CLR,,,,,,,,VFR,,,,,,,,,,,,METAR,17.0
KSDM 270053Z 30004KT 10SM CLR 16/11 A2996 RMK AO2 SLP143 T01610111,KSDM,2019-03-27T00:53:00Z,32.58,-117.0,16.1,11.1,300,4,,10.0,29.958662,1014.3,,,TRUE,,,,,,,CLR,,,,,,,,VFR,,,,,,,,,,,,METAR,159.0
KSDL 270053Z 25004KT 10SM CLR 28/M03 A2990 RMK AO2 SLP107 T02831033,KSDL,2019-03-27T00:53:00Z,33.62,-111.92,28.3,-3.3,250,4,,10.0,29.899607,1010.7,,,TRUE,,,,,,,CLR,,,,,,,,VFR,,,,,,,,,,,,METAR,447.0
KSHR 270053Z AUTO 13006KT 10SM CLR 16/M08 A2983 RMK AO2 SLP105 T01611083,KSHR,2019-03-27T00:53:00Z,44.77,-106.97,16.1,-8.3,130,6,,10.0,29.828741,1010.5,,TRUE,TRUE,,,,,,,CLR,,,,,,,,VFR,,,,,,,,,,,,METAR,1202.0
KSHN 270053Z AUTO 36006KT 10SM CLR 14/01 A2999 RMK AO2 SLP158 T01440011,KSHN,2019-03-27T00:53:00Z,47.23,-123.13,14.4,1.1,360,6,,10.0,29.991142,1015.8,,TRUE,TRUE,,,,,,,CLR,,,,,,,,VFR,,,,,,,,,,,,METAR,82.0
KSEA 270053Z 29005KT 10SM FEW030 SCT250 14/00 A3002 RMK AO2 SLP172 T01390000,KSEA,2019-03-27T00:53:00Z,47.45,-122.32,13.9,0.0,290,5,,10.0,30.02067,1017.2,,,TRUE,,,,,,,FEW,3000,SCT,25000,,,,,VFR,,,,,,,,,,,,METAR,136.0
KSGR 270053Z 35006KT 10SM CLR 21/09 A3020 RMK AO2 SLP229 T02110094,KSGR,2019-03-27T00:53:00Z,29.62,-95.65,21.1,9.4,350,6,,10.0,30.200787,1022.9,,,TRUE,,,,,,,CLR,,,,,,,,VFR,,,,,,,,,,,,METAR,2.0
KSJC 270053Z 20003KT 10SM FEW032 SCT050 BKN075 19/07 A2992 RMK AO2 SLP129 T01890072,KSJC,2019-03-27T00:53:00Z,37.37,-121.92,18.9,7.2,200,3,,10.0,29.920275,1012.9,,,TRUE,,,,,,,FEW,3200,SCT,5000,BKN,7500,,,VFR,,,,,,,,,,,,METAR,24.0
KSIY 270053Z AUTO 18016G23KT 10SM CLR 12/01 A2990 RMK AO2 SLP139 T01170006,KSIY,2019-03-27T00:53:00Z,41.77,-122.47,11.7,0.6,180,16,23,10.0,29.899607,1013.9,,TRUE,TRUE,,,,,,,CLR,,,,,,,,VFR,,,,,,,,,,,,METAR,807.0
KSMQ 270053Z AUTO 35004KT 10SM CLR 05/M18 A3033 RMK AO2 SLP271 T00501183,KSMQ,2019-03-27T00:53:00Z,40.62,-74.67,5.0,-18.3,350,4,,10.0,30.33071,1027.1,,TRUE,TRUE,,,,,,,CLR,,,,,,,,VFR,,,,,,,,,,,,METAR,30.0
KSLN 270053Z 17011KT 10SM CLR 14/07 A3019 RMK AO2 SLP224 T01440067,KSLN,2019-03-27T00:53:00Z,38.78,-97.65,14.4,6.7,170,11,,10.0,30.188976,1022.4,,,TRUE,,,,,,,CLR,,,,,,,,VFR,,,,,,,,,,,,METAR,385.0
KSNA 270053Z 22006KT 10SM FEW180 FEW250 19/07 A2995 RMK AO2 SLP142 T01890072,KSNA,2019-03-27T00:53:00Z,33.67,-117.87,18.9,7.2,220,6,,10.0,29.949802,1014.2,,,TRUE,,,,,,,FEW,18000,FEW,25000,,,,,VFR,,,,,,,,,,,,METAR,16.0
KSMF 270053Z 21007KT 10SM FEW045 SCT090 BKN110 BKN250 17/10 A2994 RMK AO2 SLP137 T01720100,KSMF,2019-03-27T00:53:00Z,38.7,-121.6,17.2,10.0,210,7,,10.0,29.940945,1013.7,,,TRUE,,,,,,,FEW,4500,SCT,9000,BKN,11000,BKN,25000,VFR,,,,,,,,,,,,METAR,6.0
KSNS 270053Z 30008KT 10SM BKN110 18/10 A2992 RMK AO2 SLP141 T01780100,KSNS,2019-03-27T00:53:00Z,36.67,-121.6,17.8,10.0,300,8,,10.0,29.920275,1014.1,,,TRUE,,,,,,,BKN,11000,,,,,,,VFR,,,,,,,,,,,,METAR,30.0
KSNY 270053Z AUTO 16007KT 10SM CLR 12/02 A3000 RMK AO2 SLP159 T01170017,KSNY,2019-03-27T00:53:00Z,41.1,-102.98,11.7,1.7,160,7,,10.0,30.0,1015.9,,TRUE,TRUE,,,,,,,CLR,,,,,,,,VFR,,,,,,,,,,,,METAR,1307.0
KSPB 270053Z AUTO 26003KT 10SM CLR 16/M02 A2996 RMK AO2 SLP144 T01561017,KSPB,2019-03-27T00:53:00Z,45.77,-122.87,15.6,-1.7,260,3,,10.0,29.958662,1014.4,,TRUE,TRUE,,,,,,,CLR,,,,,,,,VFR,,,,,,,,,,,,METAR,14.0
KSPG 270053Z AUTO 33007KT 10SM CLR 21/15 A3001 RMK AO2 SLP162 T02110150,KSPG,2019-03-27T00:53:00Z,27.77,-82.63,21.1,15.0,330,7,,10.0,30.008858,1016.2,,TRUE,TRUE,,,,,,,CLR,,,,,,,,VFR,,,,,,,,,,,,METAR,2.0
KSRQ 270053Z 33007KT 10SM CLR 21/16 A3001 RMK AO2 SLP162 T02060161,KSRQ,2019-03-27T00:53:00Z,27.4,-82.57,20.6,16.1,330,7,,10.0,30.008858,1016.2,,,TRUE,,,,,,,CLR,,,,,,,,VFR,,,,,,,,,,,,METAR,18.0
KSSF 270053Z 10005KT 10SM CLR 23/07 A3019 RMK AO2 SLP216 T02280067,KSSF,2019-03-27T00:53:00Z,29.33,-98.47,22.8,6.7,100,5,,10.0,30.188976,1021.6,,,TRUE,,,,,,,CLR,,,,,,,,VFR,,,,,,,,,,,,METAR,176.0
KSTC 270053Z AUTO 15006KT 10SM BKN028 OVC035 06/02 A3015 RMK AO2 SLP232 T00560022,KSTC,2019-03-27T00:53:00Z,45.55,-94.05,5.6,2.2,150,6,,10.0,30.15059,1023.2,,TRUE,TRUE,,,,,,,BKN,2800,OVC,3500,,,,,MVFR,,,,,,,,,,,,METAR,314.0
KSPW 270053Z AUTO 16010KT 10SM CLR 09/05 A3015 RMK AO2 SLP222 T00890050,KSPW,2019-03-27T00:53:00Z,43.17,-95.22,8.9,5.0,160,10,,10.0,30.15059,1022.2,,TRUE,TRUE,,,,,,,CLR,,,,,,,,VFR,,,,,,,,,,,,METAR,403.0
KSSI 270053Z AUTO 05018G28KT 10SM OVC014 16/12 A3009 RMK AO2 PK WND 04028/0051 SLP191 T01560117,KSSI,2019-03-27T00:53:00Z,31.15,-81.38,15.6,11.7,50,18,28,10.0,30.088583,1019.1,,TRUE,TRUE,,,,,,,OVC,1400,,,,,,,MVFR,,,,,,,,,,,,METAR,6.0
KSTJ 270053Z AUTO 14008KT 10SM CLR 13/06 A3025 RMK AO2 SLP244 T01280056,KSTJ,2019-03-27T00:53:00Z,39.77,-94.92,12.8,5.6,140,8,,10.0,30.250984,1024.4,,TRUE,TRUE,,,,,,,CLR,,,,,,,,VFR,,,,,,,,,,,,METAR,247.0
KSTP 270053Z 18006KT 10SM OVC036 08/01 A3022 RMK AO2 SLP237 T00830011,KSTP,2019-03-27T00:53:00Z,44.93,-93.05,8.3,1.1,180,6,,10.0,30.221457,1023.7,,,TRUE,,,,,,,OVC,3600,,,,,,,VFR,,,,,,,,,,,,METAR,219.0
KSFF 270053Z VRB06KT 10SM FEW065 12/M03 A2999 RMK AO2 SLP158 T01221028,KSFF,2019-03-27T00:53:00Z,47.68,-117.32,12.2,-2.8,0,6,,10.0,29.991142,1015.8,,,TRUE,,,,,,,FEW,6500,,,,,,,VFR,,,,,,,,,,,,METAR,609.0
KSTS 270053Z 23005KT 10SM SCT050 BKN100 16/06 A2992 RMK AO2 SLP126 T01610061,KSTS,2019-03-27T00:53:00Z,38.5,-122.82,16.1,6.1,230,5,,10.0,29.920275,1012.6,,,TRUE,,,,,,,SCT,5000,BKN,10000,,,,,VFR,,,,,,,,,,,,METAR,39.0
KUUU 270053Z AUTO 00000KT 10SM CLR M01/M06 A3031 RMK AO2 SLP263 T10061056,KUUU,2019-03-27T00:53:00Z,41.53,-71.28,-0.6,-5.6,0,0,,10.0,30.31004,1026.3,,TRUE,TRUE,,,,,,,CLR,,,,,,,,VFR,,,,,,,,,,,,METAR,51.0
KVCB 270053Z AUTO 23004KT 10SM FEW045 SCT075 OVC090 18/09 A2995 RMK AO2 SLP141 T01780089,KVCB,2019-03-27T00:53:00Z,38.38,-121.95,17.8,8.9,230,4,,10.0,29.949802,1014.1,,TRUE,TRUE,,,,,,,FEW,4500,SCT,7500,OVC,9000,,,VFR,,,,,,,,,,,,METAR,33.0
KVEL 270053Z AUTO 00000KT 10SM CLR 12/M04 A3004 RMK AO2 SLP163 T01221039,KVEL,2019-03-27T00:53:00Z,40.45,-109.52,12.2,-3.9,0,0,,10.0,30.041338,1016.3,,TRUE,TRUE,,,,,,,CLR,,,,,,,,VFR,,,,,,,,,,,,METAR,1604.0
KVGT 270053Z 22009KT 10SM CLR 26/M11 A2988 RMK AO2 SLP120 T02611106,KVGT,2019-03-27T00:53:00Z,36.22,-115.2,26.1,-10.6,220,9,,10.0,29.878937,1012.0,,,TRUE,,,,,,,CLR,,,,,,,,VFR,,,,,,,,,,,,METAR,671.0
KVIH 270053Z AUTO 09004KT 10SM CLR 09/M02 A3033 RMK AO2 SLP273 T00891017,KVIH,2019-03-27T00:53:00Z,38.13,-91.77,8.9,-1.7,90,4,,10.0,30.33071,1027.3,,TRUE,TRUE,,,,,,,CLR,,,,,,,,VFR,,,,,,,,,,,,METAR,333.0
KVLD 270053Z 05008KT 10SM SCT065 SCT090 OVC110 19/11 A3004 RMK AO2 SLP179 T01940111,KVLD,2019-03-27T00:53:00Z,30.78,-83.27,19.4,11.1,50,8,,10.0,30.041338,1017.9,,,TRUE,,,,,,,SCT,6500,SCT,9000,OVC,11000,,,VFR,,,,,,,,,,,,METAR,62.0
KVRB 270053Z 06005KT 10SM FEW110 21/17 A3000 RMK AO2 SLP156 T02110167,KVRB,2019-03-27T00:53:00Z,27.65,-80.42,21.1,16.7,60,5,,10.0,30.0,1015.6,,,TRUE,,,,,,,FEW,11000,,,,,,,VFR,,,,,,,,,,,,METAR,10.0
KSAV 270053Z 05012KT 10SM OVC021 13/09 A3016 RMK AO2 SLP211 T01330089,KSAV,2019-03-27T00:53:00Z,32.12,-81.2,13.3,8.9,50,12,,10.0,30.159449,1021.1,,,TRUE,,,,,,,OVC,2100,,,,,,,MVFR,,,,,,,,,,,,METAR,14.0
KWRL 270053Z AUTO 20011KT 10SM CLR 16/M04 A2983 RMK AO2 SLP098 T01611044,KWRL,2019-03-27T00:53:00Z,43.97,-107.95,16.1,-4.4,200,11,,10.0,29.828741,1009.8,,TRUE,TRUE,,,,,,,CLR,,,,,,,,VFR,,,,,,,,,,,,METAR,1271.0
KVPC 270053Z AUTO 03005KT 10SM -RA OVC047 12/07 A3018 RMK AO2 RAB14E28B46 SLP216 P0000 T01220067,KVPC,2019-03-27T00:53:00Z,34.13,-84.85,12.2,6.7,30,5,,10.0,30.180119,1021.6,,TRUE,TRUE,,,,,,-RA,OVC,4700,,,,,,,VFR,,,,,,0.005,,,,,,METAR,222.0
KVUO 270053Z AUTO 31006KT 10SM CLR 14/01 A2995 RMK AO2 SLP143 T01440011,KVUO,2019-03-27T00:53:00Z,45.62,-122.65,14.4,1.1,310,6,,10.0,29.949802,1014.3,,TRUE,TRUE,,,,,,,CLR,,,,,,,,VFR,,,,,,,,,,,,METAR,8.0
KWST 270053Z AUTO 36005KT 10SM CLR 04/M17 A3032 RMK AO2 SLP267 T00441167,KWST,2019-03-27T00:53:00Z,41.35,-71.8,4.4,-16.7,360,5,,10.0,30.318897,1026.7,,TRUE,TRUE,,,,,,,CLR,,,,,,,,VFR,,,,,,,,,,,,METAR,21.0
KXNA 270053Z 08003KT 10SM CLR 16/02 A3030 RMK AO2 SLP257 T01560017,KXNA,2019-03-27T00:53:00Z,36.28,-94.3,15.6,1.7,80,3,,10.0,30.301182,1025.7,,,TRUE,,,,,,,CLR,,,,,,,,VFR,,,,,,,,,,,,METAR,392.0
KWVI 270053Z AUTO 29004KT 10SM BKN070 OVC100 17/08 A2993 RMK AO2 SLP135 T01720078,KWVI,2019-03-27T00:53:00Z,36.93,-121.78,17.2,7.8,290,4,,10.0,29.929134,1013.5,,TRUE,TRUE,,,,,,,BKN,7000,OVC,10000,,,,,VFR,,,,,,,,,,,,METAR,43.0
KYIP 270053Z 16007KT 10SM CLR 02/M06 A3041 RMK AO2 SLP302 T00221056,KYIP,2019-03-27T00:53:00Z,42.23,-83.53,2.2,-5.6,160,7,,10.0,30.410433,1030.2,,,TRUE,,,,,,,CLR,,,,,,,,VFR,,,,,,,,,,,,METAR,215.0
KYKM 270053Z 19006KT 10SM CLR 14/M03 A2998 RMK AO2 SLP155 T01391028,KYKM,2019-03-27T00:53:00Z,46.57,-120.53,13.9,-2.8,190,6,,10.0,29.97933,1015.5,,,TRUE,,,,,,,CLR,,,,,,,,VFR,,,,,,,,,,,,METAR,324.0
KZZV 270053Z AUTO 35003KT 10SM CLR 04/M08 A3035 RMK AO2 SLP286 T00441083,KZZV,2019-03-27T00:53:00Z,39.95,-81.9,4.4,-8.3,350,3,,10.0,30.351377,1028.6,,TRUE,TRUE,,,,,,,CLR,,,,,,,,VFR,,,,,,,,,,,,METAR,268.0
TISX 270053Z 11005KT 10SM CLR 25/21 A2998 RMK AO2 SLP151 T02500206,TISX,2019-03-27T00:53:00Z,17.7,-64.8,25.0,20.6,110,5,,10.0,29.97933,1015.1,,,TRUE,,,,,,,CLR,,,,,,,,VFR,,,,,,,,,,,,METAR,19.0
TIST 270053Z 13009KT 10SM CLR 26/22 A2997 RMK AO2 SLP150 T02610217,TIST,2019-03-27T00:53:00Z,18.33,-64.98,26.1,21.7,130,9,,10.0,29.970472,1015.0,,,TRUE,,,,,,,CLR,,,,,,,,VFR,,,,,,,,,,,,METAR,7.0
KNQX 270053Z 33007KT 10SM FEW016 24/20 A3001 RMK AO2 SLP162 T02440200,KNQX,2019-03-27T00:53:00Z,24.57,-81.67,24.4,20.0,330,7,,10.0,30.008858,1016.2,,,TRUE,,,,,,,FEW,1600,,,,,,,VFR,,,,,,,,,,,,METAR,2.0
KP68 270053Z AUTO 20010KT 15/M09 A2992 RMK AO1 SLP084 T01501089,KP68,2019-03-27T00:53:00Z,39.6,-116.0,15.0,-8.9,200,10,,,29.920275,1008.4,,TRUE,TRUE,,,,,,,,,,,,,,,,,,,,,,,,,,,METAR,1809.0
K4BM 270053Z AUTO 19006G14KT 10SM CLR 03/M13 A3031 RMK AO2,K4BM,2019-03-27T00:53:00Z,39.05,-105.52,3.0,-13.0,190,6,14,10.0,30.31004,,,TRUE,TRUE,,,,,,,CLR,,,,,,,,VFR,,,,,,,,,,,,METAR,3438.0
KBAF 270053Z 00000KT 10SM CLR 00/M15 A3032 RMK AO2 SLP273 T00001150,KBAF,2019-03-27T00:53:00Z,42.17,-72.72,0.0,-15.0,0,0,,10.0,30.318897,1027.3,,,TRUE,,,,,,,CLR,,,,,,,,VFR,,,,,,,,,,,,METAR,83.0
KOQT 270053Z AUTO VRB04KT 10SM CLR 11/M03 A3024 RMK AO2 SLP244 T01111033,KOQT,2019-03-27T00:53:00Z,36.02,-84.23,11.1,-3.3,0,4,,10.0,30.239174,1024.4,,TRUE,TRUE,,,,,,,CLR,,,,,,,,VFR,,,,,,,,,,,,METAR,277.0
KCQC 270053Z AUTO 17016KT 10SM CLR 13/03 A3023 RMK AO2 SLP197 T01330028,KCQC,2019-03-27T00:53:00Z,35.0,-105.67,13.3,2.8,170,16,,10.0,30.230314,1019.7,,TRUE,TRUE,,,,,,,CLR,,,,,,,,VFR,,,,,,,,,,,,METAR,2160.0
KNIP 270053Z 04014G24KT 10SM BKN020 BKN032 BKN090 18/13 A3006 RMK AO2 SLP173 T01830133,KNIP,2019-03-27T00:53:00Z,30.22,-81.67,18.3,13.3,40,14,24,10.0,30.059055,1017.3,,,TRUE,,,,,,,BKN,2000,BKN,3200,BKN,9000,,,MVFR,,,,,,,,,,,,METAR,7.0
PTPN 270053Z 04015G23KT 3SM SHRA BKN015CB OVC110 26/25 A2985 RMK CB ALQDS MOV W ,PTPN,2019-03-27T00:53:00Z,6.97,158.22,26.0,25.0,40,15,23,3.0,29.84941,,,,,,,,,,SHRA,BKN,1500,OVC,11000,,,,,MVFR,,,,,,,,,,,,METAR,2.0
KOZR 270053Z AUTO 32008KT 10SM CLR 13/08 A3013 RMK AO2 SLP205 $,KOZR,2019-03-27T00:53:00Z,31.28,-85.72,13.0,8.0,320,8,,10.0,30.129921,1020.5,,TRUE,TRUE,TRUE,,,,,,CLR,,,,,,,,VFR,,,,,,,,,,,,SPECI,93.0
KFBG 270053Z AUTO 01003KT 10SM CLR 09/01 A3025 RMK AO2 SLP247,KFBG,2019-03-27T00:53:00Z,35.12,-78.92,9.0,1.0,10,3,,10.0,30.250984,1024.7,,TRUE,TRUE,,,,,,,CLR,,,,,,,,VFR,,,,,,,,,,,,SPECI,74.0
ETIH 270053Z AUTO 28004KT 9999 -RA FEW009 BKN022 03/03 A3038 RMK AO2 RAE2357RAB08 BKN V SCT SLP307 $,ETIH,2019-03-27T00:53:00Z,49.22,11.82,3.0,3.0,280,4,,6.21,30.380905,1030.7,,TRUE,TRUE,TRUE,,,,,-RA,FEW,900,BKN,2200,,,,,MVFR,,,,,,,,,,,,SPECI,442.0
KMGY 270053Z AUTO 05003KT 10SM CLR 05/M08 A3035 RMK AO2 SLP284 T00501078,KMGY,2019-03-27T00:53:00Z,39.6,-84.23,5.0,-7.8,50,3,,10.0,30.351377,1028.4,,TRUE,TRUE,,,,,,,CLR,,,,,,,,VFR,,,,,,,,,,,,METAR,289.0
KUNV 270053Z 04004KT 10SM SKC 03/M15 A3032,KUNV,2019-03-27T00:53:00Z,40.85,-77.83,3.0,-15.0,40,4,,10.0,30.318897,,,,,,,,,,,SKC,,,,,,,,VFR,,,,,,,,,,,,METAR,378.0
PACD 270053Z 15012KT 10SM CLR 08/M01 A3021 RMK AO2 SLP231 T00831011,PACD,2019-03-27T00:53:00Z,55.2,-162.72,8.3,-1.1,150,12,,10.0,30.209646,1023.1,,,TRUE,,,,,,,CLR,,,,,,,,VFR,,,,,,,,,,,,METAR,30.0
PABT 270053Z 00000KT 2SM -RA BR BKN005 OVC009 02/02 A3003 RMK AO2 SLP182 T00220017 PNO,PABT,2019-03-27T00:53:00Z,66.92,-151.52,2.2,1.7,0,0,,2.0,30.029528,1018.2,,,TRUE,,,,,,-RA BR,BKN,500,OVC,900,,,,,IFR,,,,,,,,,,,,METAR,195.0
PABR 270053Z 19007KT 10SM SCT033 BKN075 M02/M02 A2984 RMK AO2 SLP106 P0001 T10221022,PABR,2019-03-27T00:53:00Z,71.28,-156.77,-2.2,-2.2,190,7,,10.0,29.840551,1010.6,,,TRUE,,,,,,,SCT,3300,BKN,7500,,,,,VFR,,,,,,0.01,,,,,,METAR,7.0
PABI 270053Z 04006KT 10SM FEW035 FEW070 BKN100 BKN200 09/01 A3004 RMK AO2 SLP186 T00890006,PABI,2019-03-27T00:53:00Z,64.0,-145.72,8.9,0.6,40,6,,10.0,30.041338,1018.6,,,TRUE,,,,,,,FEW,3500,FEW,7000,BKN,10000,BKN,20000,VFR,,,,,,,,,,,,METAR,386.0
PAAQ 270053Z AUTO 22005KT 10SM CLR 09/M02 A3003 RMK AO2 SLP171 T00891022 TSNO,PAAQ,2019-03-27T00:53:00Z,61.6,-149.08,8.9,-2.2,220,5,,10.0,30.029528,1017.1,,TRUE,TRUE,,,TRUE,,,,CLR,,,,,,,,VFR,,,,,,,,,,,,METAR,73.0
KARB 270053Z AUTO 12003KT 10SM CLR 01/M07 A3040 RMK AO2 SLP303 T00111072,KARB,2019-03-27T00:53:00Z,42.22,-83.73,1.1,-7.2,120,3,,10.0,30.398623,1030.3,,TRUE,TRUE,,,,,,,CLR,,,,,,,,VFR,,,,,,,,,,,,METAR,251.0
KLEB 270053Z VRB03KT 10SM CLR M01/M16 A3033,KLEB,2019-03-27T00:53:00Z,43.63,-72.3,-1.0,-16.0,0,3,,10.0,30.33071,,,,,,,,,,,CLR,,,,,,,,VFR,,,,,,,,,,,,METAR,171.0
KMLT 270053Z AUTO 30006KT 10SM CLR M04/M16 A3028 RMK AO2 SLP267 T10441161,KMLT,2019-03-27T00:53:00Z,45.65,-68.7,-4.4,-16.1,300,6,,10.0,30.280512,1026.7,,TRUE,TRUE,,,,,,,CLR,,,,,,,,VFR,,,,,,,,,,,,METAR,123.0
KORB 270053Z AUTO 17006KT 10SM OVC046 04/M06 A3008 RMK AO2,KORB,2019-03-27T00:53:00Z,48.02,-92.87,4.0,-6.0,170,6,,10.0,30.079725,,,TRUE,TRUE,,,,,,,OVC,4600,,,,,,,VFR,,,,,,,,,,,,METAR,397.0
KMYP 270053Z AUTO 24027G36KT 10SM SCT075 BKN110 02/M12 A3043 RMK AO2,KMYP,2019-03-27T00:53:00Z,38.48,-106.32,2.0,-12.0,240,27,36,10.0,30.431103,,,TRUE,TRUE,,,,,,,SCT,7500,BKN,11000,,,,,VFR,,,,,,,,,,,,METAR,3667.0
KFVE 270053Z AUTO 30005KT 10SM CLR M06/M18 A3018 RMK AO2 SLP238 T10611178,KFVE,2019-03-27T00:53:00Z,47.28,-68.3,-6.1,-17.8,300,5,,10.0,30.180119,1023.8,,TRUE,TRUE,,,,,,,CLR,,,,,,,,VFR,,,,,,,,,,,,METAR,301.0
KMTH 270053Z AUTO 30007KT 10SM CLR 25/20 A3000 RMK AO2 SLP157 T02500200,KMTH,2019-03-27T00:53:00Z,24.73,-81.05,25.0,20.0,300,7,,10.0,30.0,1015.7,,TRUE,TRUE,,,,,,,CLR,,,,,,,,VFR,,,,,,,,,,,,METAR,2.0
KMSY 270053Z 35008KT 10SM CLR 18/08 A3020 RMK AO2 SLP228 T01830078,KMSY,2019-03-27T00:53:00Z,30.0,-90.25,18.3,7.8,350,8,,10.0,30.200787,1022.8,,,TRUE,,,,,,,CLR,,,,,,,,VFR,,,,,,,,,,,,METAR,5.0
KMSS 270053Z AUTO 00000KT 10SM CLR M05/M13 A3041 RMK AO2 SLP306 T10501128,KMSS,2019-03-27T00:53:00Z,44.93,-74.85,-5.0,-12.8,0,0,,10.0,30.410433,1030.6,,TRUE,TRUE,,,,,,,CLR,,,,,,,,VFR,,,,,,,,,,,,METAR,66.0
KMSP 270053Z 17009KT 10SM OVC033 09/01 A3020 RMK AO2 SLP234 T00890011,KMSP,2019-03-27T00:53:00Z,44.88,-93.23,8.9,1.1,170,9,,10.0,30.200787,1023.4,,,TRUE,,,,,,,OVC,3300,,,,,,,VFR,,,,,,,,,,,,METAR,265.0
KMSO 270053Z 21003KT 10SM FEW065 08/01 A2997 RMK AO2 SLP166 T00830006,KMSO,2019-03-27T00:53:00Z,46.92,-114.1,8.3,0.6,210,3,,10.0,29.970472,1016.6,,,TRUE,,,,,,,FEW,6500,,,,,,,VFR,,,,,,,,,,,,METAR,975.0
KMSN 270053Z 19007KT 10SM CLR 06/M10 A3032 RMK AO2 SLP276 T00561100,KMSN,2019-03-27T00:53:00Z,43.13,-89.35,5.6,-10.0,190,7,,10.0,30.318897,1027.6,,,TRUE,,,,,,,CLR,,,,,,,,VFR,,,,,,,,,,,,METAR,261.0
KMSL 270053Z AUTO 02006KT 10SM CLR 12/M08 A3026 RMK AO2 SLP246 T01221078,KMSL,2019-03-27T00:53:00Z,34.75,-87.6,12.2,-7.8,20,6,,10.0,30.259842,1024.6,,TRUE,TRUE,,,,,,,CLR,,,,,,,,VFR,,,,,,,,,,,,METAR,164.0
KMRB 270053Z 00000KT 10SM CLR 02/M09 A3033 RMK AO2 SLP276 T00221094,KMRB,2019-03-27T00:53:00Z,39.4,-77.98,2.2,-9.4,0,0,,10.0,30.33071,1027.6,,,TRUE,,,,,,,CLR,,,,,,,,VFR,,,,,,,,,,,,METAR,164.0
KMBS 270053Z 15005KT 10SM CLR 02/M10 A3041 RMK AO2 SLP305 T00171100,KMBS,2019-03-27T00:53:00Z,43.53,-84.08,1.7,-10.0,150,5,,10.0,30.410433,1030.5,,,TRUE,,,,,,,CLR,,,,,,,,VFR,,,,,,,,,,,,METAR,202.0
KMAI 270053Z AUTO 33013KT 10SM CLR 15/09 A3010 RMK AO2 SLP193 T01500089,KMAI,2019-03-27T00:53:00Z,30.83,-85.18,15.0,8.9,330,13,,10.0,30.100393,1019.3,,TRUE,TRUE,,,,,,,CLR,,,,,,,,VFR,,,,,,,,,,,,METAR,32.0
KMAF 270053Z 12017KT 10SM CLR 22/11 A3016 RMK AO2 SLP185 T02170106,KMAF,2019-03-27T00:53:00Z,31.95,-102.2,21.7,10.6,120,17,,10.0,30.159449,1018.5,,,TRUE,,,,,,,CLR,,,,,,,,VFR,,,,,,,,,,,,METAR,874.0
KMAE 270053Z AUTO 34006KT 10SM SCT110 21/12 A2994 RMK AO2 SLP137 T02110117,KMAE,2019-03-27T00:53:00Z,36.98,-120.12,21.1,11.7,340,6,,10.0,29.940945,1013.7,,TRUE,TRUE,,,,,,,SCT,11000,,,,,,,VFR,,,,,,,,,,,,METAR,77.0
KLXV 270053Z AUTO 18008KT 10SM CLR 04/M09 A3022 RMK AO2 SLP205 T00441094,KLXV,2019-03-27T00:53:00Z,39.23,-106.32,4.4,-9.4,180,8,,10.0,30.221457,1020.5,,TRUE,TRUE,,,,,,,CLR,,,,,,,,VFR,,,,,,,,,,,,METAR,3028.0
KLXT 270053Z AUTO 14005KT 10SM 13/03 A3028 RMK AO2 SLP256 T01280028 $,KLXT,2019-03-27T00:53:00Z,38.97,-94.37,12.8,2.8,140,5,,10.0,30.280512,1025.6,,TRUE,TRUE,TRUE,,,,,,,,,,,,,,,,,,,,,,,,,,METAR,306.0
KLWV 270053Z AUTO 35004KT 10SM CLR 07/M03 A3037 RMK AO2 SLP285 T00671033,KLWV,2019-03-27T00:53:00Z,38.77,-87.6,6.7,-3.3,350,4,,10.0,30.369095,1028.5,,TRUE,TRUE,,,,,,,CLR,,,,,,,,VFR,,,,,,,,,,,,METAR,131.0
KLWD 270053Z AUTO 15005KT 10SM SCT075 11/02 A3026 RMK AO2 SLP254 T01060022,KLWD,2019-03-27T00:53:00Z,40.63,-93.9,10.6,2.2,150,5,,10.0,30.259842,1025.4,,TRUE,TRUE,,,,,,,SCT,7500,,,,,,,VFR,,,,,,,,,,,,METAR,346.0
KLVS 270053Z AUTO 18015G22KT 10SM CLR 14/M01 A3020 RMK AO2 PK WND 16027/0008 SLP186 T01391006,KLVS,2019-03-27T00:53:00Z,35.65,-105.13,13.9,-0.6,180,15,22,10.0,30.200787,1018.6,,TRUE,TRUE,,,,,,,CLR,,,,,,,,VFR,,,,,,,,,,,,METAR,2091.0
KLVM 270053Z AUTO 34003KT 10SM OVC100 09/M01 A2990 RMK AO2 SLP118 T00941011,KLVM,2019-03-27T00:53:00Z,45.7,-110.43,9.4,-1.1,340,3,,10.0,29.899607,1011.8,,TRUE,TRUE,,,,,,,OVC,10000,,,,,,,VFR,,,,,,,,,,,,METAR,1418.0
KLVK 270053Z 25006KT 10SM BKN085 OVC100 17/08 A2991 RMK AO2 RAB2357E20 SLP128 P0000 T01720078,KLVK,2019-03-27T00:53:00Z,37.7,-121.82,17.2,7.8,250,6,,10.0,29.911417,1012.8,,,TRUE,,,,,,,BKN,8500,OVC,10000,,,,,VFR,,,,,,0.005,,,,,,METAR,117.0
KLVJ 270053Z AUTO 07004KT 10SM CLR 22/09 A3022 RMK AO2 SLP233 T02170094,KLVJ,2019-03-27T00:53:00Z,29.52,-95.25,21.7,9.4,70,4,,10.0,30.221457,1023.3,,TRUE,TRUE,,,,,,,CLR,,,,,,,,VFR,,,,,,,,,,,,METAR,12.0
KLUK 270053Z 00000KT 10SM CLR 05/M06 A3038 RMK AO2 SLP291 T00501056,KLUK,2019-03-27T00:53:00Z,39.1,-84.42,5.0,-5.6,0,0,,10.0,30.380905,1029.1,,,TRUE,,,,,,,CLR,,,,,,,,VFR,,,,,,,,,,,,METAR,155.0
